{"type":"FeatureCollection","features":[{"id":"0","type":"Feature","properties":{"state_code":"04","district":"Chandigarh","district_code":"055","sub_district":"Chandigarh","sub_district_code":"0277","sub_district_type":"Chandigarh","village":"Chandigarh, M Corp","village_category":"Fully_Urban","village_code":"800286"},"geometry":{"type":"Polygon","coordinates":[[[76.79829,30.77172],[76.80662,30.76365],[76.81539,30.75298],[76.81053,30.75222],[76.80677,30.74874],[76.81067,30.74371],[76.81085,30.74616],[76.81022,30.74594],[76.81014,30.74673],[76.81398,30.74784],[76.81538,30.74595],[76.81823,30.74602],[76.81805,30.74473],[76.81919,30.74568],[76.82231,30.74313],[76.82549,30.74281],[76.82652,30.74363],[76.83236,30.73988],[76.83151,30.73943],[76.83118,30.73734],[76.82103,30.73185],[76.81954,30.72711],[76.82034,30.72224],[76.81875,30.72233],[76.81312,30.72782],[76.81548,30.72945],[76.81579,30.7333],[76.81202,30.73568],[76.80112,30.72926],[76.7809,30.75289],[76.79198,30.75989],[76.78782,30.76512],[76.79159,30.76709],[76.79147,30.76886],[76.79596,30.77099],[76.7983,30.77112],[76.79829,30.77172]]]}},{"id":"1","type":"Feature","properties":{"state_code":"04","district":"Chandigarh","district_code":"055","sub_district":"Chandigarh","sub_district_code":"0277","sub_district_type":"Chandigarh","village":"Chandigarh, M Corp","village_category":"Fully_Urban","village_code":"800286"},"geometry":{"type":"Polygon","coordinates":[[[76.81875,30.72233],[76.82034,30.72224],[76.82011,30.71818],[76.81836,30.71376],[76.81528,30.71543],[76.81005,30.72],[76.80112,30.72926],[76.81202,30.73568],[76.81579,30.7333],[76.81548,30.72945],[76.81312,30.72782],[76.81875,30.72233]]]}},{"id":"2","type":"Feature","properties":{"state_code":"04","district":"Chandigarh","district_code":"055","sub_district":"Chandigarh","sub_district_code":"0277","sub_district_type":"Chandigarh","village":"Chandigarh, M Corp","village_category":"Fully_Urban","village_code":"800286"},"geometry":{"type":"Polygon","coordinates":[[[76.80112,30.72926],[76.78986,30.72218],[76.78482,30.72785],[76.77353,30.72071],[76.76841,30.7265],[76.79104,30.74049],[76.80112,30.72926]]]}},{"id":"3","type":"Feature","properties":{"state_code":"04","district":"Chandigarh","district_code":"055","sub_district":"Chandigarh","sub_district_code":"0277","sub_district_type":"Chandigarh","village":"Chandigarh, M Corp","village_category":"Fully_Urban","village_code":"800286"},"geometry":{"type":"Polygon","coordinates":[[[76.776,30.75885],[76.79104,30.74049],[76.77981,30.73353],[76.76933,30.74588],[76.76387,30.74441],[76.75834,30.73903],[76.75367,30.74524],[76.776,30.75885]]]}},{"id":"4","type":"Feature","properties":{"state_code":"04","district":"Chandigarh","district_code":"055","sub_district":"Chandigarh","sub_district_code":"0277","sub_district_type":"Chandigarh","village":"Chandigarh, M Corp","village_category":"Fully_Urban","village_code":"800286"},"geometry":{"type":"Polygon","coordinates":[[[76.81226,30.7181],[76.78974,30.70418],[76.78375,30.7093],[76.79522,30.71666],[76.78986,30.72218],[76.80112,30.72926],[76.81226,30.7181]]]}},{"id":"5","type":"Feature","properties":{"state_code":"04","district":"Chandigarh","district_code":"055","sub_district":"Chandigarh","sub_district_code":"0277","sub_district_type":"Chandigarh","village":"Chandigarh, M Corp","village_category":"Fully_Urban","village_code":"800286"},"geometry":{"type":"Polygon","coordinates":[[[76.78482,30.72785],[76.79522,30.71666],[76.78375,30.7093],[76.77353,30.72071],[76.78482,30.72785]]]}},{"id":"6","type":"Feature","properties":{"state_code":"04","district":"Chandigarh","district_code":"055","sub_district":"Chandigarh","sub_district_code":"0277","sub_district_type":"Chandigarh","village":"Chandigarh, M Corp","village_category":"Fully_Urban","village_code":"800286"},"geometry":{"type":"Polygon","coordinates":[[[76.77981,30.73353],[76.76841,30.7265],[76.75834,30.73903],[76.76387,30.74441],[76.76933,30.74588],[76.77981,30.73353]]]}},{"id":"7","type":"Feature","properties":{"state_code":"04","district":"Chandigarh","district_code":"055","sub_district":"Chandigarh","sub_district_code":"0277","sub_district_type":"Chandigarh","village":"Chandigarh, M Corp","village_category":"Fully_Urban","village_code":"800286"},"geometry":{"type":"Polygon","coordinates":[[[76.763,30.73313],[76.74079,30.71919],[76.73807,30.71808],[76.7356,30.71819],[76.73089,30.7131],[76.7288,30.71578],[76.73116,30.71744],[76.73106,30.72358],[76.73051,30.72412],[76.72954,30.72354],[76.72531,30.72784],[76.73098,30.73127],[76.73403,30.72751],[76.73737,30.72958],[76.74519,30.73118],[76.75834,30.73903],[76.763,30.73313]]]}},{"id":"8","type":"Feature","properties":{"state_code":"04","district":"Chandigarh","district_code":"055","sub_district":"Chandigarh","sub_district_code":"0277","sub_district_type":"Chandigarh","village":"Chandigarh, M Corp","village_category":"Fully_Urban","village_code":"800286"},"geometry":{"type":"Polygon","coordinates":[[[76.763,30.73313],[76.77353,30.72071],[76.76233,30.71363],[76.75716,30.71948],[76.7462,30.71268],[76.74079,30.71919],[76.763,30.73313]]]}},{"id":"9","type":"Feature","properties":{"state_code":"04","district":"Chandigarh","district_code":"055","sub_district":"Chandigarh","sub_district_code":"0277","sub_district_type":"Chandigarh","village":"Chandigarh, M Corp","village_category":"Fully_Urban","village_code":"800286"},"geometry":{"type":"Polygon","coordinates":[[[76.76233,30.71363],[76.74513,30.70266],[76.74278,30.7004],[76.73829,30.69909],[76.73798,30.69981],[76.73933,30.70037],[76.73959,30.70496],[76.7391,30.70575],[76.73575,30.70588],[76.75716,30.71948],[76.76233,30.71363]]]}},{"id":"10","type":"Feature","properties":{"state_code":"04","district":"Chandigarh","district_code":"055","sub_district":"Chandigarh","sub_district_code":"0277","sub_district_type":"Chandigarh","village":"Chandigarh, M Corp","village_category":"Fully_Urban","village_code":"800286"},"geometry":{"type":"MultiPolygon","coordinates":[[[[76.73575,30.70588],[76.73575,30.70588],[76.73575,30.70588],[76.73575,30.70588]]],[[[76.73575,30.70588],[76.73012,30.70682],[76.72916,30.71175],[76.73125,30.71256],[76.73089,30.7131],[76.7356,30.71819],[76.73807,30.71808],[76.74079,30.71919],[76.7462,30.71268],[76.73575,30.70588]]]]}},{"id":"11","type":"Feature","properties":{"state_code":"04","district":"Chandigarh","district_code":"055","sub_district":"Chandigarh","sub_district_code":"0277","sub_district_type":"Chandigarh","village":"Chandigarh, M Corp","village_category":"Fully_Urban","village_code":"800286"},"geometry":{"type":"Polygon","coordinates":[[[76.77264,30.70216],[76.76115,30.69508],[76.75095,30.70627],[76.76233,30.71363],[76.77264,30.70216]],[[76.7609,30.71072],[76.75869,30.71039],[76.75822,30.70619],[76.76278,30.70561],[76.76327,30.70692],[76.76398,30.70682],[76.76407,30.70998],[76.76076,30.71004],[76.7609,30.71072]]]}},{"id":"12","type":"Feature","properties":{"state_code":"04","district":"Chandigarh","district_code":"055","sub_district":"Chandigarh","sub_district_code":"0277","sub_district_type":"Chandigarh","village":"Chandigarh, M Corp","village_category":"Fully_Urban","village_code":"800286"},"geometry":{"type":"Polygon","coordinates":[[[76.7609,30.71072],[76.76076,30.71004],[76.76407,30.70998],[76.76398,30.70682],[76.76327,30.70692],[76.76278,30.70561],[76.75822,30.70619],[76.75869,30.71039],[76.7609,30.71072]]]}},{"id":"13","type":"Feature","properties":{"state_code":"04","district":"Chandigarh","district_code":"055","sub_district":"Chandigarh","sub_district_code":"0277","sub_district_type":"Chandigarh","village":"Chandigarh, M Corp","village_category":"Fully_Urban","village_code":"800286"},"geometry":{"type":"Polygon","coordinates":[[[76.78375,30.7093],[76.78974,30.70418],[76.77791,30.69657],[76.76233,30.71363],[76.77353,30.72071],[76.78375,30.7093]]]}},{"id":"14","type":"Feature","properties":{"state_code":"04","district":"Chandigarh","district_code":"055","sub_district":"Chandigarh","sub_district_code":"0277","sub_district_type":"Chandigarh","village":"Chandigarh, M Corp","village_category":"Fully_Urban","village_code":"800286"},"geometry":{"type":"Polygon","coordinates":[[[76.74667,30.73202],[76.74382,30.73056],[76.73737,30.72958],[76.73403,30.72751],[76.73098,30.73127],[76.74211,30.73818],[76.74667,30.73202]]]}},{"id":"15","type":"Feature","properties":{"state_code":"04","district":"Chandigarh","district_code":"055","sub_district":"Chandigarh","sub_district_code":"0277","sub_district_type":"Chandigarh","village":"Chandigarh, M Corp","village_category":"Fully_Urban","village_code":"800286"},"geometry":{"type":"Polygon","coordinates":[[[76.7493,30.75127],[76.75834,30.73903],[76.74667,30.73202],[76.7379,30.7443],[76.7493,30.75127]]]}},{"id":"16","type":"Feature","properties":{"state_code":"04","district":"Chandigarh","district_code":"055","sub_district":"Chandigarh","sub_district_code":"0277","sub_district_type":"Chandigarh","village":"Chandigarh, M Corp","village_category":"Fully_Urban","village_code":"800286"},"geometry":{"type":"Polygon","coordinates":[[[76.78354,30.77057],[76.79067,30.77059],[76.79159,30.76709],[76.78782,30.76512],[76.79198,30.75989],[76.7809,30.75289],[76.776,30.75885],[76.75367,30.74524],[76.75247,30.74679],[76.7575,30.75083],[76.7548,30.75453],[76.76003,30.75788],[76.75726,30.76185],[76.76066,30.76451],[76.76912,30.76809],[76.76894,30.76988],[76.77011,30.77162],[76.77519,30.76961],[76.78226,30.77281],[76.78354,30.77057]]]}},{"id":"17","type":"Feature","properties":{"state_code":"04","district":"Chandigarh","district_code":"055","sub_district":"Chandigarh","sub_district_code":"0277","sub_district_type":"Chandigarh","village":"Chandigarh, M Corp","village_category":"Fully_Urban","village_code":"800286"},"geometry":{"type":"Polygon","coordinates":[[[76.75095,30.70627],[76.76669,30.68936],[76.76237,30.6866],[76.75709,30.68613],[76.75279,30.68453],[76.7503,30.68827],[76.74771,30.68764],[76.74722,30.6954],[76.73949,30.69285],[76.73959,30.69808],[76.73863,30.69867],[76.74278,30.7004],[76.75095,30.70627]]]}},{"id":"18","type":"Feature","properties":{"state_code":"04","district":"Chandigarh","district_code":"055","sub_district":"Chandigarh","sub_district_code":"0277","sub_district_type":"Chandigarh","village":"Chandigarh, M Corp","village_category":"Fully_Urban","village_code":"800286"},"geometry":{"type":"Polygon","coordinates":[[[76.79863,30.69522],[76.79308,30.68941],[76.78924,30.68729],[76.78548,30.6925],[76.78243,30.69154],[76.77791,30.69657],[76.78974,30.70418],[76.79863,30.69522]]]}},{"id":"19","type":"Feature","properties":{"state_code":"04","district":"Chandigarh","district_code":"055","sub_district":"Chandigarh","sub_district_code":"0277","sub_district_type":"Chandigarh","village":"Chandigarh, M Corp","village_category":"Fully_Urban","village_code":"800286"},"geometry":{"type":"Polygon","coordinates":[[[76.80285,30.69113],[76.80763,30.68015],[76.81343,30.67034],[76.81167,30.67002],[76.80872,30.66741],[76.80419,30.66639],[76.80253,30.66653],[76.80048,30.67016],[76.79651,30.66765],[76.79159,30.67285],[76.79005,30.6756],[76.78118,30.67407],[76.77233,30.68007],[76.7746,30.68149],[76.77331,30.68327],[76.77364,30.6849],[76.77246,30.68614],[76.76983,30.68667],[76.77155,30.68895],[76.77365,30.69011],[76.78403,30.69169],[76.78548,30.6925],[76.78924,30.68729],[76.79308,30.68941],[76.79863,30.69522],[76.80285,30.69113]]]}},{"id":"20","type":"Feature","properties":{"state_code":"04","district":"Chandigarh","district_code":"055","sub_district":"Chandigarh","sub_district_code":"0277","sub_district_type":"Chandigarh","village":"Chandigarh, M Corp","village_category":"Fully_Urban","village_code":"800286"},"geometry":{"type":"Polygon","coordinates":[[[76.77264,30.70216],[76.78243,30.69154],[76.77365,30.69011],[76.77155,30.68895],[76.76982,30.68676],[76.77259,30.68608],[76.77364,30.6849],[76.77331,30.68327],[76.7746,30.68149],[76.77233,30.68007],[76.78118,30.67407],[76.77944,30.67153],[76.77725,30.67032],[76.77439,30.67219],[76.77019,30.67977],[76.76691,30.68269],[76.76445,30.68625],[76.76237,30.6866],[76.76669,30.68936],[76.76115,30.69508],[76.77264,30.70216]]]}},{"id":"21","type":"Feature","properties":{"state_code":"04","district":"Chandigarh","district_code":"055","sub_district":"Chandigarh","sub_district_code":"0277","sub_district_type":"Chandigarh","village":"Chandigarh, M Corp","village_category":"Fully_Urban","village_code":"800286"},"geometry":{"type":"Polygon","coordinates":[[[76.74303,30.74754],[76.7379,30.7443],[76.74211,30.73818],[76.73098,30.73127],[76.7222,30.74347],[76.7377,30.75275],[76.74303,30.74754]]]}},{"id":"22","type":"Feature","properties":{"state_code":"04","district":"Chandigarh","district_code":"055","sub_district":"Chandigarh","sub_district_code":"0277","sub_district_type":"Chandigarh","village":"Chandigarh, M Corp","village_category":"Fully_Urban","village_code":"800286"},"geometry":{"type":"Polygon","coordinates":[[[76.73008,30.76078],[76.74392,30.75752],[76.7439,30.75573],[76.7493,30.75127],[76.74303,30.74754],[76.7377,30.75275],[76.73288,30.75015],[76.73306,30.75338],[76.73175,30.75344],[76.73186,30.75548],[76.72941,30.75577],[76.72894,30.75698],[76.72902,30.75772],[76.72987,30.7577],[76.73008,30.76078]]]}},{"id":"23","type":"Feature","properties":{"state_code":"04","district":"Chandigarh","district_code":"055","sub_district":"Chandigarh","sub_district_code":"0277","sub_district_type":"Chandigarh","village":"Chandigarh, M Corp","village_category":"Fully_Urban","village_code":"800286"},"geometry":{"type":"Polygon","coordinates":[[[76.7222,30.74347],[76.73098,30.73127],[76.72531,30.72784],[76.72129,30.72993],[76.71485,30.73915],[76.7222,30.74347]]]}},{"id":"24","type":"Feature","properties":{"state_code":"04","district":"Chandigarh","district_code":"055","sub_district":"Chandigarh","sub_district_code":"0277","sub_district_type":"Chandigarh","village":"Chandigarh, M Corp","village_category":"Fully_Urban","village_code":"800286"},"geometry":{"type":"Polygon","coordinates":[[[76.72739,30.76319],[76.72787,30.76168],[76.73008,30.76078],[76.72987,30.7577],[76.72902,30.75772],[76.72894,30.75698],[76.72941,30.75577],[76.73186,30.75548],[76.73175,30.75344],[76.73306,30.75338],[76.73288,30.75015],[76.71485,30.73915],[76.71422,30.74092],[76.71332,30.74056],[76.71281,30.7412],[76.70745,30.7395],[76.70519,30.74291],[76.70664,30.74464],[76.7059,30.74739],[76.70716,30.74782],[76.70805,30.74975],[76.70704,30.75385],[76.70527,30.75538],[76.70553,30.75633],[76.71075,30.76099],[76.71358,30.76202],[76.71397,30.76311],[76.71575,30.76273],[76.71841,30.76388],[76.72059,30.76316],[76.72275,30.76505],[76.72739,30.76319]]]}},{"id":"25","type":"Feature","properties":{"state_code":"04","district":"Chandigarh","district_code":"055","sub_district":"Chandigarh","sub_district_code":"0277","sub_district_type":"Chandigarh","village":"Chandigarh, M Corp","village_category":"Fully_Urban","village_code":"800286"},"geometry":{"type":"MultiPolygon","coordinates":[[[[76.74392,30.75752],[76.74781,30.7586],[76.75491,30.76487],[76.76003,30.75788],[76.7548,30.75453],[76.7575,30.75083],[76.75247,30.74679],[76.7493,30.75127],[76.7439,30.75573],[76.74392,30.75752]]],[[[76.74392,30.75752],[76.73555,30.75871],[76.72805,30.76154],[76.7272,30.76345],[76.72275,30.76505],[76.72564,30.7664],[76.72805,30.76479],[76.73095,30.76481],[76.74373,30.76984],[76.74687,30.76825],[76.75018,30.76909],[76.74411,30.75951],[76.74392,30.75752]]]]}},{"id":"26","type":"Feature","properties":{"state_code":"04","district":"Chandigarh","district_code":"055","sub_district":"Chandigarh","sub_district_code":"0277","sub_district_type":"Chandigarh","village":"Chandigarh, M Corp","village_category":"Fully_Urban","village_code":"800286"},"geometry":{"type":"Polygon","coordinates":[[[76.77149,30.79515],[76.77124,30.78775],[76.77034,30.78566],[76.76977,30.77923],[76.77064,30.77755],[76.76922,30.77616],[76.76669,30.77695],[76.76509,30.77438],[76.76311,30.77422],[76.76005,30.77256],[76.75246,30.77294],[76.75018,30.76909],[76.74731,30.7683],[76.74373,30.76984],[76.74377,30.77138],[76.74545,30.77239],[76.74503,30.77421],[76.74337,30.77593],[76.75232,30.78024],[76.75185,30.7843],[76.75917,30.78817],[76.75905,30.789],[76.76163,30.7914],[76.76773,30.79433],[76.76882,30.79403],[76.77149,30.79515]]]}},{"id":"27","type":"Feature","properties":{"state_code":"04","district":"Chandigarh","district_code":"055","sub_district":"Chandigarh","sub_district_code":"0277","sub_district_type":"Chandigarh","village":"Chandigarh, M Corp","village_category":"Fully_Urban","village_code":"800286"},"geometry":{"type":"Polygon","coordinates":[[[76.76622,30.77389],[76.77011,30.77162],[76.76894,30.76988],[76.76912,30.76809],[76.76066,30.76451],[76.75726,30.76185],[76.75491,30.76487],[76.74781,30.7586],[76.74392,30.75752],[76.74411,30.75951],[76.75246,30.77294],[76.76005,30.77256],[76.76311,30.77422],[76.76622,30.77389]]]}},{"id":"28","type":"Feature","properties":{"state_code":"04","district":"Chandigarh","district_code":"055","sub_district":"Chandigarh","sub_district_code":"0277","sub_district_type":"Chandigarh","village":"Chandigarh, M Corp","village_category":"Fully_Urban","village_code":"800286"},"geometry":{"type":"Polygon","coordinates":[[[76.82853,30.69473],[76.82994,30.69322],[76.82734,30.69189],[76.82751,30.68972],[76.82527,30.68813],[76.82621,30.68682],[76.82771,30.68761],[76.83179,30.6832],[76.82935,30.68198],[76.82927,30.68089],[76.82722,30.68198],[76.82187,30.67833],[76.82104,30.67759],[76.8209,30.67485],[76.817,30.67302],[76.81634,30.67133],[76.81343,30.67034],[76.80763,30.68015],[76.80285,30.69113],[76.81532,30.69005],[76.81531,30.68729],[76.81705,30.68718],[76.81675,30.68615],[76.81853,30.68497],[76.82027,30.68528],[76.81828,30.68765],[76.81787,30.68997],[76.82391,30.68985],[76.8238,30.6924],[76.82468,30.69253],[76.82523,30.69385],[76.82853,30.69473]]]}},{"id":"29","type":"Feature","properties":{"state_code":"04","district":"Chandigarh","district_code":"055","sub_district":"Chandigarh","sub_district_code":"0277","sub_district_type":"Chandigarh","village":"Chandigarh, M Corp","village_category":"Fully_Urban","village_code":"800286"},"geometry":{"type":"Polygon","coordinates":[[[76.83482,30.70114],[76.82866,30.69465],[76.82523,30.69385],[76.82468,30.69253],[76.8238,30.6924],[76.82391,30.68985],[76.81787,30.68997],[76.82123,30.70272],[76.82478,30.70171],[76.82749,30.70289],[76.83482,30.70114]]]}},{"id":"30","type":"Feature","properties":{"state_code":"04","district":"Chandigarh","district_code":"055","sub_district":"Chandigarh","sub_district_code":"0277","sub_district_type":"Chandigarh","village":"Chandigarh, M Corp","village_category":"Fully_Urban","village_code":"800286"},"geometry":{"type":"Polygon","coordinates":[[[76.82123,30.70272],[76.81797,30.68845],[76.82027,30.68528],[76.81853,30.68497],[76.81675,30.68615],[76.81705,30.68718],[76.81531,30.68729],[76.81532,30.69005],[76.80285,30.69113],[76.78974,30.70418],[76.81226,30.7181],[76.81695,30.7143],[76.82477,30.71207],[76.82123,30.70272]]]}},{"id":"31","type":"Feature","properties":{"state_code":"04","district":"Chandigarh","district_code":"055","sub_district":"Chandigarh","sub_district_code":"0277","sub_district_type":"Chandigarh","village":"Chandigarh, M Corp","village_category":"Fully_Urban","village_code":"800286"},"geometry":{"type":"Polygon","coordinates":[[[76.8416,30.72554],[76.83996,30.71986],[76.845,30.72054],[76.84362,30.71919],[76.84503,30.71722],[76.84941,30.71829],[76.84681,30.71687],[76.84836,30.71519],[76.84735,30.71258],[76.8375,30.70798],[76.8357,30.71248],[76.83478,30.71307],[76.83345,30.71239],[76.83309,30.71349],[76.83284,30.71528],[76.8356,30.71712],[76.83319,30.71988],[76.82732,30.7199],[76.82878,30.72338],[76.831,30.72479],[76.83888,30.72622],[76.8416,30.72554]]]}},{"id":"32","type":"Feature","properties":{"state_code":"04","district":"Chandigarh","district_code":"055","sub_district":"Chandigarh","sub_district_code":"0277","sub_district_type":"Chandigarh","village":"Chandigarh, M Corp","village_category":"Fully_Urban","village_code":"800286"},"geometry":{"type":"Polygon","coordinates":[[[76.83201,30.73868],[76.8332,30.7387],[76.83725,30.73348],[76.83901,30.73374],[76.84162,30.73284],[76.84338,30.73114],[76.84757,30.73129],[76.84821,30.7303],[76.84647,30.72955],[76.84935,30.72339],[76.84638,30.72257],[76.84483,30.72125],[76.845,30.72054],[76.83996,30.71986],[76.84032,30.72282],[76.84179,30.72583],[76.83888,30.72622],[76.831,30.72479],[76.82804,30.72219],[76.82477,30.71207],[76.81836,30.71376],[76.82011,30.71818],[76.82041,30.72278],[76.81946,30.72485],[76.81954,30.72711],[76.82103,30.73185],[76.83118,30.73734],[76.83201,30.73868]]]}},{"id":"33","type":"Feature","properties":{"state_code":"04","district":"Chandigarh","district_code":"055","sub_district":"Chandigarh","sub_district_code":"0277","sub_district_type":"Chandigarh","village":"Chandigarh, M Corp","village_category":"Fully_Urban","village_code":"800286"},"geometry":{"type":"Polygon","coordinates":[[[76.84735,30.71258],[76.84388,30.70798],[76.83852,30.70583],[76.83558,30.70362],[76.83482,30.70114],[76.82749,30.70289],[76.82478,30.70171],[76.82123,30.70272],[76.82732,30.7199],[76.83319,30.71988],[76.8356,30.71712],[76.83284,30.71528],[76.83309,30.71349],[76.83345,30.71239],[76.83478,30.71307],[76.8357,30.71248],[76.8375,30.70798],[76.84735,30.71258]]]}},{"id":"34","type":"Feature","properties":{"state_code":"04","district":"Chandigarh","district_code":"055","sub_district":"Chandigarh","sub_district_code":"0277","sub_district_type":"Chandigarh","village":"Chandigarh, M Corp","village_category":"Fully_Urban","village_code":"800286"},"geometry":{"type":"MultiPolygon","coordinates":[[[[76.82631,30.76322],[76.83684,30.75489],[76.83817,30.75179],[76.83936,30.75147],[76.83387,30.7498],[76.83347,30.74623],[76.83476,30.74217],[76.83683,30.74263],[76.83328,30.74035],[76.83236,30.73988],[76.82652,30.74363],[76.82549,30.74281],[76.82231,30.74313],[76.81919,30.74568],[76.81805,30.74473],[76.81823,30.74602],[76.81538,30.74595],[76.81398,30.74784],[76.81014,30.74673],[76.81022,30.74594],[76.81085,30.74616],[76.81067,30.74371],[76.80677,30.74874],[76.81053,30.75222],[76.81581,30.75279],[76.8175,30.75391],[76.81819,30.75753],[76.82024,30.76092],[76.82425,30.76096],[76.82467,30.76233],[76.82631,30.76322]]],[[[76.81352,30.78011],[76.81552,30.77804],[76.81858,30.77784],[76.81815,30.77545],[76.81948,30.77463],[76.81954,30.77366],[76.8183,30.77155],[76.80732,30.76661],[76.80542,30.76493],[76.79829,30.77172],[76.80217,30.77558],[76.80756,30.77741],[76.80913,30.77927],[76.81216,30.77925],[76.81352,30.78011]]],[[[76.77502,30.79084],[76.78276,30.78914],[76.78737,30.77893],[76.77963,30.77771],[76.78226,30.77281],[76.77973,30.77219],[76.77701,30.76995],[76.77433,30.76967],[76.76509,30.77438],[76.76669,30.77695],[76.76885,30.77584],[76.77064,30.77755],[76.76977,30.77923],[76.77034,30.78566],[76.77124,30.78775],[76.77149,30.79515],[76.77502,30.79084]]]]}}],"name":"chandigarh_soi_villages","attribution":"Village boundaries: Survey of India, Government of India"}