{"type":"FeatureCollection","features":[{"id":"0","type":"Feature","properties":{"state":"DADRA & NAGAR HAVELI & DAMAN & DIU","state_code":"26","district":"DAMAN","district_code":"495","sub_district":"DAMAN","sub_district_code":"03948","sub_district_type":"Taluka","village":"ZARI","village_category":"Rural","village_code":"524925"},"geometry":{"type":"Polygon","coordinates":[[[72.87637,20.37511],[72.88061,20.37145],[72.87667,20.36977],[72.86759,20.37167],[72.86569,20.37226],[72.86496,20.37464],[72.86394,20.37521],[72.85813,20.37404],[72.85614,20.37203],[72.85484,20.37241],[72.85792,20.37827],[72.86328,20.38103],[72.86587,20.37868],[72.87637,20.37511]]]}},{"id":"1","type":"Feature","properties":{"state":"DADRA & NAGAR HAVELI & DAMAN & DIU","state_code":"26","district":"DAMAN","district_code":"495","sub_district":"DAMAN","sub_district_code":"03948","sub_district_type":"Taluka","village":"THANA PARDI","village_category":"Rural","village_code":"524924"},"geometry":{"type":"Polygon","coordinates":[[[72.85484,20.37241],[72.8474,20.37446],[72.84635,20.37636],[72.84718,20.37782],[72.84939,20.37692],[72.85025,20.37954],[72.8513,20.37945],[72.85202,20.38107],[72.85255,20.38062],[72.85317,20.38166],[72.85519,20.37818],[72.85792,20.37823],[72.85484,20.37241]]]}},{"id":"2","type":"Feature","properties":{"state":"DADRA & NAGAR HAVELI & DAMAN & DIU","state_code":"26","district":"DAMAN","district_code":"495","sub_district":"DAMAN","sub_district_code":"03948","sub_district_type":"Taluka","village":"BHAMTI","village_category":"Rural","village_code":"524918"},"geometry":{"type":"Polygon","coordinates":[[[72.84632,20.38437],[72.84517,20.38437],[72.84512,20.38252],[72.84296,20.38234],[72.84177,20.37918],[72.84114,20.37918],[72.84038,20.38288],[72.83841,20.38338],[72.83851,20.38487],[72.83654,20.38654],[72.83755,20.38866],[72.83999,20.38938],[72.84033,20.38812],[72.8409,20.3888],[72.84445,20.38789],[72.84632,20.38437]]]}},{"id":"3","type":"Feature","properties":{"state":"DADRA & NAGAR HAVELI & DAMAN & DIU","state_code":"26","district":"DAMAN","district_code":"495","sub_district":"DAMAN","sub_district_code":"03948","sub_district_type":"Taluka","village":"JAMPORE","village_category":"Rural","village_code":"524920"},"geometry":{"type":"Polygon","coordinates":[[[72.82705,20.37837],[72.82846,20.37479],[72.82832,20.3669],[72.82761,20.36661],[72.82514,20.36668],[72.80991,20.37224],[72.8046,20.37227],[72.80524,20.37606],[72.80965,20.38235],[72.81332,20.3901],[72.82806,20.38495],[72.8295,20.38166],[72.82705,20.37837]]]}},{"id":"4","type":"Feature","properties":{"state":"DADRA & NAGAR HAVELI & DAMAN & DIU","state_code":"26","district":"DAMAN","district_code":"495","sub_district":"DAMAN","sub_district_code":"03948","sub_district_type":"Taluka","village":"BHATHAIYA","village_category":"Rural","village_code":"999999999"},"geometry":{"type":"Polygon","coordinates":[[[72.8409,20.3888],[72.84033,20.38812],[72.83999,20.38938],[72.83755,20.38866],[72.83592,20.38608],[72.83295,20.38785],[72.83462,20.38812],[72.83376,20.38934],[72.83587,20.39047],[72.8375,20.38907],[72.83903,20.38938],[72.83942,20.39178],[72.84066,20.39227],[72.84301,20.38929],[72.84479,20.38974],[72.84445,20.38789],[72.8409,20.3888]]]}},{"id":"5","type":"Feature","properties":{"state":"DADRA & NAGAR HAVELI & DAMAN & DIU","state_code":"26","district":"DAMAN","district_code":"495","sub_district":"DAMAN","sub_district_code":"03948","sub_district_type":"Taluka","village":"DHOLAR","village_category":"Rural","village_code":"524919"},"geometry":{"type":"Polygon","coordinates":[[[72.83462,20.38812],[72.83295,20.38785],[72.83309,20.38726],[72.83549,20.3869],[72.83592,20.38608],[72.83654,20.38654],[72.83731,20.38559],[72.83659,20.38374],[72.8375,20.38288],[72.83726,20.38039],[72.8341,20.38062],[72.8328,20.38256],[72.83132,20.38139],[72.8295,20.38166],[72.82806,20.38495],[72.81332,20.3901],[72.81382,20.39229],[72.83175,20.39051],[72.83462,20.38812]]]}},{"id":"6","type":"Feature","properties":{"state":"DADRA & NAGAR HAVELI & DAMAN & DIU","state_code":"26","district":"DAMAN","district_code":"495","sub_district":"DAMAN","sub_district_code":"03948","sub_district_type":"Taluka","village":"DAMANWADA","village_category":"Rural","village_code":"524916"},"geometry":{"type":"Polygon","coordinates":[[[72.84066,20.39227],[72.83942,20.39178],[72.83903,20.38938],[72.83841,20.38916],[72.83587,20.39047],[72.83376,20.38934],[72.83175,20.39051],[72.81382,20.39229],[72.81391,20.39369],[72.83064,20.39444],[72.83175,20.39597],[72.83232,20.39489],[72.83486,20.39476],[72.83534,20.40027],[72.83577,20.3981],[72.84066,20.39227]]]}},{"id":"7","type":"Feature","properties":{"state":"DADRA & NAGAR HAVELI & DAMAN & DIU","state_code":"26","district":"DAMAN","district_code":"495","sub_district":"DAMAN","sub_district_code":"03948","sub_district_type":"Taluka","village":"KACHIGAM","village_category":"Fully_urban","village_code":"524931"},"geometry":{"type":"Polygon","coordinates":[[[72.87853,20.39535],[72.8825,20.39426],[72.88308,20.39478],[72.88375,20.39095],[72.8871,20.38818],[72.8869,20.38545],[72.8966,20.37999],[72.89547,20.37813],[72.89149,20.37565],[72.89067,20.37265],[72.88442,20.37253],[72.88061,20.37145],[72.87637,20.37511],[72.86908,20.37724],[72.86544,20.37891],[72.86333,20.3808],[72.86281,20.38342],[72.86405,20.39205],[72.86242,20.39566],[72.86932,20.40099],[72.87167,20.39783],[72.8733,20.39724],[72.87574,20.39711],[72.87708,20.3986],[72.87853,20.39535]]]}},{"id":"8","type":"Feature","properties":{"state":"DADRA & NAGAR HAVELI & DAMAN & DIU","state_code":"26","district":"DAMAN","district_code":"495","sub_district":"DAMAN","sub_district_code":"03948","sub_district_type":"Taluka","village":"PATLARA","village_category":"Fully_urban","village_code":"912997"},"geometry":{"type":"Polygon","coordinates":[[[72.85413,20.4075],[72.85806,20.40095],[72.86343,20.39422],[72.86405,20.3911],[72.86281,20.38342],[72.86328,20.38103],[72.85993,20.379],[72.85729,20.37787],[72.85528,20.37814],[72.85317,20.38166],[72.85255,20.38062],[72.85202,20.38107],[72.8513,20.37945],[72.85025,20.37954],[72.84939,20.37692],[72.84718,20.37782],[72.84632,20.38523],[72.84541,20.3855],[72.84445,20.38789],[72.84479,20.38974],[72.84301,20.38929],[72.83583,20.39807],[72.83644,20.39805],[72.83577,20.40338],[72.84056,20.41133],[72.85413,20.4075]]]}},{"id":"9","type":"Feature","properties":{"state":"DADRA & NAGAR HAVELI & DAMAN & DIU","state_code":"26","district":"DAMAN","district_code":"495","sub_district":"DAMAN","sub_district_code":"03948","sub_district_type":"Taluka","village":"VARKUND","village_category":"Fully_urban","village_code":"524913"},"geometry":{"type":"Polygon","coordinates":[[[72.86808,20.41298],[72.86635,20.41087],[72.8657,20.4056],[72.86932,20.40099],[72.86242,20.39566],[72.85806,20.40095],[72.85504,20.40655],[72.85202,20.40853],[72.85442,20.4149],[72.85614,20.41635],[72.85585,20.4173],[72.85725,20.41892],[72.86253,20.4168],[72.8649,20.41731],[72.86842,20.4164],[72.87026,20.41382],[72.86808,20.41298]]]}},{"id":"10","type":"Feature","properties":{"state":"DADRA & NAGAR HAVELI & DAMAN & DIU","state_code":"26","district":"DAMAN","district_code":"495","sub_district":"DAMAN","sub_district_code":"03948","sub_district_type":"Taluka","village":"MOTI DAMAN","village_category":"Fully_urban","village_code":"999999999"},"geometry":{"type":"Polygon","coordinates":[[[72.8431,20.41589],[72.84354,20.41084],[72.84056,20.41133],[72.83577,20.40338],[72.83644,20.39805],[72.83577,20.3981],[72.83534,20.40027],[72.83486,20.39476],[72.83232,20.39489],[72.83175,20.39597],[72.83064,20.39444],[72.81391,20.39369],[72.81516,20.40312],[72.81663,20.40667],[72.81708,20.41751],[72.8373,20.41752],[72.84411,20.42046],[72.8431,20.41589]]]}},{"id":"11","type":"Feature","properties":{"state":"DADRA & NAGAR HAVELI & DAMAN & DIU","state_code":"26","district":"DAMAN","district_code":"495","sub_district":"DAMAN","sub_district_code":"03948","sub_district_type":"Taluka","village":"DABHEL","village_category":"Fully_urban","village_code":"524930"},"geometry":{"type":"Polygon","coordinates":[[[72.8979,20.42061],[72.90041,20.41687],[72.90405,20.41498],[72.90177,20.41021],[72.90329,20.40978],[72.90259,20.4058],[72.90041,20.40526],[72.89793,20.40235],[72.8959,20.40116],[72.89485,20.40158],[72.89187,20.39916],[72.88999,20.39898],[72.8877,20.40003],[72.88508,20.39788],[72.88284,20.39794],[72.88308,20.39478],[72.8825,20.39426],[72.87853,20.39535],[72.87584,20.40438],[72.87455,20.40686],[72.87316,20.40709],[72.87411,20.40867],[72.87416,20.40962],[72.87306,20.40953],[72.87445,20.41192],[72.875,20.41655],[72.8802,20.41702],[72.88146,20.41937],[72.88273,20.41985],[72.88919,20.41904],[72.89111,20.41961],[72.89172,20.42137],[72.8979,20.42061]]]}},{"id":"12","type":"Feature","properties":{"state":"DADRA & NAGAR HAVELI & DAMAN & DIU","state_code":"26","district":"DAMAN","district_code":"495","sub_district":"DAMAN","sub_district_code":"03948","sub_district_type":"Taluka","village":"KHARIWADI","village_category":"Rural","village_code":"999999999"},"geometry":{"type":"Polygon","coordinates":[[[72.84416,20.42253],[72.85034,20.42416],[72.85125,20.41892],[72.8431,20.41589],[72.84416,20.42253]]]}},{"id":"13","type":"Feature","properties":{"state":"DADRA & NAGAR HAVELI & DAMAN & DIU","state_code":"26","district":"DAMAN","district_code":"495","sub_district":"DAMAN","sub_district_code":"03948","sub_district_type":"Taluka","village":"KATHIRIA","village_category":"Fully_urban","village_code":"999999999"},"geometry":{"type":"Polygon","coordinates":[[[72.84804,20.43699],[72.84487,20.43306],[72.84483,20.42958],[72.84905,20.42891],[72.8432,20.42276],[72.84325,20.42222],[72.84416,20.42253],[72.84411,20.42046],[72.8373,20.41752],[72.81708,20.41751],[72.81856,20.4189],[72.81902,20.42178],[72.82089,20.42337],[72.82008,20.43292],[72.82134,20.43709],[72.83404,20.43509],[72.83337,20.43654],[72.83461,20.43861],[72.83663,20.43767],[72.84291,20.43749],[72.84535,20.43947],[72.84804,20.43699]]]}},{"id":"14","type":"Feature","properties":{"state":"DADRA & NAGAR HAVELI & DAMAN & DIU","state_code":"26","district":"DAMAN","district_code":"495","sub_district":"DAMAN","sub_district_code":"03948","sub_district_type":"Taluka","village":"DUNETHA","village_category":"Fully_urban","village_code":"524929"},"geometry":{"type":"Polygon","coordinates":[[[72.86836,20.43459],[72.86507,20.42908],[72.86109,20.4276],[72.86023,20.42489],[72.85838,20.42314],[72.85725,20.41892],[72.85585,20.4173],[72.85614,20.41635],[72.85442,20.4149],[72.85202,20.40853],[72.84354,20.41084],[72.8431,20.41589],[72.85125,20.41892],[72.85034,20.42416],[72.84325,20.42222],[72.84905,20.42891],[72.84483,20.42958],[72.84487,20.43306],[72.84703,20.43568],[72.85365,20.43636],[72.85475,20.43722],[72.85537,20.43943],[72.86127,20.44006],[72.86419,20.44201],[72.86654,20.44133],[72.8694,20.43858],[72.86836,20.43459]]]}},{"id":"15","type":"Feature","properties":{"state":"DADRA & NAGAR HAVELI & DAMAN & DIU","state_code":"26","district":"DAMAN","district_code":"495","sub_district":"DAMAN","sub_district_code":"03948","sub_district_type":"Taluka","village":"Marwad","village_category":"Fully_urban","village_code":"524926"},"geometry":{"type":"Polygon","coordinates":[[[72.85456,20.44282],[72.85436,20.44079],[72.85537,20.43943],[72.85475,20.43722],[72.85365,20.43636],[72.84703,20.43568],[72.84804,20.43699],[72.84535,20.43947],[72.84291,20.43749],[72.83663,20.43767],[72.83461,20.43861],[72.83337,20.43654],[72.83404,20.43509],[72.82134,20.43709],[72.82565,20.4464],[72.8329,20.45496],[72.83634,20.44941],[72.84824,20.4474],[72.85456,20.44282]]]}},{"id":"16","type":"Feature","properties":{"state":"DADRA & NAGAR HAVELI & DAMAN & DIU","state_code":"26","district":"DAMAN","district_code":"495","sub_district":"DAMAN","sub_district_code":"03948","sub_district_type":"Taluka","village":"MOTI VANKAD","village_category":"Rural","village_code":"524912"},"geometry":{"type":"Polygon","coordinates":[[[72.88713,20.45492],[72.88797,20.4506],[72.89532,20.44431],[72.89144,20.4409],[72.89016,20.43865],[72.88771,20.43825],[72.8789,20.44166],[72.87685,20.44464],[72.87484,20.44557],[72.87704,20.44648],[72.87805,20.45176],[72.87934,20.45406],[72.87901,20.4551],[72.8803,20.45632],[72.87882,20.45994],[72.87908,20.46174],[72.88655,20.46233],[72.888,20.46071],[72.88713,20.45492]]]}},{"id":"17","type":"Feature","properties":{"state":"DADRA & NAGAR HAVELI & DAMAN & DIU","state_code":"26","district":"DAMAN","district_code":"495","sub_district":"DAMAN","sub_district_code":"03948","sub_district_type":"Taluka","village":"KADAIYA","village_category":"Fully_urban","village_code":"524927"},"geometry":{"type":"Polygon","coordinates":[[[72.8602,20.46452],[72.85945,20.46233],[72.85761,20.46069],[72.858,20.45666],[72.85705,20.45545],[72.85869,20.45394],[72.85928,20.45028],[72.86119,20.45032],[72.86393,20.44458],[72.86419,20.44201],[72.86127,20.44006],[72.85537,20.43943],[72.85436,20.44079],[72.85456,20.44282],[72.84824,20.4474],[72.84958,20.45472],[72.84887,20.46082],[72.84215,20.46546],[72.8442,20.46683],[72.84647,20.47139],[72.84627,20.47803],[72.84839,20.47802],[72.85022,20.47456],[72.85583,20.47116],[72.85812,20.46564],[72.8602,20.46452]]]}},{"id":"18","type":"Feature","properties":{"state":"DADRA & NAGAR HAVELI & DAMAN & DIU","state_code":"26","district":"DAMAN","district_code":"495","sub_district":"DAMAN","sub_district_code":"03948","sub_district_type":"Taluka","village":"BHIMPORE","village_category":"Fully_urban","village_code":"524928"},"geometry":{"type":"Polygon","coordinates":[[[72.87882,20.45994],[72.8803,20.45632],[72.87901,20.4551],[72.87934,20.45406],[72.87805,20.45176],[72.87757,20.44761],[72.87704,20.44648],[72.87513,20.44607],[72.8694,20.43858],[72.86654,20.44133],[72.86419,20.44201],[72.86393,20.44458],[72.86119,20.45032],[72.859,20.4507],[72.85869,20.45394],[72.85705,20.45545],[72.858,20.45666],[72.85761,20.46069],[72.85945,20.46233],[72.8602,20.46452],[72.87908,20.46174],[72.87882,20.45994]]]}},{"id":"19","type":"Feature","properties":{"state":"DADRA & NAGAR HAVELI & DAMAN & DIU","state_code":"26","district":"DAMAN","district_code":"495","sub_district":"DAMAN","sub_district_code":"03948","sub_district_type":"Taluka","village":"DEVKA","village_category":"Rural","village_code":"524911"},"geometry":{"type":"Polygon","coordinates":[[[72.83634,20.44941],[72.8329,20.45496],[72.83712,20.46191],[72.84215,20.46546],[72.84887,20.46082],[72.84958,20.45472],[72.84824,20.4474],[72.83634,20.44941]]]}},{"id":"20","type":"Feature","properties":{"state":"DADRA & NAGAR HAVELI & DAMAN & DIU","state_code":"26","district":"DAMAN","district_code":"495","sub_district":"DAMAN","sub_district_code":"03948","sub_district_type":"Taluka","village":"RINGANWADA","village_category":"Fully_urban","village_code":"524914"},"geometry":{"type":"Polygon","coordinates":[[[72.87574,20.39711],[72.8733,20.39724],[72.87167,20.39783],[72.87095,20.39946],[72.86815,20.40169],[72.8657,20.4056],[72.86618,20.41055],[72.86808,20.41298],[72.87468,20.41532],[72.87445,20.41192],[72.87306,20.40953],[72.87416,20.40962],[72.87411,20.40867],[72.87316,20.40709],[72.87455,20.40686],[72.87584,20.40438],[72.87708,20.3986],[72.87574,20.39711]]]}},{"id":"21","type":"Feature","properties":{"state":"DADRA & NAGAR HAVELI & DAMAN & DIU","state_code":"26","district":"DAMAN","district_code":"495","sub_district":"DAMAN","sub_district_code":"03948","sub_district_type":"Taluka","village":"PANARI","village_category":"Rural","village_code":"524921"},"geometry":{"type":"Polygon","coordinates":[[[72.83877,20.37902],[72.84005,20.37545],[72.83944,20.37336],[72.83594,20.37332],[72.83039,20.36794],[72.82832,20.3669],[72.82846,20.37479],[72.82696,20.37769],[72.82769,20.37999],[72.8295,20.38166],[72.83132,20.38139],[72.8328,20.38256],[72.8341,20.38062],[72.83726,20.38039],[72.8375,20.38288],[72.83659,20.38374],[72.83731,20.38559],[72.83851,20.38487],[72.83841,20.38338],[72.83956,20.38301],[72.83877,20.37902]]]}},{"id":"22","type":"Feature","properties":{"state":"DADRA & NAGAR HAVELI & DAMAN & DIU","state_code":"26","district":"DAMAN","district_code":"495","sub_district":"DAMAN","sub_district_code":"03948","sub_district_type":"Taluka","village":"DEVA PARDI","village_category":"Rural","village_code":"524922"},"geometry":{"type":"Polygon","coordinates":[[[72.84258,20.38021],[72.84421,20.3799],[72.84423,20.37494],[72.83944,20.37336],[72.84005,20.37545],[72.83877,20.37902],[72.83956,20.38301],[72.84038,20.38288],[72.84114,20.37918],[72.84177,20.37918],[72.842,20.3808],[72.84258,20.38021]]]}},{"id":"23","type":"Feature","properties":{"state":"DADRA & NAGAR HAVELI & DAMAN & DIU","state_code":"26","district":"DAMAN","district_code":"495","sub_district":"DAMAN","sub_district_code":"03948","sub_district_type":"Taluka","village":"NAILA PARDI","village_category":"Rural","village_code":"524923"},"geometry":{"type":"Polygon","coordinates":[[[72.84635,20.37636],[72.8474,20.37446],[72.84423,20.37494],[72.84421,20.3799],[72.84258,20.38021],[72.84296,20.38234],[72.84512,20.38252],[72.84517,20.38437],[72.84613,20.38433],[72.84718,20.37782],[72.84635,20.37636]]]}},{"id":"24","type":"Feature","properties":{"state":"DADRA & NAGAR HAVELI & DAMAN & DIU","state_code":"26","district":"DIU","district_code":"494","sub_district":"DIU","sub_district_code":"03947","sub_district_type":"Taluka","village":"SAUDWADI","village_category":"Rural","village_code":"524910"},"geometry":{"type":"Polygon","coordinates":[[[70.88532,20.72252],[70.89586,20.72307],[70.89885,20.71689],[70.89917,20.71328],[70.89598,20.70619],[70.89066,20.70858],[70.88453,20.70948],[70.87677,20.70968],[70.87467,20.7089],[70.87422,20.70641],[70.87093,20.70762],[70.87097,20.71095],[70.87695,20.71151],[70.8783,20.71344],[70.87874,20.71682],[70.8826,20.72089],[70.8843,20.72404],[70.88532,20.72252]]]}},{"id":"25","type":"Feature","properties":{"state":"DADRA & NAGAR HAVELI & DAMAN & DIU","state_code":"26","district":"DIU","district_code":"494","sub_district":"DIU","sub_district_code":"03947","sub_district_type":"Taluka","village":"BRANCAWARA","village_category":"Rural","village_code":"999999999"},"geometry":{"type":"Polygon","coordinates":[[[70.87097,20.71095],[70.87213,20.71835],[70.87574,20.72316],[70.87645,20.72675],[70.88048,20.7301],[70.88606,20.73178],[70.88745,20.72815],[70.88694,20.72709],[70.87874,20.71682],[70.8783,20.71344],[70.87695,20.71151],[70.87097,20.71095]]]}},{"id":"26","type":"Feature","properties":{"state":"DADRA & NAGAR HAVELI & DAMAN & DIU","state_code":"26","district":"DIU","district_code":"494","sub_district":"DIU","sub_district_code":"03947","sub_district_type":"Taluka","village":"BHUCHARVADA","village_category":"Rural","village_code":"524909"},"geometry":{"type":"Polygon","coordinates":[[[70.93172,20.73689],[70.93773,20.73274],[70.9395,20.7324],[70.94695,20.7346],[70.95215,20.73464],[70.95749,20.73609],[70.95685,20.72504],[70.96161,20.71654],[70.95805,20.71264],[70.95851,20.71013],[70.95075,20.70611],[70.94981,20.7058],[70.94893,20.70687],[70.94786,20.70564],[70.94532,20.70641],[70.94433,20.70588],[70.93862,20.70777],[70.93781,20.70847],[70.93843,20.70981],[70.93595,20.71091],[70.93012,20.71228],[70.92698,20.71211],[70.91977,20.71052],[70.91769,20.70922],[70.91556,20.70688],[70.91505,20.7053],[70.91564,20.70303],[70.91468,20.70221],[70.91701,20.70207],[70.91332,20.69951],[70.91137,20.7],[70.91183,20.70139],[70.91053,20.70226],[70.90955,20.70191],[70.91021,20.70133],[70.90975,20.70083],[70.90295,20.69991],[70.89924,20.69966],[70.897,20.70053],[70.89895,20.70286],[70.89598,20.70619],[70.89906,20.7124],[70.89885,20.71689],[70.89586,20.72307],[70.88532,20.72252],[70.88441,20.72442],[70.88745,20.72815],[70.88606,20.73178],[70.89387,20.73239],[70.90535,20.73656],[70.91011,20.73684],[70.91586,20.74203],[70.91949,20.7431],[70.92429,20.74066],[70.92536,20.73799],[70.92767,20.73689],[70.93172,20.73689]]]}},{"id":"27","type":"Feature","properties":{"state":"DADRA & NAGAR HAVELI & DAMAN & DIU","state_code":"26","district":"DIU","district_code":"494","sub_district":"DIU","sub_district_code":"03947","sub_district_type":"Taluka","village":"DIU","village_category":"Fully_urban","village_code":"999999999"},"geometry":{"type":"Polygon","coordinates":[[[71.0,20.7352],[71.0,20.73394],[70.99757,20.73263],[70.99308,20.72657],[70.99332,20.72261],[70.99554,20.71947],[70.99845,20.71715],[70.99738,20.71393],[70.99442,20.71127],[70.99189,20.7103],[70.99116,20.7107],[70.98917,20.70933],[70.98709,20.71036],[70.98612,20.70899],[70.9852,20.70927],[70.9799,20.70595],[70.97696,20.7028],[70.97525,20.70484],[70.97418,20.70454],[70.97369,20.70301],[70.97304,20.70514],[70.97126,20.70435],[70.97052,20.70702],[70.96891,20.70802],[70.9636,20.70586],[70.96181,20.70613],[70.961,20.70728],[70.95968,20.70714],[70.95332,20.70394],[70.95095,20.70495],[70.95075,20.70611],[70.95851,20.71013],[70.95805,20.71264],[70.96161,20.71654],[70.95685,20.72504],[70.95749,20.73609],[70.95987,20.73678],[70.96141,20.73607],[70.9633,20.73357],[70.96435,20.72961],[70.97402,20.72787],[70.98128,20.72269],[70.98448,20.73225],[70.9887,20.73342],[70.99051,20.73541],[70.99307,20.73578],[70.9956,20.73884],[70.9987,20.74044],[70.99949,20.74223],[71.00231,20.74182],[71.00738,20.73752],[71.0,20.7352]]]}},{"id":"28","type":"Feature","properties":{"state":"DADRA & NAGAR HAVELI & DAMAN & DIU","state_code":"26","district":"DIU","district_code":"494","sub_district":"DIU","sub_district_code":"03947","sub_district_type":"Taluka","village":"PANIKOT ISLAND","village_category":"Rural","village_code":"999999999"},"geometry":{"type":"Polygon","coordinates":[[[71.14991,20.75943],[71.15145,20.76155],[71.15132,20.76388],[71.1529,20.76162],[71.15526,20.76105],[71.15524,20.75991],[71.14991,20.75943]]]}},{"id":"29","type":"Feature","properties":{"state":"DADRA & NAGAR HAVELI & DAMAN & DIU","state_code":"26","district":"DIU","district_code":"494","sub_district":"DIU","sub_district_code":"03947","sub_district_type":"Taluka","village":"SIMARBANDAR","village_category":"Rural","village_code":"999999999"},"geometry":{"type":"Polygon","coordinates":[[[71.14808,20.75825],[71.14607,20.75898],[71.14593,20.76117],[71.14873,20.76788],[71.14853,20.77139],[71.14976,20.77144],[71.14883,20.76616],[71.14972,20.7619],[71.14846,20.76072],[71.14808,20.75825]]]}},{"id":"30","type":"Feature","properties":{"state":"DADRA & NAGAR HAVELI & DAMAN & DIU","state_code":"26","district":"DIU","district_code":"494","sub_district":"DIU","sub_district_code":"03947","sub_district_type":"Taluka","village":"DISPUTED","village_category":"Rural","village_code":"999999999"},"geometry":{"type":"Polygon","coordinates":[[[71.14677,20.76777],[71.14639,20.77134],[71.14853,20.77139],[71.14873,20.76788],[71.14593,20.76117],[71.14677,20.76777]]]}},{"id":"31","type":"Feature","properties":{"state":"DADRA & NAGAR HAVELI & DAMAN & DIU","state_code":"26","district":"DADRA AND NAGAR HAVELI","district_code":"496","sub_district":"DADRA AND NAGAR HAVELI","sub_district_code":"03949","sub_district_type":"Taluka","village":"ATHAL","village_category":"Rural","village_code":"524946"},"geometry":{"type":"Polygon","coordinates":[[[72.99042,20.26504],[72.98987,20.25812],[72.99071,20.25495],[72.9889,20.24967],[72.98132,20.25022],[72.97934,20.25259],[72.97836,20.25266],[72.96646,20.25066],[72.963,20.25116],[72.95938,20.25323],[72.95808,20.25556],[72.9589,20.25674],[72.95788,20.2593],[72.95497,20.2615],[72.95545,20.26563],[72.9602,20.26535],[72.9607,20.26669],[72.95798,20.26697],[72.9576,20.26898],[72.96009,20.27239],[72.96093,20.27535],[72.96184,20.27502],[72.96223,20.27134],[72.96605,20.26949],[72.97119,20.26906],[72.97303,20.26995],[72.97363,20.27113],[72.97918,20.27285],[72.98193,20.2755],[72.98142,20.27707],[72.98192,20.27741],[72.98569,20.27354],[72.99042,20.26504]]]}},{"id":"32","type":"Feature","properties":{"state":"DADRA & NAGAR HAVELI & DAMAN & DIU","state_code":"26","district":"DADRA AND NAGAR HAVELI","district_code":"496","sub_district":"DADRA AND NAGAR HAVELI","sub_district_code":"03949","sub_district_type":"Taluka","village":"KANADI","village_category":"Rural","village_code":"524944"},"geometry":{"type":"Polygon","coordinates":[[[72.94519,20.25214],[72.94819,20.25152],[72.94919,20.24721],[72.94675,20.24115],[72.93761,20.24482],[72.93064,20.24441],[72.93049,20.24576],[72.92891,20.24664],[72.92834,20.24948],[72.92634,20.25097],[72.92463,20.25481],[72.9303,20.25595],[72.93139,20.25823],[72.93526,20.25966],[72.93619,20.25895],[72.9391,20.25103],[72.94519,20.25214]]]}},{"id":"33","type":"Feature","properties":{"state":"DADRA & NAGAR HAVELI & DAMAN & DIU","state_code":"26","district":"DADRA AND NAGAR HAVELI","district_code":"496","sub_district":"DADRA AND NAGAR HAVELI","sub_district_code":"03949","sub_district_type":"Taluka","village":"KHARADPADA","village_category":"Rural","village_code":"524945"},"geometry":{"type":"Polygon","coordinates":[[[72.95497,20.2615],[72.95788,20.2593],[72.9589,20.25674],[72.95826,20.255],[72.96059,20.25221],[72.96646,20.25066],[72.97399,20.25242],[72.97934,20.25259],[72.98132,20.25022],[72.9889,20.24967],[72.98854,20.23835],[72.97923,20.23403],[72.97546,20.22722],[72.97278,20.22734],[72.9657,20.2229],[72.96558,20.22574],[72.96059,20.23033],[72.95829,20.23539],[72.95534,20.2365],[72.95398,20.23826],[72.94675,20.24115],[72.94919,20.24721],[72.94794,20.25184],[72.94519,20.25214],[72.94016,20.25095],[72.93838,20.25186],[72.93825,20.25258],[72.93988,20.25313],[72.93944,20.25419],[72.94056,20.25456],[72.94278,20.25744],[72.94546,20.25866],[72.94677,20.26198],[72.94971,20.26317],[72.95145,20.26256],[72.95521,20.26544],[72.95497,20.2615]]]}},{"id":"34","type":"Feature","properties":{"state":"DADRA & NAGAR HAVELI & DAMAN & DIU","state_code":"26","district":"DADRA AND NAGAR HAVELI","district_code":"496","sub_district":"DADRA AND NAGAR HAVELI","sub_district_code":"03949","sub_district_type":"Taluka","village":"LUHARI","village_category":"Rural","village_code":"524954"},"geometry":{"type":"Polygon","coordinates":[[[72.97462,20.22573],[72.97478,20.21927],[72.97905,20.21558],[72.98377,20.21306],[72.98987,20.21333],[72.99107,20.20946],[72.99108,20.2042],[72.9897,20.20172],[72.98589,20.19825],[72.98509,20.19575],[72.98644,20.19453],[72.98976,20.19464],[72.99118,20.19062],[72.99039,20.1887],[72.98769,20.18605],[72.98651,20.18193],[72.98688,20.17925],[72.98264,20.17803],[72.97682,20.17461],[72.97373,20.17392],[72.97688,20.17865],[72.97676,20.1809],[72.97514,20.18166],[72.97297,20.18128],[72.96893,20.18342],[72.96303,20.18221],[72.96194,20.18346],[72.96085,20.18606],[72.96178,20.19203],[72.96058,20.19453],[72.95985,20.20122],[72.96084,20.20621],[72.96211,20.20854],[72.96164,20.20944],[72.96198,20.21005],[72.9625,20.20965],[72.96451,20.2138],[72.9657,20.2229],[72.97278,20.22734],[72.97546,20.22722],[72.97462,20.22573]]]}},{"id":"35","type":"Feature","properties":{"state":"DADRA & NAGAR HAVELI & DAMAN & DIU","state_code":"26","district":"DADRA AND NAGAR HAVELI","district_code":"496","sub_district":"DADRA AND NAGAR HAVELI","sub_district_code":"03949","sub_district_type":"Taluka","village":"MASAT","village_category":"Fully_urban","village_code":"525000"},"geometry":{"type":"Polygon","coordinates":[[[73.00092,20.24889],[73.0034,20.24727],[73.01161,20.24703],[73.02334,20.25148],[73.03029,20.24568],[73.038,20.24419],[73.03404,20.23391],[73.0347,20.22951],[73.01774,20.23218],[73.01066,20.23075],[73.00823,20.22905],[73.00548,20.23197],[72.9984,20.23675],[72.98951,20.2388],[72.98854,20.23835],[72.98916,20.2515],[72.99055,20.25377],[72.99675,20.2539],[72.99736,20.25447],[73.00092,20.24889]]]}},{"id":"36","type":"Feature","properties":{"state":"DADRA & NAGAR HAVELI & DAMAN & DIU","state_code":"26","district":"DADRA AND NAGAR HAVELI","district_code":"496","sub_district":"DADRA AND NAGAR HAVELI","sub_district_code":"03949","sub_district_type":"Taluka","village":"DHAPSA","village_category":"Rural","village_code":"524943"},"geometry":{"type":"Polygon","coordinates":[[[72.94164,20.29309],[72.94505,20.28849],[72.94881,20.28712],[72.946,20.28042],[72.94238,20.28065],[72.94145,20.28112],[72.9415,20.28323],[72.9372,20.28394],[72.93138,20.28238],[72.92758,20.28568],[72.92934,20.28737],[72.93201,20.29349],[72.93548,20.29461],[72.94164,20.29309]]]}},{"id":"37","type":"Feature","properties":{"state":"DADRA & NAGAR HAVELI & DAMAN & DIU","state_code":"26","district":"DADRA AND NAGAR HAVELI","district_code":"496","sub_district":"DADRA AND NAGAR HAVELI","sub_district_code":"03949","sub_district_type":"Taluka","village":"NAROLI","village_category":"Fully_urban","village_code":"524998"},"geometry":{"type":"Polygon","coordinates":[[[72.95529,20.2842],[72.95568,20.27891],[72.95754,20.27746],[72.95898,20.2779],[72.9587,20.27628],[72.95967,20.27658],[72.96093,20.27535],[72.96009,20.27239],[72.9576,20.26898],[72.95798,20.26697],[72.9607,20.26669],[72.9602,20.26535],[72.95545,20.26563],[72.95145,20.26256],[72.94971,20.26317],[72.94677,20.26198],[72.94546,20.25866],[72.94278,20.25744],[72.94056,20.25456],[72.93944,20.25419],[72.93989,20.25321],[72.93933,20.25274],[72.93825,20.25258],[72.93619,20.25895],[72.93526,20.25966],[72.93139,20.25823],[72.9303,20.25595],[72.92463,20.25481],[72.92286,20.25753],[72.91848,20.25856],[72.91752,20.26339],[72.91583,20.26417],[72.91481,20.26633],[72.91439,20.26574],[72.91323,20.26928],[72.91171,20.27026],[72.91213,20.275],[72.91601,20.27601],[72.91722,20.2782],[72.91724,20.2808],[72.9202,20.28117],[72.92045,20.28338],[72.92117,20.28382],[72.92217,20.28341],[72.92758,20.28568],[72.93138,20.28238],[72.9372,20.28394],[72.9415,20.28323],[72.94145,20.28112],[72.94238,20.28065],[72.946,20.28042],[72.94881,20.28712],[72.95205,20.28408],[72.95529,20.2842]]]}},{"id":"38","type":"Feature","properties":{"state":"DADRA & NAGAR HAVELI & DAMAN & DIU","state_code":"26","district":"DADRA AND NAGAR HAVELI","district_code":"496","sub_district":"DADRA AND NAGAR HAVELI","sub_district_code":"03949","sub_district_type":"Taluka","village":"KUNDACHA","village_category":"Rural","village_code":"524950"},"geometry":{"type":"Polygon","coordinates":[[[73.01937,20.22641],[73.01753,20.21765],[73.01237,20.21759],[73.00707,20.21568],[73.00128,20.21522],[73.00255,20.22063],[73.00562,20.2234],[73.00874,20.22985],[73.01265,20.23139],[73.01774,20.23218],[73.01937,20.22641]]]}},{"id":"39","type":"Feature","properties":{"state":"DADRA & NAGAR HAVELI & DAMAN & DIU","state_code":"26","district":"DADRA AND NAGAR HAVELI","district_code":"496","sub_district":"DADRA AND NAGAR HAVELI","sub_district_code":"03949","sub_district_type":"Taluka","village":"RAKHOLI","village_category":"Fully_urban","village_code":"525001"},"geometry":{"type":"Polygon","coordinates":[[[73.03262,20.21476],[73.027,20.21623],[73.02061,20.21564],[73.01753,20.21765],[73.01937,20.22641],[73.01774,20.23218],[73.0347,20.22951],[73.03493,20.22788],[73.03736,20.22405],[73.03568,20.22331],[73.03563,20.21992],[73.03262,20.21476]]]}},{"id":"40","type":"Feature","properties":{"state":"DADRA & NAGAR HAVELI & DAMAN & DIU","state_code":"26","district":"DADRA AND NAGAR HAVELI","district_code":"496","sub_district":"DADRA AND NAGAR HAVELI","sub_district_code":"03949","sub_district_type":"Taluka","village":"CHINCHPADA","village_category":"Rural","village_code":"524953"},"geometry":{"type":"Polygon","coordinates":[[[73.01438,20.21387],[73.02107,20.21108],[73.02499,20.21068],[73.02817,20.20757],[73.03067,20.20675],[73.02412,20.20076],[73.02169,20.19953],[73.01563,20.19977],[73.011,20.20243],[73.00726,20.20233],[73.00041,20.19754],[72.99853,20.1976],[72.98794,20.1945],[72.98528,20.19514],[72.98563,20.19786],[72.9897,20.20172],[72.99142,20.20546],[72.98987,20.21333],[72.99286,20.21421],[72.99295,20.21499],[73.00008,20.21429],[73.00113,20.21444],[73.00128,20.21522],[73.00707,20.21568],[73.01237,20.21759],[73.01438,20.21387]]]}},{"id":"41","type":"Feature","properties":{"state":"DADRA & NAGAR HAVELI & DAMAN & DIU","state_code":"26","district":"DADRA AND NAGAR HAVELI","district_code":"496","sub_district":"DADRA AND NAGAR HAVELI","sub_district_code":"03949","sub_district_type":"Taluka","village":"VASONA","village_category":"Fully_urban","village_code":"524952"},"geometry":{"type":"Polygon","coordinates":[[[73.0241,20.21644],[73.03149,20.21521],[73.03827,20.21025],[73.04383,20.20739],[73.04908,20.20116],[73.04577,20.19505],[73.0441,20.19473],[73.04261,20.19587],[73.03721,20.20195],[73.03577,20.20502],[73.02817,20.20757],[73.02499,20.21068],[73.02107,20.21108],[73.01438,20.21387],[73.01237,20.21759],[73.01753,20.21765],[73.0198,20.21587],[73.0241,20.21644]]]}},{"id":"42","type":"Feature","properties":{"state":"DADRA & NAGAR HAVELI & DAMAN & DIU","state_code":"26","district":"DADRA AND NAGAR HAVELI","district_code":"496","sub_district":"DADRA AND NAGAR HAVELI","sub_district_code":"03949","sub_district_type":"Taluka","village":"KARAD","village_category":"Fully_urban","village_code":"524951"},"geometry":{"type":"Polygon","coordinates":[[[73.04988,20.2011],[73.04908,20.20116],[73.04383,20.20739],[73.03827,20.21025],[73.03262,20.21476],[73.03563,20.21992],[73.03568,20.22331],[73.03736,20.22405],[73.04289,20.22317],[73.05851,20.21934],[73.05507,20.21224],[73.05446,20.20742],[73.04988,20.2011]]]}},{"id":"43","type":"Feature","properties":{"state":"DADRA & NAGAR HAVELI & DAMAN & DIU","state_code":"26","district":"DADRA AND NAGAR HAVELI","district_code":"496","sub_district":"DADRA AND NAGAR HAVELI","sub_district_code":"03949","sub_district_type":"Taluka","village":"SURANGI","village_category":"Rural","village_code":"524959"},"geometry":{"type":"Polygon","coordinates":[[[72.99872,20.17229],[73.00451,20.16848],[73.00766,20.16823],[73.0133,20.16526],[73.01453,20.1635],[73.01477,20.15178],[73.01267,20.14753],[73.00963,20.14623],[73.00774,20.14444],[73.00381,20.13841],[73.00329,20.14034],[72.99899,20.14257],[72.99664,20.1467],[72.99725,20.15334],[72.99663,20.15646],[72.99786,20.15758],[72.99748,20.1621],[72.99647,20.16284],[72.98957,20.16319],[72.98609,20.16475],[72.98471,20.16635],[72.98367,20.16956],[72.98318,20.17814],[72.98653,20.17916],[72.98841,20.1763],[72.99286,20.17367],[72.99872,20.17229]]]}},{"id":"44","type":"Feature","properties":{"state":"DADRA & NAGAR HAVELI & DAMAN & DIU","state_code":"26","district":"DADRA AND NAGAR HAVELI","district_code":"496","sub_district":"DADRA AND NAGAR HAVELI","sub_district_code":"03949","sub_district_type":"Taluka","village":"APTI","village_category":"Rural","village_code":"524960"},"geometry":{"type":"Polygon","coordinates":[[[72.99647,20.16284],[72.99748,20.1621],[72.99786,20.15758],[72.99663,20.15646],[72.99725,20.15334],[72.99664,20.1467],[72.99899,20.14257],[72.99044,20.14179],[72.98522,20.14011],[72.98027,20.14039],[72.97737,20.14192],[72.97161,20.14732],[72.96743,20.1479],[72.9744,20.16025],[72.97373,20.17392],[72.97682,20.17461],[72.98318,20.17814],[72.98367,20.16956],[72.98471,20.16635],[72.98785,20.1636],[72.99647,20.16284]]]}},{"id":"45","type":"Feature","properties":{"state":"DADRA & NAGAR HAVELI & DAMAN & DIU","state_code":"26","district":"DADRA AND NAGAR HAVELI","district_code":"496","sub_district":"DADRA AND NAGAR HAVELI","sub_district_code":"03949","sub_district_type":"Taluka","village":"VELUGAM","village_category":"Rural","village_code":"524961"},"geometry":{"type":"Polygon","coordinates":[[[72.97214,20.147],[72.97737,20.14192],[72.98027,20.14039],[72.98522,20.14011],[72.99044,20.14179],[72.99751,20.14246],[72.99493,20.13968],[72.99423,20.13744],[72.99535,20.13231],[72.99394,20.129],[72.99182,20.1177],[72.9796,20.11569],[72.97736,20.11278],[72.97281,20.11396],[72.9705,20.11561],[72.96852,20.12366],[72.96521,20.12465],[72.96358,20.12604],[72.96309,20.12854],[72.96127,20.13067],[72.96082,20.13328],[72.96158,20.1371],[72.96587,20.14561],[72.96743,20.1479],[72.97214,20.147]]]}},{"id":"46","type":"Feature","properties":{"state":"DADRA & NAGAR HAVELI & DAMAN & DIU","state_code":"26","district":"DADRA AND NAGAR HAVELI","district_code":"496","sub_district":"DADRA AND NAGAR HAVELI","sub_district_code":"03949","sub_district_type":"Taluka","village":"AMBOLI","village_category":"Rural","village_code":"524962"},"geometry":{"type":"Polygon","coordinates":[[[73.0403,20.13575],[73.04142,20.12899],[73.02559,20.13347],[73.01296,20.13174],[73.01215,20.13202],[73.01094,20.1346],[73.00891,20.13393],[73.005,20.13588],[73.00381,20.13841],[73.00774,20.14444],[73.00963,20.14623],[73.01267,20.14753],[73.01412,20.15133],[73.01871,20.15346],[73.02361,20.14641],[73.0275,20.14652],[73.03284,20.14449],[73.03474,20.14329],[73.0403,20.13575]]]}},{"id":"47","type":"Feature","properties":{"state":"DADRA & NAGAR HAVELI & DAMAN & DIU","state_code":"26","district":"DADRA AND NAGAR HAVELI","district_code":"496","sub_district":"DADRA AND NAGAR HAVELI","sub_district_code":"03949","sub_district_type":"Taluka","village":"KALA","village_category":"Rural","village_code":"524983"},"geometry":{"type":"Polygon","coordinates":[[[73.04142,20.12899],[73.04088,20.12387],[73.03955,20.11736],[73.03822,20.11583],[73.0355,20.11383],[73.02932,20.11181],[73.0249,20.10826],[73.0232,20.11335],[73.01776,20.11919],[73.01613,20.12204],[73.01279,20.12841],[73.0132,20.12956],[73.01215,20.13202],[73.01594,20.13168],[73.02559,20.13347],[73.04142,20.12899]]]}},{"id":"48","type":"Feature","properties":{"state":"DADRA & NAGAR HAVELI & DAMAN & DIU","state_code":"26","district":"DADRA AND NAGAR HAVELI","district_code":"496","sub_district":"DADRA AND NAGAR HAVELI","sub_district_code":"03949","sub_district_type":"Taluka","village":"KARACHGAM","village_category":"Rural","village_code":"524984"},"geometry":{"type":"Polygon","coordinates":[[[73.01776,20.11919],[73.0232,20.11335],[73.0249,20.10826],[73.02329,20.10557],[73.02033,20.10431],[73.01779,20.10008],[73.01372,20.09653],[73.01338,20.10036],[73.01043,20.10578],[73.00519,20.11047],[73.00336,20.1106],[73.00074,20.1123],[73.00059,20.11564],[72.99911,20.12037],[72.99961,20.12302],[73.00139,20.12457],[73.00422,20.12492],[73.0126,20.12892],[73.01776,20.11919]]]}},{"id":"49","type":"Feature","properties":{"state":"DADRA & NAGAR HAVELI & DAMAN & DIU","state_code":"26","district":"DADRA AND NAGAR HAVELI","district_code":"496","sub_district":"DADRA AND NAGAR HAVELI","sub_district_code":"03949","sub_district_type":"Taluka","village":"KHADOLI","village_category":"Rural","village_code":"524958"},"geometry":{"type":"Polygon","coordinates":[[[73.03425,20.1857],[73.03965,20.18423],[73.03925,20.18121],[73.04408,20.17461],[73.05119,20.1703],[73.04836,20.16235],[73.0403,20.15515],[73.039,20.14906],[73.04091,20.14151],[73.03862,20.13812],[73.03474,20.14329],[73.03284,20.14449],[73.0275,20.14652],[73.02361,20.14641],[73.01871,20.15346],[73.01477,20.15178],[73.01453,20.1635],[73.0133,20.16526],[73.01792,20.16942],[73.01988,20.17345],[73.02076,20.17723],[73.01978,20.182],[73.0202,20.18469],[73.02722,20.18674],[73.03067,20.18459],[73.03425,20.1857]]]}},{"id":"50","type":"Feature","properties":{"state":"DADRA & NAGAR HAVELI & DAMAN & DIU","state_code":"26","district":"DADRA AND NAGAR HAVELI","district_code":"496","sub_district":"DADRA AND NAGAR HAVELI","sub_district_code":"03949","sub_district_type":"Taluka","village":"BINDRABIN","village_category":"Rural","village_code":"524963"},"geometry":{"type":"Polygon","coordinates":[[[73.05667,20.13907],[73.05474,20.1321],[73.04142,20.12899],[73.04135,20.12826],[73.04087,20.12662],[73.04118,20.1322],[73.0403,20.13575],[73.03862,20.13812],[73.04091,20.14151],[73.04718,20.14175],[73.05504,20.14503],[73.0567,20.1423],[73.05667,20.13907]]]}},{"id":"51","type":"Feature","properties":{"state":"DADRA & NAGAR HAVELI & DAMAN & DIU","state_code":"26","district":"DADRA AND NAGAR HAVELI","district_code":"496","sub_district":"DADRA AND NAGAR HAVELI","sub_district_code":"03949","sub_district_type":"Taluka","village":"DAPADA","village_category":"Rural","village_code":"524956"},"geometry":{"type":"Polygon","coordinates":[[[73.0441,20.19473],[73.03965,20.18423],[73.03425,20.1857],[73.03033,20.18463],[73.02722,20.18674],[73.0202,20.18469],[73.02003,20.18581],[73.01412,20.18635],[73.00917,20.18906],[73.00511,20.1875],[73.00135,20.18789],[72.99942,20.18916],[72.99117,20.19051],[72.98956,20.19475],[72.99853,20.1976],[73.00041,20.19754],[73.00726,20.20233],[73.011,20.20243],[73.01563,20.19977],[73.02232,20.1997],[73.03067,20.20675],[73.03577,20.20502],[73.03817,20.20091],[73.0441,20.19473]]]}},{"id":"52","type":"Feature","properties":{"state":"DADRA & NAGAR HAVELI & DAMAN & DIU","state_code":"26","district":"DADRA AND NAGAR HAVELI","district_code":"496","sub_district":"DADRA AND NAGAR HAVELI","sub_district_code":"03949","sub_district_type":"Taluka","village":"CHIKHALI","village_category":"Rural","village_code":"524955"},"geometry":{"type":"Polygon","coordinates":[[[73.00511,20.1875],[73.00917,20.18906],[73.01412,20.18635],[73.02003,20.18581],[73.02061,20.17591],[73.01841,20.17018],[73.01483,20.16621],[73.0133,20.16526],[73.00766,20.16823],[73.00451,20.16848],[72.99872,20.17229],[72.99121,20.17437],[72.98791,20.17695],[72.98653,20.17916],[72.98656,20.18213],[72.98799,20.18672],[72.99039,20.1887],[72.99117,20.19051],[73.00511,20.1875]]]}},{"id":"53","type":"Feature","properties":{"state":"DADRA & NAGAR HAVELI & DAMAN & DIU","state_code":"26","district":"DADRA AND NAGAR HAVELI","district_code":"496","sub_district":"DADRA AND NAGAR HAVELI","sub_district_code":"03949","sub_district_type":"Taluka","village":"UMBARVARNI","village_category":"Rural","village_code":"524966"},"geometry":{"type":"Polygon","coordinates":[[[73.08159,20.15542],[73.07335,20.15548],[73.07928,20.17324],[73.08344,20.17227],[73.08704,20.17032],[73.09009,20.16348],[73.08979,20.16129],[73.0919,20.15977],[73.08159,20.15542]]]}},{"id":"54","type":"Feature","properties":{"state":"DADRA & NAGAR HAVELI & DAMAN & DIU","state_code":"26","district":"DADRA AND NAGAR HAVELI","district_code":"496","sub_district":"DADRA AND NAGAR HAVELI","sub_district_code":"03949","sub_district_type":"Taluka","village":"CHAUDA","village_category":"Rural","village_code":"524982"},"geometry":{"type":"Polygon","coordinates":[[[73.04917,20.11087],[73.04578,20.10903],[73.04239,20.11307],[73.03955,20.11736],[73.04142,20.12899],[73.05474,20.1321],[73.06084,20.13096],[73.06448,20.13118],[73.06144,20.12337],[73.059,20.12173],[73.05387,20.11183],[73.04917,20.11087]]]}},{"id":"55","type":"Feature","properties":{"state":"DADRA & NAGAR HAVELI & DAMAN & DIU","state_code":"26","district":"DADRA AND NAGAR HAVELI","district_code":"496","sub_district":"DADRA AND NAGAR HAVELI","sub_district_code":"03949","sub_district_type":"Taluka","village":"KHERDI","village_category":"Rural","village_code":"524985"},"geometry":{"type":"Polygon","coordinates":[[[73.03922,20.10037],[73.04011,20.08909],[73.0396,20.08797],[73.03094,20.07873],[73.029,20.08099],[73.02336,20.08472],[73.02183,20.09],[73.0195,20.09249],[73.0137,20.09648],[73.01779,20.10008],[73.02033,20.10431],[73.02329,20.10557],[73.02608,20.10938],[73.02932,20.11181],[73.0355,20.11383],[73.03955,20.11736],[73.04578,20.10903],[73.03922,20.10037]]]}},{"id":"56","type":"Feature","properties":{"state":"DADRA & NAGAR HAVELI & DAMAN & DIU","state_code":"26","district":"DADRA AND NAGAR HAVELI","district_code":"496","sub_district":"DADRA AND NAGAR HAVELI","sub_district_code":"03949","sub_district_type":"Taluka","village":"PARZAI","village_category":"Rural","village_code":"524987"},"geometry":{"type":"Polygon","coordinates":[[[73.05187,20.08298],[73.04475,20.08584],[73.04206,20.08611],[73.0396,20.08797],[73.04011,20.08909],[73.03922,20.10037],[73.04578,20.10903],[73.04917,20.11087],[73.05387,20.11183],[73.0551,20.10766],[73.05559,20.09991],[73.05187,20.08298]]]}},{"id":"57","type":"Feature","properties":{"state":"DADRA & NAGAR HAVELI & DAMAN & DIU","state_code":"26","district":"DADRA AND NAGAR HAVELI","district_code":"496","sub_district":"DADRA AND NAGAR HAVELI","sub_district_code":"03949","sub_district_type":"Taluka","village":"DOLARA","village_category":"Rural","village_code":"524986"},"geometry":{"type":"Polygon","coordinates":[[[73.05062,20.06374],[73.04738,20.0657],[73.04317,20.06519],[73.0402,20.06643],[73.03831,20.068],[73.03374,20.0753],[73.03173,20.07721],[73.03094,20.07873],[73.0396,20.08797],[73.04206,20.08611],[73.04475,20.08584],[73.05187,20.08298],[73.05062,20.06374]]]}},{"id":"58","type":"Feature","properties":{"state":"DADRA & NAGAR HAVELI & DAMAN & DIU","state_code":"26","district":"DADRA AND NAGAR HAVELI","district_code":"496","sub_district":"DADRA AND NAGAR HAVELI","sub_district_code":"03949","sub_district_type":"Taluka","village":"TALAVALI","village_category":"Rural","village_code":"524988"},"geometry":{"type":"Polygon","coordinates":[[[73.0857,20.10647],[73.0823,20.1013],[73.08204,20.09538],[73.08375,20.09128],[73.08096,20.09233],[73.08059,20.09495],[73.07856,20.09466],[73.07543,20.09606],[73.06817,20.09679],[73.0648,20.0989],[73.06412,20.1091],[73.06325,20.11194],[73.07207,20.11135],[73.07723,20.11017],[73.08446,20.11333],[73.08663,20.11231],[73.0871,20.1108],[73.0857,20.10647]]]}},{"id":"59","type":"Feature","properties":{"state":"DADRA & NAGAR HAVELI & DAMAN & DIU","state_code":"26","district":"DADRA AND NAGAR HAVELI","district_code":"496","sub_district":"DADRA AND NAGAR HAVELI","sub_district_code":"03949","sub_district_type":"Taluka","village":"KHANVEL","village_category":"Rural","village_code":"524965"},"geometry":{"type":"Polygon","coordinates":[[[73.07246,20.15497],[73.08159,20.15542],[73.0766,20.14365],[73.08012,20.11942],[73.08079,20.11739],[73.08446,20.11333],[73.07723,20.11017],[73.07207,20.11135],[73.06325,20.11194],[73.06412,20.1091],[73.0648,20.0989],[73.06369,20.09959],[73.05558,20.09986],[73.0551,20.10766],[73.05387,20.11183],[73.059,20.12173],[73.06144,20.12337],[73.06448,20.13118],[73.06084,20.13096],[73.05474,20.1321],[73.05694,20.14119],[73.05504,20.14503],[73.05942,20.15348],[73.06342,20.15927],[73.07246,20.15497]]]}},{"id":"60","type":"Feature","properties":{"state":"DADRA & NAGAR HAVELI & DAMAN & DIU","state_code":"26","district":"DADRA AND NAGAR HAVELI","district_code":"496","sub_district":"DADRA AND NAGAR HAVELI","sub_district_code":"03949","sub_district_type":"Taluka","village":"RUDANA","village_category":"Rural","village_code":"524989"},"geometry":{"type":"Polygon","coordinates":[[[73.1108,20.11697],[73.11195,20.10912],[73.11529,20.10139],[73.11738,20.09085],[73.11932,20.08583],[73.11985,20.07967],[73.11905,20.07866],[73.11893,20.07509],[73.11434,20.07624],[73.11192,20.07427],[73.11198,20.07117],[73.11081,20.07373],[73.10846,20.0753],[73.10606,20.07417],[73.10697,20.07539],[73.10566,20.07855],[73.10645,20.08552],[73.10604,20.08754],[73.10226,20.09124],[73.0963,20.09073],[73.0903,20.09198],[73.08375,20.09128],[73.08256,20.09355],[73.08185,20.09715],[73.0823,20.1013],[73.0857,20.10647],[73.0871,20.1108],[73.08663,20.11231],[73.08446,20.11333],[73.09219,20.12299],[73.1108,20.11697]]]}},{"id":"61","type":"Feature","properties":{"state":"DADRA & NAGAR HAVELI & DAMAN & DIU","state_code":"26","district":"DADRA AND NAGAR HAVELI","district_code":"496","sub_district":"DADRA AND NAGAR HAVELI","sub_district_code":"03949","sub_district_type":"Taluka","village":"CHINSDA","village_category":"Rural","village_code":"524990"},"geometry":{"type":"Polygon","coordinates":[[[73.13982,20.11967],[73.13697,20.11662],[73.13653,20.11502],[73.13764,20.10791],[73.13401,20.10106],[73.13494,20.0929],[73.13705,20.08583],[73.13508,20.08669],[73.13336,20.08618],[73.13071,20.08175],[73.12848,20.08234],[73.12732,20.0836],[73.1255,20.0835],[73.1241,20.07797],[73.11981,20.07893],[73.11932,20.08583],[73.11738,20.09085],[73.11529,20.10139],[73.11195,20.10912],[73.1108,20.11697],[73.12642,20.12338],[73.12971,20.12338],[73.13502,20.12505],[73.14677,20.1251],[73.13982,20.11967]]]}},{"id":"62","type":"Feature","properties":{"state":"DADRA & NAGAR HAVELI & DAMAN & DIU","state_code":"26","district":"DADRA AND NAGAR HAVELI","district_code":"496","sub_district":"DADRA AND NAGAR HAVELI","sub_district_code":"03949","sub_district_type":"Taluka","village":"MANDONI","village_category":"Rural","village_code":"524991"},"geometry":{"type":"Polygon","coordinates":[[[73.14289,20.09691],[73.14176,20.08068],[73.14058,20.08037],[73.13951,20.07879],[73.13707,20.07913],[73.13622,20.08155],[73.13739,20.0853],[73.13494,20.0929],[73.13401,20.10106],[73.13764,20.10791],[73.13653,20.11502],[73.13697,20.11662],[73.13982,20.11967],[73.14677,20.1251],[73.15296,20.11779],[73.15048,20.11403],[73.15473,20.10927],[73.15138,20.10184],[73.14289,20.09691]]]}},{"id":"63","type":"Feature","properties":{"state":"DADRA & NAGAR HAVELI & DAMAN & DIU","state_code":"26","district":"DADRA AND NAGAR HAVELI","district_code":"496","sub_district":"DADRA AND NAGAR HAVELI","sub_district_code":"03949","sub_district_type":"Taluka","village":"VANSDA","village_category":"Rural","village_code":"524992"},"geometry":{"type":"Polygon","coordinates":[[[73.16018,20.10056],[73.15574,20.10233],[73.15138,20.10184],[73.15473,20.10927],[73.15048,20.11403],[73.15296,20.11779],[73.14677,20.1251],[73.15271,20.13044],[73.16785,20.13946],[73.174,20.13558],[73.18674,20.13075],[73.17568,20.12402],[73.17172,20.12275],[73.16787,20.11516],[73.16519,20.10536],[73.16018,20.10056]]]}},{"id":"64","type":"Feature","properties":{"state":"DADRA & NAGAR HAVELI & DAMAN & DIU","state_code":"26","district":"DADRA AND NAGAR HAVELI","district_code":"496","sub_district":"DADRA AND NAGAR HAVELI","sub_district_code":"03949","sub_district_type":"Taluka","village":"SINDONI","village_category":"Rural","village_code":"524995"},"geometry":{"type":"Polygon","coordinates":[[[73.17759,20.09544],[73.18472,20.08533],[73.1805,20.08022],[73.1768,20.07751],[73.17059,20.06996],[73.16591,20.0609],[73.16513,20.05524],[73.1635,20.06055],[73.16163,20.06201],[73.15644,20.06352],[73.15716,20.06587],[73.15579,20.06588],[73.15447,20.07042],[73.15185,20.07256],[73.15464,20.07576],[73.14919,20.079],[73.14862,20.07849],[73.14869,20.07485],[73.14755,20.07407],[73.14669,20.07386],[73.14309,20.07643],[73.14272,20.07998],[73.14159,20.08053],[73.14289,20.09691],[73.15293,20.10235],[73.1562,20.10225],[73.16018,20.10056],[73.16486,20.10478],[73.17759,20.09544]]]}},{"id":"65","type":"Feature","properties":{"state":"DADRA & NAGAR HAVELI & DAMAN & DIU","state_code":"26","district":"DADRA AND NAGAR HAVELI","district_code":"496","sub_district":"DADRA AND NAGAR HAVELI","sub_district_code":"03949","sub_district_type":"Taluka","village":"BILDHARI","village_category":"Rural","village_code":"524976"},"geometry":{"type":"Polygon","coordinates":[[[73.21819,20.18152],[73.21416,20.17171],[73.20554,20.16417],[73.20104,20.16531],[73.18971,20.16426],[73.18998,20.16505],[73.18386,20.16892],[73.1831,20.17015],[73.1852,20.17571],[73.19006,20.17469],[73.19252,20.17577],[73.19462,20.18011],[73.19888,20.18081],[73.20825,20.1895],[73.21772,20.18593],[73.21819,20.18152]]]}},{"id":"66","type":"Feature","properties":{"state":"DADRA & NAGAR HAVELI & DAMAN & DIU","state_code":"26","district":"DADRA AND NAGAR HAVELI","district_code":"496","sub_district":"DADRA AND NAGAR HAVELI","sub_district_code":"03949","sub_district_type":"Taluka","village":"GUNSA","village_category":"Rural","village_code":"524975"},"geometry":{"type":"Polygon","coordinates":[[[73.19881,20.19446],[73.20315,20.18995],[73.2064,20.18828],[73.19888,20.18081],[73.19462,20.18011],[73.19252,20.17577],[73.19006,20.17469],[73.1852,20.17571],[73.1831,20.17015],[73.18002,20.17679],[73.17593,20.19023],[73.17826,20.19344],[73.17795,20.19264],[73.17979,20.19216],[73.18176,20.19439],[73.18352,20.1939],[73.19003,20.1951],[73.19172,20.19743],[73.19881,20.19446]]]}},{"id":"67","type":"Feature","properties":{"state":"DADRA & NAGAR HAVELI & DAMAN & DIU","state_code":"26","district":"DADRA AND NAGAR HAVELI","district_code":"496","sub_district":"DADRA AND NAGAR HAVELI","sub_district_code":"03949","sub_district_type":"Taluka","village":"DUDHANI","village_category":"Rural","village_code":"524974"},"geometry":{"type":"Polygon","coordinates":[[[73.1788,20.19775],[73.17928,20.1956],[73.17582,20.18948],[73.18095,20.17434],[73.17652,20.1713],[73.17336,20.16785],[73.17469,20.16002],[73.16413,20.16342],[73.15901,20.16851],[73.15673,20.17423],[73.15411,20.17424],[73.15276,20.17638],[73.14931,20.1791],[73.1457,20.1786],[73.14445,20.17963],[73.15172,20.185],[73.15667,20.18727],[73.1618,20.19212],[73.17119,20.19878],[73.1773,20.19897],[73.1788,20.19775]]]}},{"id":"68","type":"Feature","properties":{"state":"DADRA & NAGAR HAVELI & DAMAN & DIU","state_code":"26","district":"DADRA AND NAGAR HAVELI","district_code":"496","sub_district":"DADRA AND NAGAR HAVELI","sub_district_code":"03949","sub_district_type":"Taluka","village":"AMBABARI","village_category":"Rural","village_code":"524971"},"geometry":{"type":"Polygon","coordinates":[[[73.14931,20.1791],[73.15276,20.17638],[73.15411,20.17424],[73.15652,20.1744],[73.15901,20.16851],[73.15721,20.16578],[73.15649,20.1628],[73.1538,20.16195],[73.15127,20.15942],[73.15118,20.15798],[73.15034,20.158],[73.15029,20.15482],[73.14459,20.15531],[73.14502,20.15987],[73.14445,20.16261],[73.14134,20.16634],[73.13834,20.16701],[73.1365,20.17053],[73.13857,20.17469],[73.14169,20.17779],[73.14445,20.17963],[73.1457,20.1786],[73.14931,20.1791]]]}},{"id":"69","type":"Feature","properties":{"state":"DADRA & NAGAR HAVELI & DAMAN & DIU","state_code":"26","district":"DADRA AND NAGAR HAVELI","district_code":"496","sub_district":"DADRA AND NAGAR HAVELI","sub_district_code":"03949","sub_district_type":"Taluka","village":"KOTHAR","village_category":"Rural","village_code":"524969"},"geometry":{"type":"Polygon","coordinates":[[[73.12834,20.16218],[73.12123,20.15902],[73.1151,20.15834],[73.11566,20.16222],[73.11768,20.16384],[73.11948,20.16404],[73.11884,20.16752],[73.12094,20.16983],[73.12236,20.17068],[73.12369,20.17011],[73.12841,20.17344],[73.1311,20.17024],[73.1333,20.16936],[73.12834,20.16218]]]}},{"id":"70","type":"Feature","properties":{"state":"DADRA & NAGAR HAVELI & DAMAN & DIU","state_code":"26","district":"DADRA AND NAGAR HAVELI","district_code":"496","sub_district":"DADRA AND NAGAR HAVELI","sub_district_code":"03949","sub_district_type":"Taluka","village":"MEDHA","village_category":"Rural","village_code":"524970"},"geometry":{"type":"Polygon","coordinates":[[[73.13834,20.16701],[73.14134,20.16634],[73.14445,20.16261],[73.14502,20.15987],[73.14459,20.15531],[73.13969,20.15486],[73.13646,20.16063],[73.13335,20.16377],[73.1333,20.16936],[73.1365,20.17053],[73.13834,20.16701]]]}},{"id":"71","type":"Feature","properties":{"state":"DADRA & NAGAR HAVELI & DAMAN & DIU","state_code":"26","district":"DADRA AND NAGAR HAVELI","district_code":"496","sub_district":"DADRA AND NAGAR HAVELI","sub_district_code":"03949","sub_district_type":"Taluka","village":"VAGHCHAUDA","village_category":"Rural","village_code":"524968"},"geometry":{"type":"Polygon","coordinates":[[[73.13969,20.15486],[73.12453,20.15195],[73.12317,20.14728],[73.12184,20.14548],[73.12254,20.14049],[73.11171,20.14091],[73.11033,20.14641],[73.10531,20.15007],[73.10483,20.1529],[73.10215,20.15647],[73.10811,20.15784],[73.11051,20.15634],[73.11365,20.15209],[73.11506,20.15189],[73.11652,20.15582],[73.1151,20.15834],[73.12123,20.15902],[73.12834,20.16218],[73.13288,20.16869],[73.13335,20.16377],[73.13715,20.15954],[73.13969,20.15486]]]}},{"id":"72","type":"Feature","properties":{"state":"DADRA & NAGAR HAVELI & DAMAN & DIU","state_code":"26","district":"DADRA AND NAGAR HAVELI","district_code":"496","sub_district":"DADRA AND NAGAR HAVELI","sub_district_code":"03949","sub_district_type":"Taluka","village":"KHERARBARI","village_category":"Rural","village_code":"524979"},"geometry":{"type":"Polygon","coordinates":[[[73.14459,20.15531],[73.14934,20.14588],[73.14754,20.13705],[73.14305,20.13872],[73.13319,20.13872],[73.12254,20.14049],[73.12184,20.14548],[73.12317,20.14728],[73.12453,20.15195],[73.14459,20.15531]]]}},{"id":"73","type":"Feature","properties":{"state":"DADRA & NAGAR HAVELI & DAMAN & DIU","state_code":"26","district":"DADRA AND NAGAR HAVELI","district_code":"496","sub_district":"DADRA AND NAGAR HAVELI","sub_district_code":"03949","sub_district_type":"Taluka","village":"KHUNTLI","village_category":"Rural","village_code":"524981"},"geometry":{"type":"Polygon","coordinates":[[[73.09315,20.15937],[73.09327,20.15684],[73.09202,20.14348],[73.09269,20.12406],[73.08446,20.11333],[73.08079,20.11739],[73.08012,20.11942],[73.0766,20.14365],[73.08159,20.15542],[73.08515,20.15734],[73.09315,20.15937]]]}},{"id":"74","type":"Feature","properties":{"state":"DADRA & NAGAR HAVELI & DAMAN & DIU","state_code":"26","district":"DADRA AND NAGAR HAVELI","district_code":"496","sub_district":"DADRA AND NAGAR HAVELI","sub_district_code":"03949","sub_district_type":"Taluka","village":"SHELTI","village_category":"Rural","village_code":"524980"},"geometry":{"type":"Polygon","coordinates":[[[73.09941,20.15622],[73.10215,20.15647],[73.10483,20.1529],[73.10531,20.15007],[73.11033,20.14641],[73.11171,20.14091],[73.12254,20.14049],[73.13319,20.13872],[73.14305,20.13872],[73.14754,20.13705],[73.13736,20.12517],[73.12971,20.12338],[73.12642,20.12338],[73.1108,20.11697],[73.09219,20.12299],[73.09271,20.12611],[73.09202,20.14348],[73.09315,20.15937],[73.09941,20.15622]]]}},{"id":"75","type":"Feature","properties":{"state":"DADRA & NAGAR HAVELI & DAMAN & DIU","state_code":"26","district":"DADRA AND NAGAR HAVELI","district_code":"496","sub_district":"DADRA AND NAGAR HAVELI","sub_district_code":"03949","sub_district_type":"Taluka","village":"GHODBARI","village_category":"Rural","village_code":"524977"},"geometry":{"type":"Polygon","coordinates":[[[73.18386,20.16892],[73.18998,20.16505],[73.1883,20.15859],[73.18538,20.15584],[73.18457,20.1463],[73.1814,20.14656],[73.17851,20.1511],[73.17499,20.15862],[73.17336,20.16785],[73.17652,20.1713],[73.18095,20.17434],[73.18386,20.16892]]]}},{"id":"76","type":"Feature","properties":{"state":"DADRA & NAGAR HAVELI & DAMAN & DIU","state_code":"26","district":"DADRA AND NAGAR HAVELI","district_code":"496","sub_district":"DADRA AND NAGAR HAVELI","sub_district_code":"03949","sub_district_type":"Taluka","village":"BENSDHA","village_category":"Rural","village_code":"524993"},"geometry":{"type":"Polygon","coordinates":[[[73.19256,20.12779],[73.19745,20.12632],[73.19882,20.12426],[73.2004,20.12344],[73.20166,20.12072],[73.19081,20.10712],[73.17759,20.09544],[73.16486,20.10478],[73.16787,20.11516],[73.17172,20.12275],[73.17568,20.12402],[73.18674,20.13075],[73.18699,20.12945],[73.18964,20.12731],[73.19256,20.12779]]]}},{"id":"77","type":"Feature","properties":{"state":"DADRA & NAGAR HAVELI & DAMAN & DIU","state_code":"26","district":"DADRA AND NAGAR HAVELI","district_code":"496","sub_district":"DADRA AND NAGAR HAVELI","sub_district_code":"03949","sub_district_type":"Taluka","village":"KARCHOND","village_category":"Rural","village_code":"524978"},"geometry":{"type":"Polygon","coordinates":[[[73.18044,20.14784],[73.1814,20.14656],[73.18457,20.1463],[73.18546,20.1374],[73.18702,20.13361],[73.18668,20.13096],[73.174,20.13558],[73.16785,20.13946],[73.15271,20.13044],[73.14677,20.1251],[73.13736,20.12517],[73.14812,20.13781],[73.14814,20.14198],[73.14934,20.14588],[73.14459,20.15531],[73.15029,20.15482],[73.15034,20.158],[73.15118,20.15798],[73.15127,20.15942],[73.1538,20.16195],[73.15649,20.1628],[73.15721,20.16578],[73.15901,20.16851],[73.16413,20.16342],[73.17469,20.16002],[73.18044,20.14784]]]}},{"id":"78","type":"Feature","properties":{"state":"DADRA & NAGAR HAVELI & DAMAN & DIU","state_code":"26","district":"DADRA AND NAGAR HAVELI","district_code":"496","sub_district":"DADRA AND NAGAR HAVELI","sub_district_code":"03949","sub_district_type":"Taluka","village":"KAUNCHA","village_category":"Rural","village_code":"524973"},"geometry":{"type":"Polygon","coordinates":[[[73.16873,20.20302],[73.17119,20.19878],[73.1618,20.19212],[73.15667,20.18727],[73.14994,20.18388],[73.14169,20.17779],[73.13896,20.18447],[73.13681,20.18463],[73.13887,20.1868],[73.14049,20.19057],[73.14358,20.19291],[73.14307,20.20056],[73.14891,20.20066],[73.15225,20.2039],[73.15718,20.19835],[73.16846,20.20807],[73.16873,20.20302]]]}},{"id":"79","type":"Feature","properties":{"state":"DADRA & NAGAR HAVELI & DAMAN & DIU","state_code":"26","district":"DADRA AND NAGAR HAVELI","district_code":"496","sub_district":"DADRA AND NAGAR HAVELI","sub_district_code":"03949","sub_district_type":"Taluka","village":"PATI","village_category":"Rural","village_code":"524957"},"geometry":{"type":"Polygon","coordinates":[[[73.05764,20.19382],[73.05953,20.19393],[73.06207,20.18426],[73.06264,20.16975],[73.0604,20.16681],[73.0551,20.16715],[73.0521,20.16992],[73.04408,20.17461],[73.03887,20.18205],[73.0441,20.19473],[73.04577,20.19505],[73.04883,20.20053],[73.05322,20.19543],[73.05764,20.19382]]]}},{"id":"80","type":"Feature","properties":{"state":"DADRA & NAGAR HAVELI & DAMAN & DIU","state_code":"26","district":"DADRA AND NAGAR HAVELI","district_code":"496","sub_district":"DADRA AND NAGAR HAVELI","sub_district_code":"03949","sub_district_type":"Taluka","village":"TINODA","village_category":"Rural","village_code":"524964"},"geometry":{"type":"Polygon","coordinates":[[[73.06024,20.16189],[73.06342,20.15927],[73.05942,20.15348],[73.05504,20.14503],[73.04718,20.14175],[73.04091,20.14151],[73.039,20.14906],[73.03958,20.15315],[73.04101,20.15617],[73.04482,20.15856],[73.04606,20.16064],[73.04836,20.16235],[73.05119,20.1703],[73.0551,20.16715],[73.0604,20.16681],[73.06024,20.16189]]]}},{"id":"81","type":"Feature","properties":{"state":"DADRA & NAGAR HAVELI & DAMAN & DIU","state_code":"26","district":"DADRA AND NAGAR HAVELI","district_code":"496","sub_district":"DADRA AND NAGAR HAVELI","sub_district_code":"03949","sub_district_type":"Taluka","village":"JAMALPADA","village_category":"Rural","village_code":"524972"},"geometry":{"type":"Polygon","coordinates":[[[73.14757,20.20074],[73.1512,20.20334],[73.14891,20.20066],[73.14307,20.20056],[73.14358,20.19291],[73.14017,20.19016],[73.13816,20.18586],[73.13681,20.18463],[73.13492,20.18499],[73.13261,20.19196],[73.13299,20.20577],[73.13753,20.20759],[73.13852,20.20451],[73.14757,20.20074]]]}},{"id":"82","type":"Feature","properties":{"state":"DADRA & NAGAR HAVELI & DAMAN & DIU","state_code":"26","district":"DADRA AND NAGAR HAVELI","district_code":"496","sub_district":"DADRA AND NAGAR HAVELI","sub_district_code":"03949","sub_district_type":"Taluka","village":"DADRA","village_category":"Fully_urban","village_code":"524997"},"geometry":{"type":"Polygon","coordinates":[[[72.97251,20.32685],[72.9727,20.31744],[72.97917,20.31558],[72.97719,20.31207],[72.97471,20.31069],[72.96831,20.31485],[72.96604,20.31398],[72.96447,20.31199],[72.96284,20.31223],[72.95986,20.30792],[72.95657,20.30959],[72.95451,20.31124],[72.95277,20.31421],[72.95574,20.31808],[72.95705,20.32372],[72.95935,20.32559],[72.96112,20.33242],[72.97073,20.33247],[72.97251,20.32685]]]}},{"id":"83","type":"Feature","properties":{"state":"DADRA & NAGAR HAVELI & DAMAN & DIU","state_code":"26","district":"DADRA AND NAGAR HAVELI","district_code":"496","sub_district":"DADRA AND NAGAR HAVELI","sub_district_code":"03949","sub_district_type":"Taluka","village":"TIGHRA","village_category":"Rural","village_code":"524933"},"geometry":{"type":"Polygon","coordinates":[[[72.97471,20.31069],[72.97286,20.30865],[72.97357,20.30556],[72.97239,20.30407],[72.97084,20.29686],[72.96841,20.29793],[72.96449,20.30464],[72.95986,20.30792],[72.96284,20.31223],[72.96447,20.31199],[72.96652,20.3142],[72.96831,20.31485],[72.97471,20.31069]]]}},{"id":"84","type":"Feature","properties":{"state":"DADRA & NAGAR HAVELI & DAMAN & DIU","state_code":"26","district":"DADRA AND NAGAR HAVELI","district_code":"496","sub_district":"DADRA AND NAGAR HAVELI","sub_district_code":"03949","sub_district_type":"Taluka","village":"DEMANI","village_category":"Rural","village_code":"524932"},"geometry":{"type":"Polygon","coordinates":[[[72.9791,20.33224],[72.97946,20.32743],[72.98256,20.32036],[72.98239,20.31831],[72.97917,20.31558],[72.9727,20.31744],[72.97251,20.32685],[72.97091,20.33243],[72.9791,20.33224]]]}},{"id":"85","type":"Feature","properties":{"state":"DADRA & NAGAR HAVELI & DAMAN & DIU","state_code":"26","district":"DADRA AND NAGAR HAVELI","district_code":"496","sub_district":"DADRA AND NAGAR HAVELI","sub_district_code":"03949","sub_district_type":"Taluka","village":"KHEDPA","village_category":"Rural","village_code":"524996"},"geometry":{"type":"Polygon","coordinates":[[[73.18853,20.0781],[73.18925,20.07325],[73.18837,20.07243],[73.18785,20.06969],[73.18772,20.06344],[73.18615,20.05917],[73.18771,20.05698],[73.1921,20.05471],[73.19092,20.04959],[73.18779,20.05074],[73.18534,20.05013],[73.18493,20.04934],[73.18332,20.05028],[73.17937,20.04881],[73.17798,20.04703],[73.17663,20.05195],[73.17434,20.05119],[73.17071,20.05204],[73.16776,20.05577],[73.1654,20.05527],[73.16591,20.0609],[73.17059,20.06996],[73.1768,20.07751],[73.1805,20.08022],[73.18472,20.08533],[73.18936,20.0782],[73.18853,20.0781]]]}},{"id":"86","type":"Feature","properties":{"state":"DADRA & NAGAR HAVELI & DAMAN & DIU","state_code":"26","district":"DADRA AND NAGAR HAVELI","district_code":"496","sub_district":"DADRA AND NAGAR HAVELI","sub_district_code":"03949","sub_district_type":"Taluka","village":"BEDPA","village_category":"Rural","village_code":"524994"},"geometry":{"type":"Polygon","coordinates":[[[73.20843,20.12006],[73.2139,20.11899],[73.21256,20.1099],[73.21266,20.10484],[73.20952,20.085],[73.20475,20.07996],[73.20335,20.07896],[73.19816,20.07785],[73.19691,20.07594],[73.18937,20.07809],[73.17759,20.09544],[73.19081,20.10712],[73.20166,20.12072],[73.20302,20.1196],[73.20843,20.12006]]]}},{"id":"87","type":"Feature","properties":{"state":"DADRA & NAGAR HAVELI & DAMAN & DIU","state_code":"26","district":"DADRA AND NAGAR HAVELI","district_code":"496","sub_district":"DADRA AND NAGAR HAVELI","sub_district_code":"03949","sub_district_type":"Taluka","village":"SAILI","village_category":"Fully_urban","village_code":"524949"},"geometry":{"type":"Polygon","coordinates":[[[73.06723,20.23706],[73.07071,20.23211],[73.06717,20.22931],[73.06365,20.22776],[73.06257,20.22403],[73.05996,20.22334],[73.05851,20.21934],[73.03736,20.22405],[73.03493,20.22788],[73.03404,20.23391],[73.038,20.24419],[73.03109,20.2455],[73.03672,20.2507],[73.04168,20.25207],[73.04683,20.25231],[73.05173,20.2507],[73.05898,20.2461],[73.06723,20.23706]]]}},{"id":"88","type":"Feature","properties":{"state":"DADRA & NAGAR HAVELI & DAMAN & DIU","state_code":"26","district":"DADRA AND NAGAR HAVELI","district_code":"496","sub_district":"DADRA AND NAGAR HAVELI","sub_district_code":"03949","sub_district_type":"Taluka","village":"UMARKUI","village_category":"Rural","village_code":"921574"},"geometry":{"type":"Polygon","coordinates":[[[73.09714,20.238],[73.09708,20.23611],[73.09827,20.23453],[73.09764,20.23351],[73.09901,20.23194],[73.09774,20.2293],[73.09163,20.22842],[73.08927,20.22676],[73.08718,20.22703],[73.08549,20.22764],[73.08425,20.23001],[73.08244,20.23089],[73.07066,20.23208],[73.06723,20.23706],[73.05898,20.2461],[73.06266,20.25077],[73.0696,20.25281],[73.07871,20.25286],[73.08411,20.25198],[73.0913,20.24726],[73.0967,20.24246],[73.09852,20.2396],[73.09714,20.238]]]}},{"id":"89","type":"Feature","properties":{"state":"DADRA & NAGAR HAVELI & DAMAN & DIU","state_code":"26","district":"DADRA AND NAGAR HAVELI","district_code":"496","sub_district":"DADRA AND NAGAR HAVELI","sub_district_code":"03949","sub_district_type":"Taluka","village":"SILVASSA","village_category":"Fully_urban","village_code":"999999999"},"geometry":{"type":"MultiPolygon","coordinates":[[[[73.00994,20.3125],[73.01106,20.31131],[73.01217,20.31169],[73.01175,20.30983],[73.01241,20.30933],[73.01624,20.31054],[73.01695,20.3098],[73.01536,20.29437],[73.01224,20.2945],[73.01034,20.29218],[73.01099,20.29341],[73.0105,20.29845],[73.01157,20.30039],[73.00956,20.30503],[73.00942,20.30981],[73.00605,20.31267],[73.00994,20.3125]]],[[[73.0983,20.35838],[73.09864,20.3547],[73.10169,20.35474],[73.10478,20.34994],[73.10493,20.34842],[73.10398,20.34755],[73.10738,20.34391],[73.10803,20.33902],[73.11125,20.33777],[73.10804,20.33103],[73.10751,20.32856],[73.10843,20.32457],[73.10291,20.31413],[73.10296,20.31195],[73.10037,20.30482],[73.10281,20.30178],[73.10852,20.30527],[73.11153,20.30405],[73.11661,20.30616],[73.12189,20.30419],[73.12695,20.30551],[73.12645,20.3088],[73.12944,20.31832],[73.13887,20.31762],[73.14066,20.31834],[73.15078,20.31834],[73.15237,20.31525],[73.15379,20.31473],[73.15941,20.30885],[73.1631,20.31036],[73.16573,20.31043],[73.16623,20.30527],[73.16349,20.2982],[73.16542,20.29517],[73.16637,20.2916],[73.1663,20.28787],[73.16494,20.28399],[73.15765,20.28143],[73.1551,20.28304],[73.15367,20.28523],[73.15173,20.29203],[73.14752,20.28978],[73.14411,20.28622],[73.14339,20.28265],[73.14222,20.2811],[73.14227,20.27642],[73.13997,20.27379],[73.13728,20.27314],[73.13123,20.27503],[73.13053,20.26949],[73.12702,20.26179],[73.126,20.26076],[73.12299,20.26031],[73.11963,20.2586],[73.11399,20.25831],[73.11017,20.25325],[73.107,20.25077],[73.10748,20.24861],[73.10627,20.24619],[73.10333,20.24445],[73.10034,20.24015],[73.09852,20.2396],[73.0967,20.24246],[73.0913,20.24726],[73.08411,20.25198],[73.07871,20.25286],[73.0696,20.25281],[73.06266,20.25077],[73.05898,20.2461],[73.05173,20.2507],[73.04683,20.25231],[73.04168,20.25207],[73.03672,20.2507],[73.03109,20.2455],[73.02334,20.25148],[73.01427,20.24764],[73.008,20.24685],[73.0022,20.24796],[72.9975,20.25447],[72.99055,20.25377],[72.99012,20.25729],[72.9987,20.25857],[72.99979,20.25705],[73.00236,20.25624],[73.00461,20.25877],[73.01095,20.26152],[73.01228,20.26285],[73.01549,20.26276],[73.01671,20.26153],[73.01623,20.25839],[73.01862,20.25394],[73.02889,20.2545],[73.0339,20.25702],[73.03557,20.26082],[73.03538,20.26368],[73.03351,20.26822],[73.03167,20.27009],[73.0306,20.27354],[73.02908,20.27344],[73.02837,20.2745],[73.0285,20.27689],[73.02694,20.27819],[73.02813,20.27888],[73.02811,20.28015],[73.0256,20.28062],[73.0268,20.28232],[73.02622,20.2856],[73.02433,20.28808],[73.02471,20.2906],[73.0236,20.29072],[73.02334,20.29133],[73.02959,20.29055],[73.03429,20.29163],[73.03561,20.2932],[73.03516,20.2949],[73.03616,20.30468],[73.038,20.31417],[73.0377,20.31767],[73.03874,20.32104],[73.04174,20.32599],[73.04717,20.32431],[73.04924,20.32441],[73.06665,20.33003],[73.0681,20.32923],[73.07027,20.32547],[73.07717,20.32348],[73.07807,20.32586],[73.08453,20.33182],[73.08782,20.34124],[73.09027,20.34393],[73.09026,20.34694],[73.08845,20.35033],[73.08944,20.3525],[73.08906,20.35869],[73.09098,20.35997],[73.09361,20.35964],[73.0958,20.36133],[73.0983,20.35838]]]]}},{"id":"90","type":"Feature","properties":{"state":"DADRA & NAGAR HAVELI & DAMAN & DIU","state_code":"26","district":"DADRA AND NAGAR HAVELI","district_code":"496","sub_district":"DADRA AND NAGAR HAVELI","sub_district_code":"03949","sub_district_type":"Taluka","village":"SILVASSA","village_category":"Fully_urban","village_code":"999999999"},"geometry":{"type":"Polygon","coordinates":[[[73.02182,20.29297],[73.0236,20.29072],[73.02471,20.2906],[73.02433,20.28808],[73.02619,20.28572],[73.02677,20.28272],[73.0256,20.28062],[73.02811,20.28015],[73.02813,20.27888],[73.02694,20.27819],[73.0285,20.27689],[73.02837,20.2745],[73.02908,20.27344],[73.0306,20.27354],[73.03167,20.27009],[73.03351,20.26822],[73.03538,20.26368],[73.03557,20.26082],[73.0339,20.25702],[73.02889,20.2545],[73.01862,20.25394],[73.01623,20.25839],[73.01671,20.26153],[73.01549,20.26276],[73.01228,20.26285],[73.01095,20.26152],[73.00461,20.25877],[73.00236,20.25624],[72.99979,20.25705],[72.9987,20.25857],[72.99012,20.25729],[72.99028,20.26544],[72.98569,20.27354],[72.98272,20.27695],[72.98142,20.27707],[72.98098,20.2784],[72.98117,20.28927],[72.98273,20.28947],[72.98536,20.28808],[72.98728,20.29087],[72.99441,20.29231],[72.99682,20.29076],[73.00102,20.29197],[73.00516,20.28919],[73.01005,20.29121],[73.01205,20.29441],[73.02182,20.29297]]]}}],"name":"dadra_and_nagar_haveli_and_daman_and_diu_soi_villages","attribution":"Village boundaries: Survey of India, Government of India"}