{"type":"FeatureCollection","features":[{"id":"0","type":"Feature","properties":{"state":"Lakshadweep-UT","state_code":"31","district":"Lakshadweep","district_code":"587","sub_district":"Chetlat","sub_district_code":"5622","sub_district_type":"CD_Block","village":"Chetlat Island","village_category":"Rural","village_code":"627032"},"geometry":{"type":"Polygon","coordinates":[[[72.71723,11.69446],[72.70976,11.6828],[72.7086,11.68212],[72.70558,11.68223],[72.70613,11.68455],[72.70861,11.68579],[72.71028,11.6923],[72.71389,11.70054],[72.71636,11.70366],[72.71723,11.69446]]]}},{"id":"1","type":"Feature","properties":{"state":"Lakshadweep-UT","state_code":"31","district":"Lakshadweep","district_code":"587","sub_district":"Kiltan","sub_district_code":"5623","sub_district_type":"CD_Block","village":"Kiltan Island","village_category":"Rural","village_code":"627033"},"geometry":{"type":"Polygon","coordinates":[[[73.00805,11.4725],[73.00248,11.49272],[72.99989,11.49398],[72.99805,11.49697],[72.99943,11.49819],[73.00199,11.49808],[73.00467,11.49626],[73.00982,11.48735],[73.0099,11.48048],[73.01172,11.47296],[73.00828,11.46952],[73.00694,11.46999],[73.00805,11.4725]]]}},{"id":"2","type":"Feature","properties":{"state":"Lakshadweep-UT","state_code":"31","district":"Lakshadweep","district_code":"587","sub_district":"Kadmat","sub_district_code":"5624","sub_district_type":"CD_Block","village":"Kadmat Island","village_category":"Rural","village_code":"627034"},"geometry":{"type":"Polygon","coordinates":[[[72.76279,11.18554],[72.76324,11.19183],[72.76451,11.19681],[72.77199,11.21663],[72.77933,11.24235],[72.78575,11.25669],[72.78728,11.25875],[72.79008,11.26015],[72.78987,11.25524],[72.78249,11.23741],[72.77695,11.21715],[72.76948,11.20542],[72.76449,11.19094],[72.76294,11.18392],[72.76158,11.18252],[72.76279,11.18554]]]}},{"id":"3","type":"Feature","properties":{"state":"Lakshadweep-UT","state_code":"31","district":"Lakshadweep","district_code":"587","sub_district":"Amini","sub_district_code":"5620","sub_district_type":"CD_Block","village":"Amini Island","village_category":"Rural","village_code":"627030"},"geometry":{"type":"Polygon","coordinates":[[[72.7291,11.13604],[72.73389,11.13585],[72.73435,11.1341],[72.73108,11.12541],[72.72721,11.12015],[72.71963,11.11363],[72.71739,11.11619],[72.71646,11.11924],[72.7168,11.12353],[72.71841,11.12702],[72.72084,11.13016],[72.7291,11.13604]]]}},{"id":"4","type":"Feature","properties":{"state":"Lakshadweep-UT","state_code":"31","district":"Lakshadweep","district_code":"587","sub_district":"Agatti","sub_district_code":"5626","sub_district_type":"CD_Block","village":"Parali III Islet (Bangaram Island)","village_category":"Rural","village_code":"627042"},"geometry":{"type":"Polygon","coordinates":[[[72.33529,10.95634],[72.33418,10.95613],[72.33396,10.95899],[72.33501,10.95808],[72.33529,10.95634]]]}},{"id":"5","type":"Feature","properties":{"state":"Lakshadweep-UT","state_code":"31","district":"Lakshadweep","district_code":"587","sub_district":"Agatti","sub_district_code":"5626","sub_district_type":"CD_Block","village":"Parali II  Islet","village_category":"Rural","village_code":"627041"},"geometry":{"type":"Polygon","coordinates":[[[72.33435,10.9549],[72.33439,10.95348],[72.3337,10.95279],[72.33273,10.95448],[72.33435,10.9549]]]}},{"id":"6","type":"Feature","properties":{"state":"Lakshadweep-UT","state_code":"31","district":"Lakshadweep","district_code":"587","sub_district":"Agatti","sub_district_code":"5626","sub_district_type":"CD_Block","village":"Parali I  Islet","village_category":"Rural","village_code":"627040"},"geometry":{"type":"Polygon","coordinates":[[[72.33313,10.95174],[72.33128,10.9503],[72.33016,10.95122],[72.33292,10.95258],[72.33313,10.95174]]]}},{"id":"7","type":"Feature","properties":{"state":"Lakshadweep-UT","state_code":"31","district":"Lakshadweep","district_code":"587","sub_district":"Agatti","sub_district_code":"5626","sub_district_type":"CD_Block","village":"Tinnakara Islet (Bangaram Island)","village_category":"Rural","village_code":"627039"},"geometry":{"type":"Polygon","coordinates":[[[72.32692,10.95109],[72.32036,10.94575],[72.31522,10.94333],[72.31524,10.94718],[72.31687,10.94938],[72.32692,10.95109]]]}},{"id":"8","type":"Feature","properties":{"state":"Lakshadweep-UT","state_code":"31","district":"Lakshadweep","district_code":"587","sub_district":"Agatti","sub_district_code":"5626","sub_district_type":"CD_Block","village":"Bangaram Island","village_category":"Rural","village_code":"627043"},"geometry":{"type":"Polygon","coordinates":[[[72.28469,10.93785],[72.28723,10.94663],[72.29326,10.94596],[72.29068,10.94582],[72.28938,10.94399],[72.29036,10.93979],[72.29235,10.93648],[72.28819,10.93544],[72.28509,10.93616],[72.28469,10.93785]]]}},{"id":"9","type":"Feature","properties":{"state":"Lakshadweep-UT","state_code":"31","district":"Lakshadweep","district_code":"587","sub_district":"Agatti","sub_district_code":"5626","sub_district_type":"CD_Block","village":"Agatti Island","village_category":"Rural","village_code":"627044"},"geometry":{"type":"Polygon","coordinates":[[[72.18796,10.84901],[72.19423,10.87057],[72.19799,10.87525],[72.20088,10.87856],[72.20595,10.87824],[72.20607,10.87611],[72.20263,10.86908],[72.18901,10.84777],[72.1831,10.83704],[72.17953,10.82855],[72.17266,10.8198],[72.16992,10.81791],[72.18035,10.83341],[72.18796,10.84901]]]}},{"id":"10","type":"Feature","properties":{"state":"Lakshadweep-UT","state_code":"31","district":"Lakshadweep","district_code":"587","sub_district":"Agatti","sub_district_code":"5626","sub_district_type":"CD_Block","village":"Kalpitti Islet  (Agatti Island)","village_category":"Rural","village_code":"627045"},"geometry":{"type":"Polygon","coordinates":[[[72.16468,10.81315],[72.16646,10.81443],[72.16861,10.81493],[72.16868,10.81256],[72.16494,10.81246],[72.16468,10.81315]]]}},{"id":"11","type":"Feature","properties":{"state":"Lakshadweep-UT","state_code":"31","district":"Lakshadweep","district_code":"587","sub_district":"Kavaratti","sub_district_code":"5625","sub_district_type":"CD_Block","village":"Kavaratti Island","village_category":"Rural","village_code":"627038"},"geometry":{"type":"Polygon","coordinates":[[[72.62255,10.54768],[72.62499,10.54998],[72.63712,10.56926],[72.63949,10.57405],[72.64045,10.57897],[72.64691,10.57779],[72.64964,10.57425],[72.65112,10.56974],[72.64953,10.56326],[72.64648,10.56105],[72.63609,10.55716],[72.62414,10.54802],[72.61993,10.54301],[72.61791,10.54179],[72.61678,10.54209],[72.61631,10.54376],[72.61804,10.546],[72.62255,10.54768]]]}},{"id":"12","type":"Feature","properties":{"state":"Lakshadweep-UT","state_code":"31","district":"Lakshadweep","district_code":"587","sub_district":"Andrott","sub_district_code":"5627","sub_district_type":"CD_Block","village":"Androth Island","village_category":"Rural","village_code":"627046"},"geometry":{"type":"Polygon","coordinates":[[[73.70162,10.81465],[73.70136,10.81292],[73.69974,10.81144],[73.69283,10.80966],[73.68327,10.80565],[73.67461,10.80362],[73.66361,10.80539],[73.66115,10.80737],[73.65946,10.81185],[73.65952,10.8142],[73.66058,10.8161],[73.66529,10.81723],[73.67643,10.81602],[73.67854,10.81685],[73.68661,10.81608],[73.69637,10.81633],[73.70019,10.81601],[73.70162,10.81465]]]}},{"id":"13","type":"Feature","properties":{"state":"Lakshadweep-UT","state_code":"31","district":"Lakshadweep","district_code":"587","sub_district":"Kavaratti","sub_district_code":"5625","sub_district_type":"CD_Block","village":"Valiyakara Islet (Suheli Part)","village_category":"Rural","village_code":"627037"},"geometry":{"type":"Polygon","coordinates":[[[72.32709,10.1305],[72.32817,10.13242],[72.32744,10.13762],[72.32824,10.1385],[72.33158,10.13268],[72.33314,10.12786],[72.3324,10.12769],[72.33088,10.1294],[72.32766,10.1292],[72.32709,10.1305]]]}},{"id":"14","type":"Feature","properties":{"state":"Lakshadweep-UT","state_code":"31","district":"Lakshadweep","district_code":"587","sub_district":"Kavaratti","sub_district_code":"5625","sub_district_type":"CD_Block","village":"Cheriyakara Islet (Suheli Part)","village_category":"Rural","village_code":"627036"},"geometry":{"type":"Polygon","coordinates":[[[72.28568,10.04179],[72.28315,10.04104],[72.28534,10.04602],[72.2886,10.04952],[72.29037,10.05286],[72.28852,10.04528],[72.28568,10.04179]]]}},{"id":"15","type":"Feature","properties":{"state":"Lakshadweep-UT","state_code":"31","district":"Lakshadweep","district_code":"587","sub_district":"Minicoy","sub_district_code":"5629","sub_district_type":"CD_Block","village":"Minicoy Island","village_category":"Rural","village_code":"627056"},"geometry":{"type":"Polygon","coordinates":[[[73.02448,8.26686],[73.01875,8.27018],[73.01798,8.27572],[73.02129,8.27383],[73.02205,8.27176],[73.01868,8.27425],[73.01997,8.27214],[73.02239,8.2708],[73.02809,8.2705],[73.0342,8.27187],[73.03929,8.27166],[73.04659,8.27439],[73.05566,8.2817],[73.06,8.28925],[73.06438,8.29494],[73.06571,8.30166],[73.06852,8.3088],[73.0748,8.32032],[73.07829,8.32397],[73.07546,8.32024],[73.06989,8.30993],[73.06678,8.30246],[73.06548,8.29343],[73.06631,8.2862],[73.06585,8.28462],[73.05488,8.27414],[73.04849,8.2659],[73.04439,8.26392],[73.03588,8.26409],[73.02448,8.26686]]]}},{"id":"16","type":"Feature","properties":{"state":"Lakshadweep-UT","state_code":"31","district":"Lakshadweep","district_code":"587","sub_district":"Kalpeni","sub_district_code":"5628","sub_district_type":"CD_Block","village":"Kalpeni Island","village_category":"Rural","village_code":"627054"},"geometry":{"type":"Polygon","coordinates":[[[73.63965,10.06153],[73.63509,10.07126],[73.63784,10.07024],[73.64037,10.07083],[73.64402,10.07598],[73.64807,10.08812],[73.65132,10.10155],[73.65145,10.09802],[73.64724,10.07621],[73.64761,10.0602],[73.64605,10.05719],[73.64199,10.0567],[73.63959,10.05822],[73.63965,10.06153]]]}},{"id":"17","type":"Feature","properties":{"state":"Lakshadweep-UT","state_code":"31","district":"Lakshadweep","district_code":"587","sub_district":"Kalpeni","sub_district_code":"5628","sub_district_type":"CD_Block","village":"Pitti Islet","village_category":"Rural","village_code":"627052"},"geometry":{"type":"Polygon","coordinates":[[[73.62606,10.07252],[73.62797,10.07404],[73.62868,10.07332],[73.62653,10.0718],[73.62606,10.07252]]]}},{"id":"18","type":"Feature","properties":{"state":"Lakshadweep-UT","state_code":"31","district":"Lakshadweep","district_code":"587","sub_district":"Kalpeni","sub_district_code":"5628","sub_district_type":"CD_Block","village":"Tilakkam","village_category":"Rural","village_code":"627049"},"geometry":{"type":"Polygon","coordinates":[[[73.63351,10.07185],[73.63469,10.07152],[73.63378,10.07109],[73.63351,10.07185]]]}},{"id":"19","type":"Feature","properties":{"state":"Lakshadweep-UT","state_code":"31","district":"Lakshadweep","district_code":"587","sub_district":"Kalpeni","sub_district_code":"5628","sub_district_type":"CD_Block","village":"Cheriyam Islet (Kalpeni Island)","village_category":"Rural","village_code":"627047"},"geometry":{"type":"Polygon","coordinates":[[[73.65766,10.15282],[73.65784,10.15439],[73.66003,10.15501],[73.66147,10.14767],[73.6641,10.14084],[73.66275,10.13411],[73.66128,10.12958],[73.66037,10.12896],[73.65984,10.12921],[73.66072,10.13023],[73.66182,10.13566],[73.66213,10.14184],[73.65841,10.15357],[73.65831,10.15236],[73.65766,10.15282]]]}},{"id":"20","type":"Feature","properties":{"state":"Lakshadweep-UT","state_code":"31","district":"Lakshadweep","district_code":"587","sub_district":"Bitra","sub_district_code":"5621","sub_district_type":"CD_Block","village":"Bitra Island","village_category":"Rural","village_code":"627031"},"geometry":{"type":"Polygon","coordinates":[[[72.18707,11.60142],[72.18902,11.6004],[72.19023,11.59858],[72.18628,11.59858],[72.18505,11.60139],[72.18707,11.60142]]]}},{"id":"21","type":"Feature","properties":{"state":"Lakshadweep-UT","state_code":"31","district":"Lakshadweep","district_code":"587","sub_district":"Kalpeni","sub_district_code":"5628","sub_district_type":"CD_Block","village":"Kodithala Islet","village_category":"Rural","village_code":"627048"},"geometry":{"type":"Polygon","coordinates":[[[73.65202,10.10922],[73.65252,10.10889],[73.65242,10.1083],[73.65197,10.10842],[73.65202,10.10922]]]}},{"id":"22","type":"Feature","properties":{"state":"Lakshadweep-UT","state_code":"31","district":"Lakshadweep","district_code":"587","sub_district":"Kalpeni","sub_district_code":"5628","sub_district_type":"CD_Block","village":"Tilakkam Islet","village_category":"Rural","village_code":"627050"},"geometry":{"type":"Polygon","coordinates":[[[73.63043,10.06788],[73.63142,10.06857],[73.63164,10.06836],[73.63043,10.06788]]]}},{"id":"23","type":"Feature","properties":{"state":"Lakshadweep-UT","state_code":"31","district":"Lakshadweep","district_code":"587","sub_district":"Kalpeni","sub_district_code":"5628","sub_district_type":"CD_Block","village":"Tilakkam Islet","village_category":"Rural","village_code":"627051"},"geometry":{"type":"Polygon","coordinates":[[[73.63238,10.06849],[73.63232,10.06911],[73.63291,10.06967],[73.63313,10.06895],[73.63238,10.06849]]]}},{"id":"24","type":"Feature","properties":{"state":"Lakshadweep-UT","state_code":"31","district":"Lakshadweep","district_code":"587","sub_district":"Kalpeni","sub_district_code":"5628","sub_district_type":"CD_Block","village":"Tilakkam Islet","village_category":"Rural","village_code":"000000"},"geometry":{"type":"Polygon","coordinates":[[[73.63103,10.07303],[73.63053,10.07321],[73.63113,10.07353],[73.63103,10.07303]]]}},{"id":"25","type":"Feature","properties":{"state":"Lakshadweep-UT","state_code":"31","district":"Lakshadweep","district_code":"587","sub_district":"Minicoy","sub_district_code":"5629","sub_district_type":"CD_Block","village":"Viringili Islet (Minicoy Island)","village_category":"Rural","village_code":"627055"},"geometry":{"type":"Polygon","coordinates":[[[73.01145,8.27585],[73.01056,8.27623],[73.01017,8.27756],[73.01189,8.27672],[73.01145,8.27585]]]}},{"id":"26","type":"Feature","properties":{"state":"Lakshadweep-UT","state_code":"31","district":"Lakshadweep","district_code":"587","sub_district":"Kalpeni","sub_district_code":"5628","sub_district_type":"CD_Block","village":"Raggan Islet","village_category":"Rural","village_code":"000000"},"geometry":{"type":"Polygon","coordinates":[[[73.01384,8.30169],[73.01349,8.30195],[73.0138,8.30207],[73.01384,8.30169]]]}},{"id":"27","type":"Feature","properties":{"state":"Lakshadweep-UT","state_code":"31","district":"Lakshadweep","district_code":"587","sub_district":"Kalpeni","sub_district_code":"5628","sub_district_type":"CD_Block","village":"Tilakkam Islet","village_category":"Rural","village_code":"000000"},"geometry":{"type":"Polygon","coordinates":[[[73.63135,10.06869],[73.63165,10.06892],[73.63178,10.06875],[73.63135,10.06869]]]}},{"id":"28","type":"Feature","properties":{"state":"Lakshadweep-UT","state_code":"31","district":"Lakshadweep","district_code":"587","sub_district":"Kavaratti","sub_district_code":"5625","sub_district_type":"CD_Block","village":"Pitti Island","village_category":"Rural","village_code":null},"geometry":{"type":"Polygon","coordinates":[[[72.33812,10.10426],[72.33824,10.10206],[72.33458,10.09635],[72.33387,10.09633],[72.33495,10.09924],[72.33485,10.10417],[72.33636,10.10486],[72.33812,10.10426]]]}},{"id":"29","type":"Feature","properties":{"state":"Lakshadweep-UT","state_code":"31","district":"Lakshadweep","district_code":"587","sub_district":"Agatti","sub_district_code":"5626","sub_district_type":"CD_Block","village":"Pitti Island","village_category":"Rural","village_code":null},"geometry":{"type":"Polygon","coordinates":[[[72.53587,10.78537],[72.5373,10.78382],[72.53631,10.78218],[72.53136,10.78067],[72.5334,10.78424],[72.53587,10.78537]]]}}],"name":"lakshadweep_soi_villages","attribution":"Village boundaries: Survey of India, Government of India"}