{
"type": "FeatureCollection",
"name": "dfc_network",
"crs": { "type": "name", "properties": { "name": "urn:ogc:def:crs:OGC:1.3:CRS84" } },
"features": [
{ "type": "Feature", "properties": { "name": "Western Dedicated Freight Corridor (WDFC)", "corridor": "WDFC", "route": "Dadri - Rewari - Phulera - Palanpur - Sanand - Surat - JNPT", "length_km": 1506, "status": "Operational / Commissioned" }, "geometry": { "type": "LineString", "coordinates": [ [ 77.568, 28.551 ], [ 77.294, 28.256 ], [ 76.953, 28.285 ], [ 76.621, 28.212 ], [ 76.265, 28.028 ], [ 75.981, 27.893 ], [ 75.782, 27.734 ], [ 75.568, 27.352 ], [ 75.241, 26.874 ], [ 74.873, 26.582 ], [ 74.685, 26.501 ], [ 73.612, 25.731 ], [ 73.238, 25.221 ], [ 72.776, 24.475 ], [ 72.431, 24.172 ], [ 72.395, 23.593 ], [ 72.368, 22.984 ], [ 73.195, 22.241 ], [ 72.998, 21.712 ], [ 72.875, 21.264 ], [ 72.883, 21.082 ], [ 72.935, 20.612 ], [ 72.912, 20.375 ], [ 72.741, 19.972 ], [ 72.845, 19.521 ], [ 72.835, 19.382 ], [ 73.042, 19.195 ], [ 73.121, 18.995 ], [ 72.955, 18.951 ] ] } },
{ "type": "Feature", "properties": { "name": "Eastern Dedicated Freight Corridor (EDFC)", "corridor": "EDFC", "route": "Sahnewal (Ludhiana) - Khurja - Kanpur - Prayagraj - DDU - Sonnagar", "length_km": 1337, "status": "Operational / Commissioned" }, "geometry": { "type": "LineString", "coordinates": [ [ 75.985, 30.845 ], [ 76.385, 30.638 ], [ 76.715, 30.432 ], [ 77.342, 30.082 ], [ 77.465, 29.982 ], [ 77.712, 29.475 ], [ 77.705, 28.985 ], [ 77.778, 28.731 ], [ 77.852, 28.255 ], [ 78.115, 27.852 ], [ 78.052, 27.595 ], [ 78.242, 27.215 ], [ 78.582, 27.108 ], [ 79.028, 26.785 ], [ 80.125, 26.472 ], [ 80.582, 26.221 ], [ 80.812, 25.928 ], [ 81.678, 25.485 ], [ 81.925, 25.321 ], [ 82.885, 25.125 ], [ 83.125, 25.285 ], [ 83.612, 25.045 ], [ 84.025, 24.952 ], [ 84.185, 24.912 ], [ 84.285, 24.882 ] ] } },
{ "type": "Feature", "properties": { "name": "Dadri - Khurja DFC Connecting Link", "corridor": "WDFC-EDFC Link", "route": "New Dadri to New Khurja", "length_km": 46, "status": "Operational" }, "geometry": { "type": "LineString", "coordinates": [ [ 77.568, 28.551 ], [ 77.852, 28.255 ] ] } }
]
}
