{
"type": "FeatureCollection",
"name": "major_ports_isochrones",
"crs": { "type": "name", "properties": { "name": "urn:ogc:def:crs:OGC:1.3:CRS84" } },
"features": [
{ "type": "Feature", "properties": { "hub_name": "Deendayal Port (Kandla)", "hub_type": "major_port", "time_threshold_hours": 1.0, "label": "1 Hour Catchment" }, "geometry": { "type": "Polygon", "coordinates": [ [ [ 69.766153877657345, 22.83197674706566 ], [ 69.721452131251624, 22.834084844641897 ], [ 69.689995937906147, 22.852935279319421 ], [ 69.671240810481677, 22.883205304790867 ], [ 69.671375061916848, 22.924756442213862 ], [ 69.866953532706972, 23.209172339212515 ], [ 69.888369069960987, 23.229566849292922 ], [ 70.325308700897793, 23.363642595383432 ], [ 70.441446168857908, 23.383614210361596 ], [ 70.541461660160962, 23.381728714138053 ], [ 70.568402609922671, 23.368322305467643 ], [ 70.592322552667028, 23.341709283344255 ], [ 70.6018414840308, 23.300503239498685 ], [ 70.585355367642904, 23.261218936775698 ], [ 70.26391365084892, 22.94698455533586 ], [ 70.235820446745194, 22.93516897566855 ], [ 69.766153877657345, 22.83197674706566 ] ] ] } },
{ "type": "Feature", "properties": { "hub_name": "Deendayal Port (Kandla)", "hub_type": "major_port", "time_threshold_hours": 2.0, "label": "2 Hour Catchment" }, "geometry": { "type": "Polygon", "coordinates": [ [ [ 70.898450788458817, 22.763323754278833 ], [ 70.856933032189616, 22.752965879761732 ], [ 69.35271646225938, 22.761425552681128 ], [ 69.305810385608183, 22.770315026595455 ], [ 69.175141465736417, 22.82585512133894 ], [ 69.133301156339002, 22.878004347928563 ], [ 69.125706381987683, 22.920687048912828 ], [ 69.139636008998764, 22.954149696273227 ], [ 69.162174916622206, 22.973988569588432 ], [ 69.711244092636235, 23.29326416109112 ], [ 70.594928230554771, 23.764210356508524 ], [ 70.645305604642928, 23.773330303092909 ], [ 71.041720211527561, 23.653190429488244 ], [ 71.071727273627687, 23.631875776885504 ], [ 71.087705143950046, 23.60022539809346 ], [ 71.151053804886118, 22.992703292554243 ], [ 71.125982605403479, 22.951214734244449 ], [ 70.898450788458817, 22.763323754278833 ] ] ] } },
{ "type": "Feature", "properties": { "hub_name": "Deendayal Port (Kandla)", "hub_type": "major_port", "time_threshold_hours": 4.0, "label": "4 Hour Catchment" }, "geometry": { "type": "Polygon", "coordinates": [ [ [ 70.75265143160162, 21.839582938359339 ], [ 70.709596340908291, 21.846187703218241 ], [ 69.730521628524158, 22.278149056415575 ], [ 68.884874473925763, 23.06669526511719 ], [ 68.640680862638945, 23.321906549359458 ], [ 68.46934905729313, 23.604153244100452 ], [ 68.448457721559819, 23.685322625230036 ], [ 68.464803364727203, 23.73283716901885 ], [ 68.510282782597585, 23.759884245310047 ], [ 71.622094068349242, 24.39033882681133 ], [ 71.653331555207799, 24.387809507655284 ], [ 72.06489711483043, 24.27693045376779 ], [ 72.097507978790958, 24.259648560859407 ], [ 72.120102215033114, 24.223958545534526 ], [ 72.215718035436169, 23.867561095578292 ], [ 72.420500390487504, 23.027205634447075 ], [ 72.413719707602411, 22.977595221329231 ], [ 71.779531175570654, 22.362013345483398 ], [ 71.244232041534119, 21.90288614577835 ], [ 71.206012881084433, 21.88874378963289 ], [ 70.75265143160162, 21.839582938359339 ] ] ] } },
{ "type": "Feature", "properties": { "hub_name": "Deendayal Port (Kandla)", "hub_type": "major_port", "time_threshold_hours": 8.0, "label": "8 Hour Catchment" }, "geometry": { "type": "Polygon", "coordinates": [ [ [ 70.977347781659532, 20.640773688668517 ], [ 70.926444527622422, 20.644171909370513 ], [ 70.386688453815864, 20.824564879581267 ], [ 70.298508689578554, 20.882987848810863 ], [ 70.027045242443094, 21.096368155644278 ], [ 69.892859365189864, 21.2138000134848 ], [ 69.039053093710535, 22.042613942577365 ], [ 68.90345384867426, 22.198045581069135 ], [ 68.884494968630605, 22.236434051295081 ], [ 68.465550489337431, 23.61385796711922 ], [ 68.449109321438542, 23.678353534510531 ], [ 68.45141473306623, 23.708186795562074 ], [ 68.477976503874373, 23.745332346104629 ], [ 71.498190031958245, 25.933844598003745 ], [ 72.384551106803357, 26.5181583647663 ], [ 72.695523427831702, 26.647754165702779 ], [ 72.752146579721341, 26.647193546203308 ], [ 72.79038409694428, 26.620180701618342 ], [ 73.046843476201886, 26.283662513288821 ], [ 73.882419416479777, 24.943812585908052 ], [ 74.043719283561785, 24.644878678826831 ], [ 74.047849903863238, 24.608036693961701 ], [ 73.902654430654636, 23.737866335720273 ], [ 73.263604310310399, 22.071943566024672 ], [ 73.115337376230713, 21.79673495659031 ], [ 71.770287127866041, 20.995431351028028 ], [ 71.012381338411487, 20.648488632492995 ], [ 70.977347781659532, 20.640773688668517 ] ] ] } },
{ "type": "Feature", "properties": { "hub_name": "Mumbai Port", "hub_type": "major_port", "time_threshold_hours": 1.0, "label": "1 Hour Catchment" }, "geometry": { "type": "Polygon", "coordinates": [ [ [ 72.941438562889743, 19.023901031341598 ], [ 72.903886577390821, 18.979801081931445 ], [ 72.876028416160921, 18.970223659134881 ], [ 72.84643077169585, 18.97132798713821 ], [ 72.819310870508815, 18.982957942287747 ], [ 72.793120234971141, 19.011748073198412 ], [ 72.782083969712829, 19.038792823330787 ], [ 72.782920171195258, 19.06779320395411 ], [ 72.795505606670503, 19.094223175198071 ], [ 72.817880993177852, 19.113954988835893 ], [ 72.856603497261176, 19.126232543301864 ], [ 72.886546578657217, 19.124767382574937 ], [ 72.913644808240932, 19.112573986943666 ], [ 72.937176501368469, 19.085674126709407 ], [ 72.945712478782482, 19.053228329922824 ], [ 72.941438562889743, 19.023901031341598 ] ] ] } },
{ "type": "Feature", "properties": { "hub_name": "Mumbai Port", "hub_type": "major_port", "time_threshold_hours": 2.0, "label": "2 Hour Catchment" }, "geometry": { "type": "Polygon", "coordinates": [ [ [ 72.941438562889743, 19.023901031341598 ], [ 72.903886577390821, 18.979801081931445 ], [ 72.876028416160921, 18.970223659134881 ], [ 72.84643077169585, 18.97132798713821 ], [ 72.819310870508815, 18.982957942287747 ], [ 72.793120234971141, 19.011748073198412 ], [ 72.782083969712829, 19.038792823330787 ], [ 72.782920171195258, 19.06779320395411 ], [ 72.795505606670503, 19.094223175198071 ], [ 72.817880993177852, 19.113954988835893 ], [ 72.856603497261176, 19.126232543301864 ], [ 72.886546578657217, 19.124767382574937 ], [ 72.913644808240932, 19.112573986943666 ], [ 72.937176501368469, 19.085674126709407 ], [ 72.945712478782482, 19.053228329922824 ], [ 72.941438562889743, 19.023901031341598 ] ] ] } },
{ "type": "Feature", "properties": { "hub_name": "Mumbai Port", "hub_type": "major_port", "time_threshold_hours": 4.0, "label": "4 Hour Catchment" }, "geometry": { "type": "Polygon", "coordinates": [ [ [ 72.941438562889743, 19.023901031341598 ], [ 72.903886577390821, 18.979801081931445 ], [ 72.876028416160921, 18.970223659134881 ], [ 72.84643077169585, 18.97132798713821 ], [ 72.819310870508815, 18.982957942287747 ], [ 72.793120234971141, 19.011748073198412 ], [ 72.782083969712829, 19.038792823330787 ], [ 72.782920171195258, 19.06779320395411 ], [ 72.795505606670503, 19.094223175198071 ], [ 72.817880993177852, 19.113954988835893 ], [ 72.856603497261176, 19.126232543301864 ], [ 72.886546578657217, 19.124767382574937 ], [ 72.913644808240932, 19.112573986943666 ], [ 72.937176501368469, 19.085674126709407 ], [ 72.945712478782482, 19.053228329922824 ], [ 72.941438562889743, 19.023901031341598 ] ] ] } },
{ "type": "Feature", "properties": { "hub_name": "Mumbai Port", "hub_type": "major_port", "time_threshold_hours": 8.0, "label": "8 Hour Catchment" }, "geometry": { "type": "Polygon", "coordinates": [ [ [ 72.941438562889743, 19.023901031341598 ], [ 72.903886577390821, 18.979801081931445 ], [ 72.876028416160921, 18.970223659134881 ], [ 72.84643077169585, 18.97132798713821 ], [ 72.819310870508815, 18.982957942287747 ], [ 72.793120234971141, 19.011748073198412 ], [ 72.782083969712829, 19.038792823330787 ], [ 72.782920171195258, 19.06779320395411 ], [ 72.795505606670503, 19.094223175198071 ], [ 72.817880993177852, 19.113954988835893 ], [ 72.856603497261176, 19.126232543301864 ], [ 72.886546578657217, 19.124767382574937 ], [ 72.913644808240932, 19.112573986943666 ], [ 72.937176501368469, 19.085674126709407 ], [ 72.945712478782482, 19.053228329922824 ], [ 72.941438562889743, 19.023901031341598 ] ] ] } },
{ "type": "Feature", "properties": { "hub_name": "Jawaharlal Nehru Port (JNPT/Navi Mumbai)", "hub_type": "major_port", "time_threshold_hours": 1.0, "label": "1 Hour Catchment" }, "geometry": { "type": "Polygon", "coordinates": [ [ [ 73.005388242546402, 18.990310289524455 ], [ 73.033065071593981, 18.940687423091951 ], [ 73.030388028804268, 18.905452309793905 ], [ 73.015857073177344, 18.880692406767558 ], [ 72.985747727151207, 18.860046543556642 ], [ 72.948999862368254, 18.855167838719844 ], [ 72.920528555413739, 18.863508637910481 ], [ 72.888924729606359, 18.891392321314811 ], [ 72.874670591835198, 18.9166348363763 ], [ 72.87165224242915, 18.945148876378568 ], [ 72.880336365738088, 18.972591457927074 ], [ 72.920474843056908, 19.007848456868512 ], [ 72.950517016899553, 19.013192431527834 ], [ 72.980383876264654, 19.00702355845884 ], [ 73.005388242546402, 18.990310289524455 ] ] ] } },
{ "type": "Feature", "properties": { "hub_name": "Jawaharlal Nehru Port (JNPT/Navi Mumbai)", "hub_type": "major_port", "time_threshold_hours": 2.0, "label": "2 Hour Catchment" }, "geometry": { "type": "Polygon", "coordinates": [ [ [ 73.005388242546402, 18.990310289524455 ], [ 73.033065071593981, 18.940687423091951 ], [ 73.030388028804268, 18.905452309793905 ], [ 73.015857073177344, 18.880692406767558 ], [ 72.985747727151207, 18.860046543556642 ], [ 72.948999862368254, 18.855167838719844 ], [ 72.920528555413739, 18.863508637910481 ], [ 72.888924729606359, 18.891392321314811 ], [ 72.874670591835198, 18.9166348363763 ], [ 72.87165224242915, 18.945148876378568 ], [ 72.880336365738088, 18.972591457927074 ], [ 72.920474843056908, 19.007848456868512 ], [ 72.950517016899553, 19.013192431527834 ], [ 72.980383876264654, 19.00702355845884 ], [ 73.005388242546402, 18.990310289524455 ] ] ] } },
{ "type": "Feature", "properties": { "hub_name": "Jawaharlal Nehru Port (JNPT/Navi Mumbai)", "hub_type": "major_port", "time_threshold_hours": 4.0, "label": "4 Hour Catchment" }, "geometry": { "type": "Polygon", "coordinates": [ [ [ 73.005388242546402, 18.990310289524455 ], [ 73.033065071593981, 18.940687423091951 ], [ 73.030388028804268, 18.905452309793905 ], [ 73.015857073177344, 18.880692406767558 ], [ 72.985747727151207, 18.860046543556642 ], [ 72.948999862368254, 18.855167838719844 ], [ 72.920528555413739, 18.863508637910481 ], [ 72.888924729606359, 18.891392321314811 ], [ 72.874670591835198, 18.9166348363763 ], [ 72.87165224242915, 18.945148876378568 ], [ 72.880336365738088, 18.972591457927074 ], [ 72.920474843056908, 19.007848456868512 ], [ 72.950517016899553, 19.013192431527834 ], [ 72.980383876264654, 19.00702355845884 ], [ 73.005388242546402, 18.990310289524455 ] ] ] } },
{ "type": "Feature", "properties": { "hub_name": "Jawaharlal Nehru Port (JNPT/Navi Mumbai)", "hub_type": "major_port", "time_threshold_hours": 8.0, "label": "8 Hour Catchment" }, "geometry": { "type": "Polygon", "coordinates": [ [ [ 73.005388242546402, 18.990310289524455 ], [ 73.033065071593981, 18.940687423091951 ], [ 73.030388028804268, 18.905452309793905 ], [ 73.015857073177344, 18.880692406767558 ], [ 72.985747727151207, 18.860046543556642 ], [ 72.948999862368254, 18.855167838719844 ], [ 72.920528555413739, 18.863508637910481 ], [ 72.888924729606359, 18.891392321314811 ], [ 72.874670591835198, 18.9166348363763 ], [ 72.87165224242915, 18.945148876378568 ], [ 72.880336365738088, 18.972591457927074 ], [ 72.920474843056908, 19.007848456868512 ], [ 72.950517016899553, 19.013192431527834 ], [ 72.980383876264654, 19.00702355845884 ], [ 73.005388242546402, 18.990310289524455 ] ] ] } },
{ "type": "Feature", "properties": { "hub_name": "Mormugao Port", "hub_type": "major_port", "time_threshold_hours": 1.0, "label": "1 Hour Catchment" }, "geometry": { "type": "Polygon", "coordinates": [ [ [ 74.090359025056117, 15.009266728655243 ], [ 74.071074142256123, 14.987800261284118 ], [ 74.037592151614376, 14.973645058393007 ], [ 74.001203870963451, 14.976540033287831 ], [ 73.970533979667024, 14.995799374738359 ], [ 73.738422698367643, 15.359021644051126 ], [ 73.732716433792845, 15.40012693903557 ], [ 73.745097975953655, 15.432657259996386 ], [ 73.865123152787262, 15.550747628082712 ], [ 73.889806065154872, 15.566628179780038 ], [ 73.926342312725069, 15.571618651935385 ], [ 73.989074600114392, 15.556350011601783 ], [ 74.256204087211387, 15.432958100857512 ], [ 74.288069956180976, 15.395500679520103 ], [ 74.292583884163079, 15.367731304538045 ], [ 74.285937160150297, 15.340370509382435 ], [ 74.090359025056117, 15.009266728655243 ] ] ] } },
{ "type": "Feature", "properties": { "hub_name": "Mormugao Port", "hub_type": "major_port", "time_threshold_hours": 2.0, "label": "2 Hour Catchment" }, "geometry": { "type": "Polygon", "coordinates": [ [ [ 74.370805418621742, 14.676331451872127 ], [ 74.338123992207358, 14.638738596638538 ], [ 74.310376404252636, 14.62959592854795 ], [ 74.281151334082296, 14.631531162249271 ], [ 74.102304624485726, 14.716744496806895 ], [ 74.057983502271398, 14.75619223531265 ], [ 73.734605412128374, 15.372414083269929 ], [ 73.733877499705997, 15.407035219135741 ], [ 73.749418190897032, 15.438264457953842 ], [ 73.884120844243157, 15.564105243081185 ], [ 73.914250615903669, 15.571938595621511 ], [ 74.503148874813959, 15.599838127318543 ], [ 74.546656680850504, 15.578428062144159 ], [ 74.645044303820825, 15.457984406272018 ], [ 74.653342151688548, 15.431906447625295 ], [ 74.649003187246493, 15.398169344946474 ], [ 74.370805418621742, 14.676331451872127 ] ] ] } },
{ "type": "Feature", "properties": { "hub_name": "Mormugao Port", "hub_type": "major_port", "time_threshold_hours": 4.0, "label": "4 Hour Catchment" }, "geometry": { "type": "Polygon", "coordinates": [ [ [ 74.690764094134295, 13.742690373678682 ], [ 74.666171033336312, 13.727981918510109 ], [ 74.630480512344292, 13.724137435232006 ], [ 74.597112581490421, 13.73710472141145 ], [ 74.575011860813376, 13.761378683567802 ], [ 73.741777319724321, 15.351732146519121 ], [ 73.733372392782485, 15.37920329614694 ], [ 73.738013183572249, 15.419904327817266 ], [ 74.246537621605157, 16.594453096724063 ], [ 74.27292264787215, 16.625972412438689 ], [ 74.308301989502681, 16.638811593066379 ], [ 74.687972497675489, 16.638336535095835 ], [ 74.737193757378179, 16.620596862147295 ], [ 75.655198301014039, 15.464453910669999 ], [ 75.669414697605902, 15.432940159749934 ], [ 75.661950425621569, 15.386324190430566 ], [ 75.371301750766378, 14.845849666411741 ], [ 74.690764094134295, 13.742690373678682 ] ] ] } },
{ "type": "Feature", "properties": { "hub_name": "Mormugao Port", "hub_type": "major_port", "time_threshold_hours": 8.0, "label": "8 Hour Catchment" }, "geometry": { "type": "Polygon", "coordinates": [ [ [ 75.735151113336656, 12.361735033957114 ], [ 75.709187275108164, 12.348847761560549 ], [ 75.680173846816018, 12.346860813950578 ], [ 74.983189687491588, 12.434324736095249 ], [ 74.942740133636505, 12.450614705508011 ], [ 74.907537046685107, 12.488022732063209 ], [ 73.738837407538881, 15.357992711864329 ], [ 73.199549923819276, 16.975253656861472 ], [ 73.197603748261884, 17.01247086184209 ], [ 73.536133232153119, 18.546080037810452 ], [ 73.668793532657702, 18.710951161739118 ], [ 73.70728672610862, 18.735327691666953 ], [ 74.638437898650068, 18.711611524983677 ], [ 76.065775065929145, 18.021119421079735 ], [ 76.088033936391128, 18.004619963563723 ], [ 76.849948042414937, 17.178340490149413 ], [ 76.890152464620172, 17.094928803575595 ], [ 77.250221304458634, 13.65435980220783 ], [ 77.099982870795529, 13.4049985198898 ], [ 75.735151113336656, 12.361735033957114 ] ] ] } },
{ "type": "Feature", "properties": { "hub_name": "New Mangalore Port", "hub_type": "major_port", "time_threshold_hours": 1.0, "label": "1 Hour Catchment" }, "geometry": { "type": "Polygon", "coordinates": [ [ [ 74.997878541411779, 12.433970578354359 ], [ 74.948446128417075, 12.446893559421174 ], [ 74.904289996859774, 12.494047590044964 ], [ 74.789555250577493, 12.765376233484135 ], [ 74.721709708978025, 12.989519554313789 ], [ 74.672351476258783, 13.223099255272526 ], [ 74.660148352484512, 13.442778706475146 ], [ 74.675867881489083, 13.488545533343363 ], [ 74.71747193798592, 13.51451337127018 ], [ 74.752134341628022, 13.514338097485476 ], [ 74.783124814714881, 13.49992110461679 ], [ 74.900510760297564, 13.400070426727192 ], [ 75.277378924366801, 13.015080442695945 ], [ 75.382185684285204, 12.896147354485443 ], [ 75.398221112698138, 12.865100145165844 ], [ 75.392649144671836, 12.81714893910719 ], [ 75.289310800415294, 12.654453504833739 ], [ 75.090821458920217, 12.454418810397659 ], [ 75.056672431857606, 12.438715365069713 ], [ 74.997878541411779, 12.433970578354359 ] ] ] } },
{ "type": "Feature", "properties": { "hub_name": "New Mangalore Port", "hub_type": "major_port", "time_threshold_hours": 2.0, "label": "2 Hour Catchment" }, "geometry": { "type": "Polygon", "coordinates": [ [ [ 75.662619694722082, 12.450842327820734 ], [ 75.637143932060283, 12.415753939164528 ], [ 75.588472344064797, 12.401191952405696 ], [ 74.98122207688256, 12.434593297667606 ], [ 74.942740133636505, 12.450614705508011 ], [ 74.91134673232574, 12.482325096837622 ], [ 74.789555250577493, 12.765376233484135 ], [ 74.720677188563343, 12.99357474270875 ], [ 74.507263075384984, 13.94278252825484 ], [ 74.510429110270906, 13.984419960411996 ], [ 74.536551826544837, 14.017480178606553 ], [ 74.577008162712545, 14.031031370775592 ], [ 74.612063543125558, 14.023946468711998 ], [ 75.197876864233564, 13.674966601528668 ], [ 75.796504061114177, 12.935941015455926 ], [ 75.807005698833336, 12.909513581410391 ], [ 75.806353493125656, 12.881159144252825 ], [ 75.662619694722082, 12.450842327820734 ] ] ] } },
{ "type": "Feature", "properties": { "hub_name": "New Mangalore Port", "hub_type": "major_port", "time_threshold_hours": 4.0, "label": "4 Hour Catchment" }, "geometry": { "type": "Polygon", "coordinates": [ [ [ 76.30270250971391, 12.235993504162851 ], [ 76.217703591300449, 12.243288054733897 ], [ 74.981163261634237, 12.43460214594268 ], [ 74.948446128417075, 12.446893559421174 ], [ 74.921594611364299, 12.469190970580668 ], [ 74.893809877712286, 12.516068640692149 ], [ 74.789069466715588, 12.766702563487796 ], [ 74.099543463675417, 14.746233534456616 ], [ 74.097619620653134, 14.787109246103588 ], [ 74.118932411498037, 14.822851302290781 ], [ 74.163928250991788, 14.842480588030716 ], [ 74.24359104541081, 14.833570107160565 ], [ 74.494782694719362, 14.754648624579151 ], [ 74.809902488375656, 14.636374783199036 ], [ 75.889497752942304, 14.006941961728288 ], [ 76.136184678901728, 13.78321174996884 ], [ 76.80389371430077, 13.009238268720297 ], [ 76.819697877187579, 12.977227587016252 ], [ 76.817357139926372, 12.939392803252947 ], [ 76.516614191102391, 12.30035133330647 ], [ 76.498663969898089, 12.279960180860607 ], [ 76.474366127806562, 12.267457482092327 ], [ 76.30270250971391, 12.235993504162851 ] ] ] } },
{ "type": "Feature", "properties": { "hub_name": "New Mangalore Port", "hub_type": "major_port", "time_threshold_hours": 8.0, "label": "8 Hour Catchment" }, "geometry": { "type": "Polygon", "coordinates": [ [ [ 78.165142011148788, 12.042650692482336 ], [ 78.113805095834593, 12.029805513185718 ], [ 76.219898233461038, 12.242981979829061 ], [ 74.981163261634237, 12.43460214594268 ], [ 74.942740133636505, 12.450614705508011 ], [ 74.904289996859774, 12.494047590044964 ], [ 74.797280633163155, 12.745571859283569 ], [ 73.738837407538881, 15.357992711864329 ], [ 73.732886904921983, 15.401466179117463 ], [ 73.747248824534509, 15.435589165449201 ], [ 74.460980450561451, 16.181119416918229 ], [ 74.485200567614115, 16.197897392433525 ], [ 75.613018004054894, 16.334652015655013 ], [ 75.644064259013874, 16.331960046623703 ], [ 75.671349349543107, 16.317409821792104 ], [ 78.196179369044543, 14.163062942949949 ], [ 78.932666947193368, 13.226137219108226 ], [ 78.943301705366409, 13.190693358967964 ], [ 78.936298240809037, 13.15773775442228 ], [ 78.528022464051631, 12.303324648136709 ], [ 78.50743972325327, 12.281501317675209 ], [ 78.165142011148788, 12.042650692482336 ] ] ] } },
{ "type": "Feature", "properties": { "hub_name": "Cochin Port", "hub_type": "major_port", "time_threshold_hours": 1.0, "label": "1 Hour Catchment" }, "geometry": { "type": "Polygon", "coordinates": [ [ [ 76.389332288940565, 9.570334351160389 ], [ 76.362381558104019, 9.547048982222488 ], [ 76.320289262674748, 9.540076144358459 ], [ 76.287183623092361, 9.553411465130798 ], [ 76.264591305231662, 9.580889793320031 ], [ 76.098464441304941, 10.273569167398406 ], [ 76.10870794957961, 10.317958447291341 ], [ 76.140158742470234, 10.346225302517663 ], [ 76.323232113727869, 10.390796029798166 ], [ 76.350450060194561, 10.386950649942458 ], [ 76.379260448684164, 10.368619483691816 ], [ 76.661439916759889, 10.074547349621451 ], [ 76.681186793683864, 10.029007935200701 ], [ 76.662877725657154, 9.962910607571535 ], [ 76.389332288940565, 9.570334351160389 ] ] ] } },
{ "type": "Feature", "properties": { "hub_name": "Cochin Port", "hub_type": "major_port", "time_threshold_hours": 2.0, "label": "2 Hour Catchment" }, "geometry": { "type": "Polygon", "coordinates": [ [ [ 76.370881840530998, 9.552042502551556 ], [ 76.34540499349626, 9.541076891450734 ], [ 76.310830168733105, 9.542000226859448 ], [ 76.28066597932397, 9.558803010005748 ], [ 76.264453940724323, 9.581185700808238 ], [ 75.859451647385853, 10.736640137971962 ], [ 75.855817337387705, 10.76797735738235 ], [ 75.865398646361839, 10.799096653846918 ], [ 75.897512554983507, 10.838068584815028 ], [ 75.921661219345694, 10.85304809783919 ], [ 75.963986057722352, 10.855855802688136 ], [ 76.56470122567103, 10.716057775129512 ], [ 76.590794809522436, 10.704145702062782 ], [ 76.610171842907818, 10.683158494953167 ], [ 76.996481968523369, 10.041558085365482 ], [ 76.997973092379056, 9.99893993159054 ], [ 76.974783492774449, 9.963030749065034 ], [ 76.370881840530998, 9.552042502551556 ] ] ] } },
{ "type": "Feature", "properties": { "hub_name": "Cochin Port", "hub_type": "major_port", "time_threshold_hours": 4.0, "label": "4 Hour Catchment" }, "geometry": { "type": "Polygon", "coordinates": [ [ [ 77.155380834067799, 9.484988731560557 ], [ 77.132100043005494, 9.469818998013503 ], [ 77.097772838781154, 9.464901928543092 ], [ 76.323213405681344, 9.539741777421442 ], [ 76.291042482283842, 9.55077189421559 ], [ 76.271265540418298, 9.569487347939473 ], [ 75.857183234805689, 10.744481157492983 ], [ 75.857378154443595, 11.070711188507447 ], [ 75.865698115413181, 11.097427788555466 ], [ 75.883701888209231, 11.118998148221531 ], [ 75.915580043372131, 11.133875081316306 ], [ 76.945276248757736, 11.33262631760577 ], [ 77.325364636600227, 11.269452120756073 ], [ 77.37073148569165, 11.2421052317447 ], [ 77.53555407953759, 11.02750388151158 ], [ 77.549690974371103, 10.99355105416933 ], [ 77.578548108905991, 9.997735903685269 ], [ 77.563043736193521, 9.960151057490444 ], [ 77.309688286306525, 9.645888551971613 ], [ 77.155380834067799, 9.484988731560557 ] ] ] } },
{ "type": "Feature", "properties": { "hub_name": "Cochin Port", "hub_type": "major_port", "time_threshold_hours": 8.0, "label": "8 Hour Catchment" }, "geometry": { "type": "Polygon", "coordinates": [ [ [ 77.693612288639443, 8.459681759120814 ], [ 77.650916127293684, 8.449761663765784 ], [ 76.83662250593413, 8.517076299840381 ], [ 76.808835542182891, 8.53593177027482 ], [ 76.484782912662368, 8.893134607072261 ], [ 75.379289089926374, 11.775517809729633 ], [ 75.374483964940652, 11.803346762326029 ], [ 75.388050635362319, 11.843170072254418 ], [ 75.415600481496227, 11.866164025669864 ], [ 76.570094738334461, 12.416904060022754 ], [ 77.703180580058344, 12.859172444033577 ], [ 77.867820421359951, 12.902762516633494 ], [ 78.648501216106567, 12.725695903083439 ], [ 78.670043133876661, 12.70672266531194 ], [ 79.046310549500063, 12.212347190744154 ], [ 79.058879487470762, 12.185905861840681 ], [ 79.392595556774623, 10.783567950397345 ], [ 79.381369355570016, 10.749819669047788 ], [ 78.071650370924488, 8.69082429774592 ], [ 77.693612288639443, 8.459681759120814 ] ] ] } },
{ "type": "Feature", "properties": { "hub_name": "V.O. Chidambaranar Port (Tuticorin)", "hub_type": "major_port", "time_threshold_hours": 1.0, "label": "1 Hour Catchment" }, "geometry": { "type": "Polygon", "coordinates": [ [ [ 78.011382164568573, 8.287780345863885 ], [ 77.971577461030478, 8.28732984528177 ], [ 77.942444667172964, 8.30341725531018 ], [ 77.646802775213104, 8.572432703766301 ], [ 77.629897137057938, 8.595535341117261 ], [ 77.623472911392355, 8.623395104679183 ], [ 77.653471382178466, 8.797012525509288 ], [ 77.663923842896466, 8.823221725965206 ], [ 77.965037806268938, 9.235244625833278 ], [ 77.994167708455748, 9.254813536598757 ], [ 78.02208920806946, 9.258997730006399 ], [ 78.055735091935006, 9.248835228323255 ], [ 78.083808168069694, 9.217792354699347 ], [ 78.242203576575363, 8.757176931606823 ], [ 78.184760833129289, 8.466729833826891 ], [ 78.100535483805373, 8.322576806904385 ], [ 78.078228510577503, 8.308222889372781 ], [ 78.011382164568573, 8.287780345863885 ] ] ] } },
{ "type": "Feature", "properties": { "hub_name": "V.O. Chidambaranar Port (Tuticorin)", "hub_type": "major_port", "time_threshold_hours": 2.0, "label": "2 Hour Catchment" }, "geometry": { "type": "Polygon", "coordinates": [ [ [ 77.575608769872048, 8.063614857024435 ], [ 77.547478988243782, 8.058965879955839 ], [ 77.5197693369918, 8.065668713321577 ], [ 77.401941883673857, 8.151754194575348 ], [ 77.380647400129433, 8.187075465804321 ], [ 77.381072555269512, 8.223631964454187 ], [ 77.743240012546721, 9.135264928817685 ], [ 78.027205914732235, 9.823554065814024 ], [ 78.042911986683151, 9.847032572853399 ], [ 78.066534387568495, 9.862741378788554 ], [ 78.115588988100555, 9.864949722329678 ], [ 78.150532554180216, 9.841287165362846 ], [ 78.166100964588622, 9.802275512553235 ], [ 78.242032148314351, 8.761018973666873 ], [ 78.18733048373339, 8.473714665385494 ], [ 78.114926688317141, 8.34091827529528 ], [ 78.093792972731762, 8.316933696984382 ], [ 77.939069800997956, 8.226411863029881 ], [ 77.745268070258263, 8.130041364688459 ], [ 77.575608769872048, 8.063614857024435 ] ] ] } },
{ "type": "Feature", "properties": { "hub_name": "V.O. Chidambaranar Port (Tuticorin)", "hub_type": "major_port", "time_threshold_hours": 4.0, "label": "4 Hour Catchment" }, "geometry": { "type": "Polygon", "coordinates": [ [ [ 77.575746237009852, 8.020413746020452 ], [ 77.542470657515281, 8.011102795110679 ], [ 77.506857192554961, 8.019389191707008 ], [ 77.139242772747664, 8.266149771968868 ], [ 77.107597267837136, 8.302543172499339 ], [ 77.102178622506727, 8.345490497758647 ], [ 77.603958317498609, 10.023069842117541 ], [ 77.891610175928236, 10.352288274222493 ], [ 77.916880084855023, 10.367297719264892 ], [ 77.952366902803504, 10.370409929805881 ], [ 77.985060443374451, 10.356399788072382 ], [ 78.007055073016232, 10.328658239277537 ], [ 78.168982696734417, 9.825126981948062 ], [ 78.240860638211373, 8.742146440022706 ], [ 78.18733048373339, 8.473714665385494 ], [ 78.105152086956963, 8.327380172023984 ], [ 77.575746237009852, 8.020413746020452 ] ] ] } },
{ "type": "Feature", "properties": { "hub_name": "V.O. Chidambaranar Port (Tuticorin)", "hub_type": "major_port", "time_threshold_hours": 8.0, "label": "8 Hour Catchment" }, "geometry": { "type": "Polygon", "coordinates": [ [ [ 77.575746237009852, 8.020413746020452 ], [ 77.542470657515281, 8.011102795110679 ], [ 77.506857192554961, 8.019389191707008 ], [ 77.139242772747664, 8.266149771968868 ], [ 77.114392925492325, 8.290951761779136 ], [ 76.458117909093176, 9.47143663034854 ], [ 76.288203960585903, 9.934140461736124 ], [ 76.229057031962043, 10.541333169437522 ], [ 76.356189498349309, 11.017806014337761 ], [ 76.619005259631521, 11.481592977117749 ], [ 77.108333832418907, 11.730373131755774 ], [ 77.943543532539195, 11.915465945601953 ], [ 79.413956495486218, 11.874758424506718 ], [ 79.443794897576524, 11.867402508886943 ], [ 79.47885850550675, 11.831090895133286 ], [ 79.905150017772954, 10.848086979203389 ], [ 79.906449560588854, 10.694768804726321 ], [ 79.899371142452893, 10.66531605238559 ], [ 78.105152086956963, 8.327380172023984 ], [ 77.575746237009852, 8.020413746020452 ] ] ] } },
{ "type": "Feature", "properties": { "hub_name": "Chennai Port", "hub_type": "major_port", "time_threshold_hours": 1.0, "label": "1 Hour Catchment" }, "geometry": { "type": "Polygon", "coordinates": [ [ [ 80.337551763071602, 13.034742257796566 ], [ 80.314873974309748, 13.017500384510347 ], [ 80.287210693402187, 13.010026172580469 ], [ 80.258729474460964, 13.013444819990854 ], [ 80.233720549971935, 13.027241700781792 ], [ 80.215742896266633, 13.049690077468178 ], [ 80.207963894658917, 13.0773507171192 ], [ 80.2117475804055, 13.105805204351036 ], [ 80.228966712349049, 13.133784787381545 ], [ 80.255034463652038, 13.151945434495568 ], [ 80.282756459565192, 13.157889096487333 ], [ 80.31072078772722, 13.153158969743151 ], [ 80.334804226602898, 13.138452955292697 ], [ 80.351458053218707, 13.11594021395743 ], [ 80.358266435611441, 13.088897257564099 ], [ 80.354293733621219, 13.061603087408262 ], [ 80.337551763071602, 13.034742257796566 ] ] ] } },
{ "type": "Feature", "properties": { "hub_name": "Chennai Port", "hub_type": "major_port", "time_threshold_hours": 2.0, "label": "2 Hour Catchment" }, "geometry": { "type": "Polygon", "coordinates": [ [ [ 80.337551763071602, 13.034742257796566 ], [ 80.314873974309748, 13.017500384510347 ], [ 80.287210693402187, 13.010026172580469 ], [ 80.258729474460964, 13.013444819990854 ], [ 80.233720549971935, 13.027241700781792 ], [ 80.215742896266633, 13.049690077468178 ], [ 80.207963894658917, 13.0773507171192 ], [ 80.2117475804055, 13.105805204351036 ], [ 80.228966712349049, 13.133784787381545 ], [ 80.255034463652038, 13.151945434495568 ], [ 80.282756459565192, 13.157889096487333 ], [ 80.31072078772722, 13.153158969743151 ], [ 80.334804226602898, 13.138452955292697 ], [ 80.351458053218707, 13.11594021395743 ], [ 80.358266435611441, 13.088897257564099 ], [ 80.354293733621219, 13.061603087408262 ], [ 80.337551763071602, 13.034742257796566 ] ] ] } },
{ "type": "Feature", "properties": { "hub_name": "Chennai Port", "hub_type": "major_port", "time_threshold_hours": 4.0, "label": "4 Hour Catchment" }, "geometry": { "type": "Polygon", "coordinates": [ [ [ 80.337551763071602, 13.034742257796566 ], [ 80.314873974309748, 13.017500384510347 ], [ 80.287210693402187, 13.010026172580469 ], [ 80.258729474460964, 13.013444819990854 ], [ 80.233720549971935, 13.027241700781792 ], [ 80.215742896266633, 13.049690077468178 ], [ 80.207963894658917, 13.0773507171192 ], [ 80.2117475804055, 13.105805204351036 ], [ 80.228966712349049, 13.133784787381545 ], [ 80.255034463652038, 13.151945434495568 ], [ 80.282756459565192, 13.157889096487333 ], [ 80.31072078772722, 13.153158969743151 ], [ 80.334804226602898, 13.138452955292697 ], [ 80.351458053218707, 13.11594021395743 ], [ 80.358266435611441, 13.088897257564099 ], [ 80.354293733621219, 13.061603087408262 ], [ 80.337551763071602, 13.034742257796566 ] ] ] } },
{ "type": "Feature", "properties": { "hub_name": "Chennai Port", "hub_type": "major_port", "time_threshold_hours": 8.0, "label": "8 Hour Catchment" }, "geometry": { "type": "Polygon", "coordinates": [ [ [ 80.337551763071602, 13.034742257796566 ], [ 80.314873974309748, 13.017500384510347 ], [ 80.287210693402187, 13.010026172580469 ], [ 80.258729474460964, 13.013444819990854 ], [ 80.233720549971935, 13.027241700781792 ], [ 80.215742896266633, 13.049690077468178 ], [ 80.207963894658917, 13.0773507171192 ], [ 80.2117475804055, 13.105805204351036 ], [ 80.228966712349049, 13.133784787381545 ], [ 80.255034463652038, 13.151945434495568 ], [ 80.282756459565192, 13.157889096487333 ], [ 80.31072078772722, 13.153158969743151 ], [ 80.334804226602898, 13.138452955292697 ], [ 80.351458053218707, 13.11594021395743 ], [ 80.358266435611441, 13.088897257564099 ], [ 80.354293733621219, 13.061603087408262 ], [ 80.337551763071602, 13.034742257796566 ] ] ] } },
{ "type": "Feature", "properties": { "hub_name": "Kamarajar Port (Ennore)", "hub_type": "major_port", "time_threshold_hours": 1.0, "label": "1 Hour Catchment" }, "geometry": { "type": "Polygon", "coordinates": [ [ [ 80.282108032876948, 13.105903614443983 ], [ 80.242310900541924, 13.075650161425703 ], [ 80.191985168401644, 13.077390801720831 ], [ 79.703856359524877, 13.326150588464857 ], [ 79.667364799461069, 13.362424725327985 ], [ 79.660547361572142, 13.403077468347718 ], [ 79.673128910546254, 13.43528353701365 ], [ 79.952723552784093, 13.759003813342234 ], [ 79.975908660466857, 13.776863182442927 ], [ 80.004383257827996, 13.784481573784577 ], [ 80.033644889548725, 13.780653537732153 ], [ 80.059066101752862, 13.765984813328346 ], [ 80.076839697594878, 13.742355654879578 ], [ 80.166493263275086, 13.532824959032205 ], [ 80.290161304874758, 13.167561093051907 ], [ 80.292718110749902, 13.132586067852014 ], [ 80.282108032876948, 13.105903614443983 ] ] ] } },
{ "type": "Feature", "properties": { "hub_name": "Kamarajar Port (Ennore)", "hub_type": "major_port", "time_threshold_hours": 2.0, "label": "2 Hour Catchment" }, "geometry": { "type": "Polygon", "coordinates": [ [ [ 80.282108032876948, 13.105903614443983 ], [ 80.256232886519214, 13.081666698598932 ], [ 80.221781633388375, 13.072178233499821 ], [ 79.605667681978616, 13.112384981333554 ], [ 79.280704863728616, 13.201033377430205 ], [ 79.25600930325399, 13.216532700829275 ], [ 79.237276052893577, 13.245616138918416 ], [ 79.249982068399405, 13.615091691805329 ], [ 79.259876060596937, 13.648023145985125 ], [ 79.83008927252952, 14.288102052503353 ], [ 79.86309345051383, 14.309506878945704 ], [ 79.892488414858718, 14.312912181717637 ], [ 79.920924259314745, 14.304892946442331 ], [ 79.943915199022442, 14.28671504822414 ], [ 79.957837670734804, 14.261246885747534 ], [ 80.290782360943382, 13.165605710263073 ], [ 80.292552677901696, 13.131690520688053 ], [ 80.282108032876948, 13.105903614443983 ] ] ] } },
{ "type": "Feature", "properties": { "hub_name": "Kamarajar Port (Ennore)", "hub_type": "major_port", "time_threshold_hours": 4.0, "label": "4 Hour Catchment" }, "geometry": { "type": "Polygon", "coordinates": [ [ [ 79.504624669780839, 12.824093156207285 ], [ 79.286940863078101, 12.839937777865584 ], [ 78.512302072164061, 12.984403200725215 ], [ 78.470894087574436, 13.014980754358643 ], [ 78.390527281213011, 13.171813841026657 ], [ 78.325635253548256, 13.708266605364537 ], [ 78.654873774983088, 14.584063453926378 ], [ 78.670814368572792, 14.608975648107673 ], [ 78.695570358846766, 14.625726730763446 ], [ 78.781510524919241, 14.651883832896477 ], [ 79.200428449827584, 14.737594607019592 ], [ 79.335240206514513, 14.753349384025318 ], [ 80.00574834232205, 14.457372457403098 ], [ 80.163403985242979, 14.312372169594155 ], [ 80.180443136845867, 14.288198938236935 ], [ 80.293495903920274, 13.151824663803966 ], [ 80.285807790165052, 13.112238028918227 ], [ 80.2684457606872, 13.090211706136547 ], [ 80.244317415097811, 13.076316192356181 ], [ 79.540450732142375, 12.829541137250004 ], [ 79.504624669780839, 12.824093156207285 ] ] ] } },
{ "type": "Feature", "properties": { "hub_name": "Kamarajar Port (Ennore)", "hub_type": "major_port", "time_threshold_hours": 8.0, "label": "8 Hour Catchment" }, "geometry": { "type": "Polygon", "coordinates": [ [ [ 79.512979910727609, 11.129577551655238 ], [ 79.483361795375629, 11.109866718539838 ], [ 79.447821243449667, 11.106412916121009 ], [ 78.899945122988143, 11.242128481705794 ], [ 77.724623261142227, 11.593737408148211 ], [ 76.617783147355297, 12.488539756381767 ], [ 76.279234655510137, 12.901164425696958 ], [ 76.26263064552208, 12.94403956534334 ], [ 76.847704714703895, 15.16487241000436 ], [ 76.861139592860567, 15.191292252111683 ], [ 77.976739352938878, 15.933637432502897 ], [ 79.388547019823534, 16.526150246857839 ], [ 79.418667313997048, 16.532049952753791 ], [ 80.374986100619012, 16.33509723761901 ], [ 80.410982299176524, 16.310983201128337 ], [ 80.42743490336737, 16.264499061455332 ], [ 80.422023005443393, 15.869064515515269 ], [ 80.293037719632423, 13.134537044090182 ], [ 80.074778875588436, 12.2772510325225 ], [ 79.779366401459527, 11.431203136327548 ], [ 79.764591793785343, 11.406393359106325 ], [ 79.512979910727609, 11.129577551655238 ] ] ] } },
{ "type": "Feature", "properties": { "hub_name": "Visakhapatnam Port", "hub_type": "major_port", "time_threshold_hours": 1.0, "label": "1 Hour Catchment" }, "geometry": { "type": "Polygon", "coordinates": [ [ [ 83.304017265785134, 17.710890545307638 ], [ 83.286300415700268, 17.688230908481028 ], [ 83.260949174219974, 17.673697713910357 ], [ 83.231745502059766, 17.669457374555957 ], [ 83.203043332627303, 17.676141827389973 ], [ 83.179122166664698, 17.692754857704838 ], [ 83.163551524976612, 17.7168197922575 ], [ 83.15865919357131, 17.744747113565627 ], [ 83.16556929745694, 17.773258245438949 ], [ 83.183696905225631, 17.79708577961139 ], [ 83.209352249351724, 17.811898159115319 ], [ 83.238981035940469, 17.816134896461286 ], [ 83.268035588290999, 17.809145451417255 ], [ 83.292056761886641, 17.792002997160118 ], [ 83.307360991578435, 17.767338795861061 ], [ 83.311606020333912, 17.738936596219958 ], [ 83.304017265785134, 17.710890545307638 ] ] ] } },
{ "type": "Feature", "properties": { "hub_name": "Visakhapatnam Port", "hub_type": "major_port", "time_threshold_hours": 2.0, "label": "2 Hour Catchment" }, "geometry": { "type": "Polygon", "coordinates": [ [ [ 83.304017265785134, 17.710890545307638 ], [ 83.286300415700268, 17.688230908481028 ], [ 83.260949174219974, 17.673697713910357 ], [ 83.231745502059766, 17.669457374555957 ], [ 83.203043332627303, 17.676141827389973 ], [ 83.179122166664698, 17.692754857704838 ], [ 83.163551524976612, 17.7168197922575 ], [ 83.15865919357131, 17.744747113565627 ], [ 83.16556929745694, 17.773258245438949 ], [ 83.183696905225631, 17.79708577961139 ], [ 83.209352249351724, 17.811898159115319 ], [ 83.238981035940469, 17.816134896461286 ], [ 83.268035588290999, 17.809145451417255 ], [ 83.292056761886641, 17.792002997160118 ], [ 83.307360991578435, 17.767338795861061 ], [ 83.311606020333912, 17.738936596219958 ], [ 83.304017265785134, 17.710890545307638 ] ] ] } },
{ "type": "Feature", "properties": { "hub_name": "Visakhapatnam Port", "hub_type": "major_port", "time_threshold_hours": 4.0, "label": "4 Hour Catchment" }, "geometry": { "type": "Polygon", "coordinates": [ [ [ 83.304017265785134, 17.710890545307638 ], [ 83.286300415700268, 17.688230908481028 ], [ 83.260949174219974, 17.673697713910357 ], [ 83.231745502059766, 17.669457374555957 ], [ 83.203043332627303, 17.676141827389973 ], [ 83.179122166664698, 17.692754857704838 ], [ 83.163551524976612, 17.7168197922575 ], [ 83.15865919357131, 17.744747113565627 ], [ 83.16556929745694, 17.773258245438949 ], [ 83.183696905225631, 17.79708577961139 ], [ 83.209352249351724, 17.811898159115319 ], [ 83.238981035940469, 17.816134896461286 ], [ 83.268035588290999, 17.809145451417255 ], [ 83.292056761886641, 17.792002997160118 ], [ 83.307360991578435, 17.767338795861061 ], [ 83.311606020333912, 17.738936596219958 ], [ 83.304017265785134, 17.710890545307638 ] ] ] } },
{ "type": "Feature", "properties": { "hub_name": "Visakhapatnam Port", "hub_type": "major_port", "time_threshold_hours": 8.0, "label": "8 Hour Catchment" }, "geometry": { "type": "Polygon", "coordinates": [ [ [ 83.304017265785134, 17.710890545307638 ], [ 83.286300415700268, 17.688230908481028 ], [ 83.260949174219974, 17.673697713910357 ], [ 83.231745502059766, 17.669457374555957 ], [ 83.203043332627303, 17.676141827389973 ], [ 83.179122166664698, 17.692754857704838 ], [ 83.163551524976612, 17.7168197922575 ], [ 83.15865919357131, 17.744747113565627 ], [ 83.16556929745694, 17.773258245438949 ], [ 83.183696905225631, 17.79708577961139 ], [ 83.209352249351724, 17.811898159115319 ], [ 83.238981035940469, 17.816134896461286 ], [ 83.268035588290999, 17.809145451417255 ], [ 83.292056761886641, 17.792002997160118 ], [ 83.307360991578435, 17.767338795861061 ], [ 83.311606020333912, 17.738936596219958 ], [ 83.304017265785134, 17.710890545307638 ] ] ] } },
{ "type": "Feature", "properties": { "hub_name": "Paradip Port", "hub_type": "major_port", "time_threshold_hours": 1.0, "label": "1 Hour Catchment" }, "geometry": { "type": "Polygon", "coordinates": [ [ [ 86.690366444371762, 20.20029841997809 ], [ 86.654429376320678, 20.195659573743725 ], [ 86.626504928760539, 20.203436209091787 ], [ 86.436990208623484, 20.324293461986066 ], [ 86.144483143269085, 20.584246331190414 ], [ 86.12989382007629, 20.631643872337111 ], [ 86.145515549546943, 20.671541221487665 ], [ 86.174921608066683, 20.693922545205172 ], [ 86.212056140444972, 20.700687259352986 ], [ 86.304824575089128, 20.670795909447079 ], [ 86.692643496605925, 20.35892806993062 ], [ 86.721283425590585, 20.322619994750159 ], [ 86.740095214006189, 20.266226841901247 ], [ 86.725721528287977, 20.226259881194977 ], [ 86.690366444371762, 20.20029841997809 ] ] ] } },
{ "type": "Feature", "properties": { "hub_name": "Paradip Port", "hub_type": "major_port", "time_threshold_hours": 2.0, "label": "2 Hour Catchment" }, "geometry": { "type": "Polygon", "coordinates": [ [ [ 86.690366444371762, 20.20029841997809 ], [ 86.656365123178048, 20.195501095580443 ], [ 85.877043501477786, 20.248018032554548 ], [ 85.846515135156238, 20.256092707971977 ], [ 85.82191533000703, 20.274971586560607 ], [ 85.683959187951388, 20.522157573539225 ], [ 85.675195401056186, 20.558441677593162 ], [ 85.775447661027542, 20.954508272498256 ], [ 85.894157787960509, 21.151727447531723 ], [ 85.944046674577351, 21.172493564780307 ], [ 86.12795126386159, 21.164829920992606 ], [ 86.457287086640378, 21.071938071644265 ], [ 86.497165137231406, 21.045804345728413 ], [ 86.738827399113333, 20.282362462567431 ], [ 86.730303668467471, 20.233110797615161 ], [ 86.690366444371762, 20.20029841997809 ] ] ] } },
{ "type": "Feature", "properties": { "hub_name": "Paradip Port", "hub_type": "major_port", "time_threshold_hours": 4.0, "label": "4 Hour Catchment" }, "geometry": { "type": "Polygon", "coordinates": [ [ [ 85.095428938603334, 19.472902711581462 ], [ 85.045335331009511, 19.485903983099725 ], [ 85.015136657384573, 19.525982657860197 ], [ 84.587288576472247, 20.936734847709207 ], [ 84.584664271710238, 20.96435255726557 ], [ 84.601165541295046, 21.002614198254097 ], [ 85.490176928376201, 22.047508264412645 ], [ 85.522243233031631, 22.069769902227979 ], [ 85.638178114389234, 22.097594584074233 ], [ 86.73334967203165, 22.041741886087525 ], [ 87.271539148225344, 21.92755460693429 ], [ 87.307934368893015, 21.909359018962281 ], [ 87.325713318697012, 21.886110300046752 ], [ 87.332671084675212, 21.85829669919525 ], [ 87.318108018199936, 21.774463556580749 ], [ 86.73565363735382, 20.244279300348538 ], [ 86.720641193100505, 20.220215421427895 ], [ 86.147886167485581, 19.800903102298449 ], [ 85.095428938603334, 19.472902711581462 ] ] ] } },
{ "type": "Feature", "properties": { "hub_name": "Paradip Port", "hub_type": "major_port", "time_threshold_hours": 8.0, "label": "8 Hour Catchment" }, "geometry": { "type": "Polygon", "coordinates": [ [ [ 83.561895997035222, 17.994556947012715 ], [ 83.526986480448599, 17.982548821896366 ], [ 83.49027324919885, 17.987631746597586 ], [ 83.460672966324708, 18.008215353698503 ], [ 83.444627690265179, 18.038560596000945 ], [ 82.867142330697135, 20.316026781334653 ], [ 82.699305347457368, 21.264888897086163 ], [ 82.703963518696199, 21.294822467323453 ], [ 82.719488186718195, 21.318934210386658 ], [ 83.318820858450295, 21.935694122838818 ], [ 85.104011339993093, 23.494325071796929 ], [ 86.426984675042192, 23.874878437461337 ], [ 87.310534325509735, 23.814229358204081 ], [ 88.874812939655015, 23.232570949004963 ], [ 88.901072882329032, 23.216371877230987 ], [ 88.921063924281938, 23.185083861181887 ], [ 88.963659993076035, 23.044273640735952 ], [ 88.927631200806445, 22.906509658347908 ], [ 88.260568006072219, 21.814159053235329 ], [ 86.720208924517323, 20.219757002628956 ], [ 86.157439700118147, 19.806579460078321 ], [ 83.974434468017009, 18.257691101968238 ], [ 83.561895997035222, 17.994556947012715 ] ] ] } },
{ "type": "Feature", "properties": { "hub_name": "Kolkata Port (Syama Prasad Mookerjee Port) incl. Haldia Dock Complex", "hub_type": "major_port", "time_threshold_hours": 1.0, "label": "1 Hour Catchment" }, "geometry": { "type": "Polygon", "coordinates": [ [ [ 88.318109944325869, 22.039928337893727 ], [ 88.300419113588177, 22.017262136352628 ], [ 88.267755530965459, 22.000184499672311 ], [ 88.23033049465117, 21.999050155816459 ], [ 88.196547126343134, 22.014113776973531 ], [ 87.791294424744265, 22.38666633202093 ], [ 87.769202696094908, 22.424770210822146 ], [ 87.773947571215217, 22.467833691434645 ], [ 88.050959698998511, 23.073151204202652 ], [ 88.073899750288831, 23.101387962170307 ], [ 88.108420169132899, 23.116491599128686 ], [ 88.153305560536907, 23.112874211726741 ], [ 88.57531916980173, 22.959730780317429 ], [ 88.683706941785744, 22.882856588686188 ], [ 88.707781245289866, 22.839503392881554 ], [ 88.700954364405817, 22.79797938555874 ], [ 88.318109944325869, 22.039928337893727 ] ] ] } },
{ "type": "Feature", "properties": { "hub_name": "Kolkata Port (Syama Prasad Mookerjee Port) incl. Haldia Dock Complex", "hub_type": "major_port", "time_threshold_hours": 2.0, "label": "2 Hour Catchment" }, "geometry": { "type": "Polygon", "coordinates": [ [ [ 88.33928613948494, 21.530965027418411 ], [ 88.320939829077574, 21.506927855244765 ], [ 88.286380625862833, 21.489412905788988 ], [ 88.247083110014941, 21.489720942994776 ], [ 88.209254630792785, 21.506103931704061 ], [ 87.160520416209721, 22.259852276995055 ], [ 87.117847396735783, 22.293209439538053 ], [ 87.102861512680832, 22.318284824168085 ], [ 87.104542287052055, 22.36780919688934 ], [ 87.548301209372426, 23.407716732357787 ], [ 87.572552242807831, 23.433861356415598 ], [ 87.729232405279362, 23.534333189463286 ], [ 87.912335767506974, 23.540792088891877 ], [ 88.49310541446772, 23.485778133794273 ], [ 88.893157327443078, 23.257906336453338 ], [ 88.914654966267349, 23.239580927689115 ], [ 88.933108327337095, 23.206706815490488 ], [ 88.963713925683024, 23.043542521676155 ], [ 88.974973568318106, 22.878646160201708 ], [ 88.969834335520787, 22.844828460282059 ], [ 88.33928613948494, 21.530965027418411 ] ] ] } },
{ "type": "Feature", "properties": { "hub_name": "Kolkata Port (Syama Prasad Mookerjee Port) incl. Haldia Dock Complex", "hub_type": "major_port", "time_threshold_hours": 4.0, "label": "4 Hour Catchment" }, "geometry": { "type": "Polygon", "coordinates": [ [ [ 86.703453530835844, 21.221590273584471 ], [ 86.658521967331112, 21.226143068420974 ], [ 86.628240160833414, 21.247400244010223 ], [ 86.035767796131694, 21.922931950022651 ], [ 86.018052873774039, 21.963362370498324 ], [ 86.128018814272409, 22.866051182074749 ], [ 86.348030154869377, 23.874434319625681 ], [ 86.363617206124658, 23.900442784931908 ], [ 86.389113606055162, 23.918675363325079 ], [ 87.984958337980359, 24.629639826289107 ], [ 88.014872094665975, 24.636728287585367 ], [ 88.052738568759821, 24.630404131496441 ], [ 88.737736175672467, 24.18670505449364 ], [ 88.767908244626085, 24.155185579249821 ], [ 89.026121848428872, 22.680816535287793 ], [ 89.0228583764288, 22.645546889475391 ], [ 88.335761624839847, 21.524439488679629 ], [ 88.309451756826462, 21.498645464103916 ], [ 88.280916092816696, 21.488330967355015 ], [ 86.703453530835844, 21.221590273584471 ] ] ] } },
{ "type": "Feature", "properties": { "hub_name": "Kolkata Port (Syama Prasad Mookerjee Port) incl. Haldia Dock Complex", "hub_type": "major_port", "time_threshold_hours": 8.0, "label": "8 Hour Catchment" }, "geometry": { "type": "Polygon", "coordinates": [ [ [ 85.449778214210014, 19.593736217226322 ], [ 85.163169692792223, 19.615271684841655 ], [ 85.134657831433216, 19.626180040322566 ], [ 85.112853636353478, 19.646726282832571 ], [ 84.098717586040891, 21.432347969642766 ], [ 84.281788577903626, 23.880653686683594 ], [ 84.299867030323654, 23.905774938697004 ], [ 85.762747379896751, 25.215365634863883 ], [ 87.346708937139113, 26.24726621303892 ], [ 88.232339208976853, 26.514979862841443 ], [ 88.288453413847478, 26.513383347269496 ], [ 88.315615174118136, 26.497282983581012 ], [ 88.384165028641476, 26.42089999941556 ], [ 89.086185831009686, 25.295306485546021 ], [ 89.023021133712987, 22.645995064656987 ], [ 88.318207159907686, 21.504660040580902 ], [ 86.713228108297798, 20.21328375839839 ], [ 86.153449069169938, 19.803983975384021 ], [ 85.449778214210014, 19.593736217226322 ] ] ] } }
]
}
