{
"type": "FeatureCollection",
"name": "mmlp_isochrones",
"crs": { "type": "name", "properties": { "name": "urn:ogc:def:crs:OGC:1.3:CRS84" } },
"features": [
{ "type": "Feature", "properties": { "hub_name": "MMLP Jalna", "hub_type": "mmlp", "time_threshold_hours": 1.0, "label": "1 Hour Catchment" }, "geometry": { "type": "Polygon", "coordinates": [ [ [ 75.777729649076562, 19.225035614516766 ], [ 75.727766237559038, 19.214762477241361 ], [ 75.681964045203713, 19.236333373542411 ], [ 75.210609268235004, 19.789380493192667 ], [ 75.193667948754751, 19.828392477236513 ], [ 75.205992937388046, 19.875942122922186 ], [ 75.438260217160831, 20.149173604458184 ], [ 75.632293152486369, 20.34131591656153 ], [ 75.678665645937315, 20.359210250117723 ], [ 75.885902335188575, 20.3348658860439 ], [ 76.245388605628889, 20.239478956060029 ], [ 76.278661164694299, 20.221294993338233 ], [ 76.39114597430752, 20.029564896872163 ], [ 76.440636865431202, 19.659175771961145 ], [ 76.436349350813671, 19.624599955524399 ], [ 76.410031765173514, 19.591305954138186 ], [ 75.777729649076562, 19.225035614516766 ] ] ] } },
{ "type": "Feature", "properties": { "hub_name": "MMLP Jalna", "hub_type": "mmlp", "time_threshold_hours": 2.0, "label": "2 Hour Catchment" }, "geometry": { "type": "Polygon", "coordinates": [ [ [ 75.739638387506957, 18.668012408033732 ], [ 75.696217125666166, 18.656142067005661 ], [ 75.653278063061549, 18.669512060818448 ], [ 74.833562113203598, 19.339204497856755 ], [ 74.81670304471038, 19.365387454194934 ], [ 74.619137084821602, 19.905288543912093 ], [ 74.633173067215353, 19.951535546060938 ], [ 74.766259554171043, 20.098017494269946 ], [ 75.613286015507114, 20.829593955439378 ], [ 75.660505008263897, 20.848590884039247 ], [ 76.232582294473787, 20.730722008377299 ], [ 76.951274525115778, 20.256274938557215 ], [ 76.97244167874716, 20.211044540785419 ], [ 77.024143331816703, 19.540562628572292 ], [ 77.019899028081824, 19.510690650762445 ], [ 77.003368530019017, 19.4849470231933 ], [ 76.80433201891239, 19.321565831669911 ], [ 75.739638387506957, 18.668012408033732 ] ] ] } },
{ "type": "Feature", "properties": { "hub_name": "MMLP Jalna", "hub_type": "mmlp", "time_threshold_hours": 4.0, "label": "4 Hour Catchment" }, "geometry": { "type": "Polygon", "coordinates": [ [ [ 75.962562529464904, 17.693455473846555 ], [ 75.922242351636314, 17.696480786929445 ], [ 75.385297763540734, 17.881102057361179 ], [ 74.502289007922414, 18.289337385039509 ], [ 73.990156921110227, 18.576278068874675 ], [ 73.967038819951838, 18.609680542767645 ], [ 73.598805843334546, 19.70746498326751 ], [ 73.595518294328286, 19.73742054030707 ], [ 73.814739192887941, 20.379366715496076 ], [ 74.788246586303714, 21.271720493537579 ], [ 74.815924901836951, 21.28227305952435 ], [ 76.291664618973655, 21.543769112932683 ], [ 77.242066881365957, 21.227573854166426 ], [ 78.053216859248948, 20.72752453383745 ], [ 78.074258609624238, 20.708192600560551 ], [ 78.08815446451996, 20.662188147057893 ], [ 77.998814652923031, 19.093791577021172 ], [ 77.981518525303329, 19.051272473055494 ], [ 77.63637781902591, 18.652321012974674 ], [ 76.299651865156207, 17.758805419710722 ], [ 75.962562529464904, 17.693455473846555 ] ] ] } },
{ "type": "Feature", "properties": { "hub_name": "MMLP Chennai (Mappedu)", "hub_type": "mmlp", "time_threshold_hours": 1.0, "label": "1 Hour Catchment" }, "geometry": { "type": "Polygon", "coordinates": [ [ [ 79.995995739843053, 13.052261073366894 ], [ 79.804813869806978, 13.080849776119813 ], [ 79.622742107947701, 13.128017925991799 ], [ 79.598134042597835, 13.142874325740234 ], [ 79.581210713190472, 13.165839660826087 ], [ 79.574559629293134, 13.193409683139411 ], [ 79.57920270436081, 13.221374383719876 ], [ 79.594436733136092, 13.245459991310415 ], [ 79.617937210509538, 13.261982748928604 ], [ 79.716471969773011, 13.28630309129642 ], [ 79.796299964628787, 13.272200357924367 ], [ 80.035627812037959, 13.20595350354836 ], [ 80.061473326232914, 13.190268932390069 ], [ 80.078681725860136, 13.168200890882169 ], [ 80.086948403316839, 13.142353513503853 ], [ 80.085661198171792, 13.109575009888083 ], [ 80.074010230358596, 13.084756956474013 ], [ 80.05354921253408, 13.065748939302614 ], [ 79.995995739843053, 13.052261073366894 ] ] ] } },
{ "type": "Feature", "properties": { "hub_name": "MMLP Chennai (Mappedu)", "hub_type": "mmlp", "time_threshold_hours": 2.0, "label": "2 Hour Catchment" }, "geometry": { "type": "Polygon", "coordinates": [ [ [ 79.995995739843053, 13.052261073366894 ], [ 79.804813869806978, 13.080849776119813 ], [ 79.622742107947701, 13.128017925991799 ], [ 79.598134042597835, 13.142874325740234 ], [ 79.581210713190472, 13.165839660826087 ], [ 79.574559629293134, 13.193409683139411 ], [ 79.57920270436081, 13.221374383719876 ], [ 79.594436733136092, 13.245459991310415 ], [ 79.617937210509538, 13.261982748928604 ], [ 79.716471969773011, 13.28630309129642 ], [ 79.796299964628787, 13.272200357924367 ], [ 80.035627812037959, 13.20595350354836 ], [ 80.061473326232914, 13.190268932390069 ], [ 80.078681725860136, 13.168200890882169 ], [ 80.086948403316839, 13.142353513503853 ], [ 80.085661198171792, 13.109575009888083 ], [ 80.074010230358596, 13.084756956474013 ], [ 80.05354921253408, 13.065748939302614 ], [ 79.995995739843053, 13.052261073366894 ] ] ] } },
{ "type": "Feature", "properties": { "hub_name": "MMLP Chennai (Mappedu)", "hub_type": "mmlp", "time_threshold_hours": 4.0, "label": "4 Hour Catchment" }, "geometry": { "type": "Polygon", "coordinates": [ [ [ 79.995995739843053, 13.052261073366894 ], [ 79.804813869806978, 13.080849776119813 ], [ 79.622742107947701, 13.128017925991799 ], [ 79.598134042597835, 13.142874325740234 ], [ 79.581210713190472, 13.165839660826087 ], [ 79.574559629293134, 13.193409683139411 ], [ 79.57920270436081, 13.221374383719876 ], [ 79.594436733136092, 13.245459991310415 ], [ 79.617937210509538, 13.261982748928604 ], [ 79.716471969773011, 13.28630309129642 ], [ 79.796299964628787, 13.272200357924367 ], [ 80.035627812037959, 13.20595350354836 ], [ 80.061473326232914, 13.190268932390069 ], [ 80.078681725860136, 13.168200890882169 ], [ 80.086948403316839, 13.142353513503853 ], [ 80.085661198171792, 13.109575009888083 ], [ 80.074010230358596, 13.084756956474013 ], [ 80.05354921253408, 13.065748939302614 ], [ 79.995995739843053, 13.052261073366894 ] ] ] } },
{ "type": "Feature", "properties": { "hub_name": "MMLP Bengaluru (Muddalinganahalli)", "hub_type": "mmlp", "time_threshold_hours": 1.0, "label": "1 Hour Catchment" }, "geometry": { "type": "Polygon", "coordinates": [ [ [ 77.643561421325899, 12.843815330818275 ], [ 76.844049956451514, 12.90669990527584 ], [ 76.793588828717702, 12.92769451978044 ], [ 76.774672402585338, 12.958156410253954 ], [ 76.77177632191632, 12.986658467554051 ], [ 76.844690355357429, 13.340558663856495 ], [ 76.954426374168847, 13.554272007876888 ], [ 76.991975168867313, 13.575355203588407 ], [ 77.028209428239663, 13.574569735468032 ], [ 77.745595433333136, 13.379039383936204 ], [ 77.781372423005024, 13.35687572015498 ], [ 77.895740645205123, 13.11759354421673 ], [ 77.900157144104398, 13.070133642823951 ], [ 77.883870625338417, 13.039718286669084 ], [ 77.736159094416934, 12.877539743888436 ], [ 77.692452867019171, 12.853397742853911 ], [ 77.643561421325899, 12.843815330818275 ] ] ] } },
{ "type": "Feature", "properties": { "hub_name": "MMLP Bengaluru (Muddalinganahalli)", "hub_type": "mmlp", "time_threshold_hours": 2.0, "label": "2 Hour Catchment" }, "geometry": { "type": "Polygon", "coordinates": [ [ [ 76.682772311045042, 12.404693361076022 ], [ 76.64816946730501, 12.410920497642309 ], [ 76.620458203786228, 12.432224617348426 ], [ 76.221668635417601, 12.929451768356731 ], [ 76.205915811712003, 12.969830097538534 ], [ 76.285771667712496, 13.2995090128762 ], [ 76.556867444779087, 13.972161682026192 ], [ 76.571922653950978, 13.995290591685173 ], [ 76.594686127617095, 14.011325775763076 ], [ 76.628974391553001, 14.018036892583764 ], [ 77.729283507324084, 13.971412502264668 ], [ 77.75778500629815, 13.964417833028421 ], [ 77.781283651262214, 13.947186361330079 ], [ 78.468861838836645, 13.184177104686162 ], [ 78.475805357298512, 13.15080261269317 ], [ 78.466427026500227, 13.118008813764524 ], [ 78.157433440175865, 12.575129457163346 ], [ 78.133761202731378, 12.550016798684956 ], [ 78.025868513880155, 12.481717958504635 ], [ 76.682772311045042, 12.404693361076022 ] ] ] } },
{ "type": "Feature", "properties": { "hub_name": "MMLP Bengaluru (Muddalinganahalli)", "hub_type": "mmlp", "time_threshold_hours": 4.0, "label": "4 Hour Catchment" }, "geometry": { "type": "Polygon", "coordinates": [ [ [ 78.184670859871957, 11.512306254532026 ], [ 78.158647931465893, 11.500684029353387 ], [ 78.130097000410501, 11.499783215731229 ], [ 77.721017185660983, 11.56792348825976 ], [ 75.382913792565574, 12.763682233611915 ], [ 75.351015125670656, 12.789779907943498 ], [ 75.336390916790492, 12.82003620481697 ], [ 75.335765120560666, 12.846909718918463 ], [ 75.63034047965732, 14.577331351991416 ], [ 75.65656589027563, 14.621503842417052 ], [ 76.324656994660984, 15.051138839763743 ], [ 76.365217397291687, 15.063097915012477 ], [ 77.630281995687469, 15.065641143997492 ], [ 78.408030848805339, 14.718745808149588 ], [ 78.435204423928383, 14.69785768001327 ], [ 79.320157008178043, 13.595900674940724 ], [ 79.44463240392443, 12.915517600157164 ], [ 79.107802079754862, 12.162748552770534 ], [ 78.184670859871957, 11.512306254532026 ] ] ] } },
{ "type": "Feature", "properties": { "hub_name": "MMLP Indore", "hub_type": "mmlp", "time_threshold_hours": 1.0, "label": "1 Hour Catchment" }, "geometry": { "type": "Polygon", "coordinates": [ [ [ 75.363508057044825, 22.507902468756917 ], [ 75.198024754948065, 22.514902113155919 ], [ 75.154699410717953, 22.537867323794064 ], [ 75.133945371906634, 22.566850942956759 ], [ 75.131161883806897, 22.608366895530434 ], [ 75.188662947264447, 22.840470676609314 ], [ 75.204987396089692, 22.866237941250816 ], [ 75.23101995141738, 22.883871938208259 ], [ 75.280288117395841, 22.888974399581425 ], [ 75.840853400648555, 22.779351591005547 ], [ 75.875746543631479, 22.763425982816234 ], [ 75.898294297600529, 22.734044242651443 ], [ 75.903735626280067, 22.705755730377962 ], [ 75.89715253336324, 22.677806862969529 ], [ 75.87959522995115, 22.654292257609683 ], [ 75.853714940094889, 22.638755983013464 ], [ 75.771761619783447, 22.609025397323755 ], [ 75.363508057044825, 22.507902468756917 ] ] ] } },
{ "type": "Feature", "properties": { "hub_name": "MMLP Indore", "hub_type": "mmlp", "time_threshold_hours": 2.0, "label": "2 Hour Catchment" }, "geometry": { "type": "Polygon", "coordinates": [ [ [ 75.469705812498432, 22.032704496820337 ], [ 75.418813066243089, 22.019884387491672 ], [ 75.370597202045559, 22.039761538321184 ], [ 74.580985832514287, 22.728825834887505 ], [ 74.559961997241132, 22.759004483351887 ], [ 74.556827608500157, 22.794817637049778 ], [ 74.567864203569059, 22.821792471184455 ], [ 74.957554700248537, 23.395368605835067 ], [ 74.978454754403927, 23.415875570734102 ], [ 75.027823351684745, 23.442884644270645 ], [ 75.074068203739046, 23.445776958857969 ], [ 75.129522033648072, 23.419161274786489 ], [ 75.879132310123197, 22.760595978756442 ], [ 75.900763815982756, 22.727224132298513 ], [ 75.903282760710368, 22.699221267331456 ], [ 75.89431718692353, 22.672381040113518 ], [ 75.568570677035183, 22.106238587140766 ], [ 75.54968556497569, 22.084521070806769 ], [ 75.469705812498432, 22.032704496820337 ] ] ] } },
{ "type": "Feature", "properties": { "hub_name": "MMLP Indore", "hub_type": "mmlp", "time_threshold_hours": 4.0, "label": "4 Hour Catchment" }, "geometry": { "type": "Polygon", "coordinates": [ [ [ 74.815006282490373, 21.020224144574659 ], [ 74.763254391203375, 21.021662186175863 ], [ 74.727862429355383, 21.047153199648079 ], [ 73.38216886760884, 22.759429151795953 ], [ 73.366680579301814, 22.807317978993215 ], [ 73.382691537598944, 22.84776450347351 ], [ 74.808155165792925, 24.561513915885754 ], [ 74.838189439065289, 24.583343994244458 ], [ 74.875865763423519, 24.589981915538562 ], [ 74.912622609974051, 24.579919291355434 ], [ 74.9694211922927, 24.535336727768087 ], [ 76.762056670840977, 22.740438350169125 ], [ 76.78848477696377, 22.706267065815258 ], [ 76.794712107274862, 22.677460774197499 ], [ 76.788311021788786, 22.648687788079936 ], [ 76.395120330819438, 21.790643298894231 ], [ 76.313237926466883, 21.691199228600407 ], [ 75.993313601792693, 21.370860878995767 ], [ 75.966902781653431, 21.357658317740185 ], [ 74.815006282490373, 21.020224144574659 ] ] ] } },
{ "type": "Feature", "properties": { "hub_name": "MMLP Nagpur (Sindi)", "hub_type": "mmlp", "time_threshold_hours": 1.0, "label": "1 Hour Catchment" }, "geometry": { "type": "Polygon", "coordinates": [ [ [ 79.00290091656737, 20.028757298971076 ], [ 78.584481888648199, 20.036809967512461 ], [ 78.554181270040118, 20.043315481881883 ], [ 78.528985298067028, 20.060503780589549 ], [ 78.510656711363026, 20.092711878473736 ], [ 78.345079607328969, 20.736346156215536 ], [ 78.356075739540685, 20.770429947735874 ], [ 78.382812903935275, 20.795658854334654 ], [ 79.025689494179787, 21.15776950136021 ], [ 79.069132628526106, 21.168095102253321 ], [ 79.195106467274229, 21.148929830585232 ], [ 79.224314579680438, 21.127474144193531 ], [ 79.239740991853807, 21.095825138018128 ], [ 79.228396098469673, 20.335878753164391 ], [ 79.184343446461725, 20.107097918523863 ], [ 79.172509970431591, 20.079661129184103 ], [ 79.128631892499328, 20.049629368273603 ], [ 79.00290091656737, 20.028757298971076 ] ] ] } },
{ "type": "Feature", "properties": { "hub_name": "MMLP Nagpur (Sindi)", "hub_type": "mmlp", "time_threshold_hours": 2.0, "label": "2 Hour Catchment" }, "geometry": { "type": "Polygon", "coordinates": [ [ [ 78.500050817170447, 19.538483316179381 ], [ 78.455975419550555, 19.546660904926 ], [ 78.42587180608534, 19.573536389999067 ], [ 77.789367178154706, 20.570733865031343 ], [ 77.778652136123739, 20.603371921415096 ], [ 77.784748639054541, 20.637049472797905 ], [ 78.067915872933469, 21.127261364716006 ], [ 78.115312047699518, 21.203217631530787 ], [ 78.138488090895208, 21.223165340117401 ], [ 78.852793526508705, 21.535893296220614 ], [ 79.342005642922132, 21.63482209948943 ], [ 79.390335074585934, 21.630240885439612 ], [ 79.41947820398687, 21.609566220534347 ], [ 79.731070484879368, 21.252718045883825 ], [ 79.807263251406567, 21.116833698539555 ], [ 79.72806266075473, 20.031941197809328 ], [ 79.58238680926631, 19.742865910893151 ], [ 79.558311498844802, 19.723020476075163 ], [ 79.36755672790575, 19.622409890145409 ], [ 78.500050817170447, 19.538483316179381 ] ] ] } },
{ "type": "Feature", "properties": { "hub_name": "MMLP Nagpur (Sindi)", "hub_type": "mmlp", "time_threshold_hours": 4.0, "label": "4 Hour Catchment" }, "geometry": { "type": "Polygon", "coordinates": [ [ [ 78.26313612761362, 18.473244784522262 ], [ 78.218096959299615, 18.474181616269643 ], [ 78.186185177003523, 18.493586534350552 ], [ 76.635687393736731, 20.142110585229304 ], [ 76.625475252659655, 20.168735279904627 ], [ 76.626673601709996, 20.197030872466197 ], [ 76.753034936131343, 20.694696974408021 ], [ 77.823399511405583, 22.042771619977177 ], [ 79.506554529827312, 22.706886517876569 ], [ 79.651366407035709, 22.735233280947813 ], [ 79.689656263743373, 22.733232534641324 ], [ 79.728517973918869, 22.708523041135475 ], [ 81.059447720529647, 21.122339322273483 ], [ 81.072971351273878, 21.097149495381228 ], [ 81.072281913085675, 21.055174625575379 ], [ 80.522363138165588, 19.392994685573857 ], [ 80.504236890597923, 19.363843793195446 ], [ 80.183265555415971, 19.045795957155434 ], [ 80.139953454443926, 19.018365479197357 ], [ 79.514348537348226, 18.804495918121294 ], [ 78.26313612761362, 18.473244784522262 ] ] ] } },
{ "type": "Feature", "properties": { "hub_name": "MMLP Jogighopa", "hub_type": "mmlp", "time_threshold_hours": 1.0, "label": "1 Hour Catchment" }, "geometry": { "type": "Polygon", "coordinates": [ [ [ 91.02276981538526, 25.92315842858282 ], [ 90.806428087315012, 25.761653657517837 ], [ 90.776779718963596, 25.757530555936853 ], [ 90.47520037736713, 25.791464932958288 ], [ 90.437237130256165, 25.805088269784331 ], [ 90.411365952362644, 25.833694218615932 ], [ 90.237149550579787, 26.174409596118679 ], [ 90.229676117031914, 26.202260103734048 ], [ 90.252670270460797, 26.551761704071122 ], [ 90.276682114796785, 26.597315927595957 ], [ 90.338127967927491, 26.659815032571327 ], [ 90.394922006638211, 26.667606936411826 ], [ 90.92669005228889, 26.566195895818435 ], [ 90.956432991266695, 26.554549398744953 ], [ 90.982787021533909, 26.527017030340065 ], [ 90.991049196337286, 26.500992072788765 ], [ 91.044085777528196, 25.960123131395363 ], [ 91.02276981538526, 25.92315842858282 ] ] ] } },
{ "type": "Feature", "properties": { "hub_name": "MMLP Jogighopa", "hub_type": "mmlp", "time_threshold_hours": 2.0, "label": "2 Hour Catchment" }, "geometry": { "type": "Polygon", "coordinates": [ [ [ 90.713601112984833, 25.458328483506332 ], [ 90.277433884805461, 25.532242579778345 ], [ 90.239943772822969, 25.546785824292083 ], [ 89.78235882854743, 26.063272032531863 ], [ 89.754160260990389, 26.121920629309372 ], [ 89.756124792582085, 26.156962381382304 ], [ 89.770646533966683, 26.181895245566359 ], [ 90.420049422133175, 26.905929174427637 ], [ 90.465499250536752, 26.93130646641497 ], [ 90.496465359951031, 26.932260953754465 ], [ 91.249506896447386, 26.824406441857516 ], [ 91.285001560441174, 26.811005803173526 ], [ 91.453044101443027, 26.67616549946311 ], [ 91.472866712137787, 26.651895785181161 ], [ 91.674239196713017, 26.106661353770672 ], [ 91.664822656042631, 26.062802579987842 ], [ 91.631132466821668, 26.027378542038232 ], [ 90.892131867021632, 25.484266760138869 ], [ 90.85531657966196, 25.468868317122485 ], [ 90.713601112984833, 25.458328483506332 ] ] ] } },
{ "type": "Feature", "properties": { "hub_name": "MMLP Jogighopa", "hub_type": "mmlp", "time_threshold_hours": 4.0, "label": "4 Hour Catchment" }, "geometry": { "type": "Polygon", "coordinates": [ [ [ 90.478663312557714, 25.091016596620342 ], [ 90.403105311289664, 25.096462054121982 ], [ 90.196929865178205, 25.148112797944773 ], [ 90.16223297781066, 25.166070471085515 ], [ 88.875146110529556, 26.521894031458711 ], [ 88.855218064889883, 26.567330929951673 ], [ 88.866919700125294, 26.608073330787835 ], [ 89.018883487802086, 26.760091145585669 ], [ 89.075117600541645, 26.780159028669036 ], [ 90.484194659640352, 26.93314897685892 ], [ 92.135704360963416, 26.916087760105892 ], [ 92.172800528342549, 26.903617595937206 ], [ 92.424767005171375, 26.744414700256353 ], [ 92.687062059897372, 26.324249606070588 ], [ 92.69668304107411, 26.298026656492599 ], [ 92.692664436042634, 26.263808362310797 ], [ 92.677173733948507, 26.239979983323337 ], [ 91.965671527004005, 25.501779900503756 ], [ 91.93130782362168, 25.483094028235115 ], [ 90.654622187801763, 25.123837232579877 ], [ 90.478663312557714, 25.091016596620342 ] ] ] } },
{ "type": "Feature", "properties": { "hub_name": "MMLP Varanasi", "hub_type": "mmlp", "time_threshold_hours": 1.0, "label": "1 Hour Catchment" }, "geometry": { "type": "Polygon", "coordinates": [ [ [ 82.56068195535029, 25.141222217876525 ], [ 82.52894964575566, 25.139901471055559 ], [ 82.49910168382722, 25.149798013946022 ], [ 82.401329480217143, 25.232088649893523 ], [ 82.304064394316953, 25.439982842179948 ], [ 82.298283289597322, 25.476104638414004 ], [ 82.312327567912291, 25.510307012159554 ], [ 82.335673534408613, 25.530563934038543 ], [ 82.570696533168473, 25.664274952607265 ], [ 82.616963167680083, 25.671467659103886 ], [ 82.6598874690429, 25.654249883991792 ], [ 83.021077663877776, 25.371826044393973 ], [ 83.043940585209711, 25.342041474192168 ], [ 83.048350434212907, 25.305949081923686 ], [ 83.029979240435338, 25.268542132020936 ], [ 82.979817156489446, 25.235546160745702 ], [ 82.56068195535029, 25.141222217876525 ] ] ] } },
{ "type": "Feature", "properties": { "hub_name": "MMLP Varanasi", "hub_type": "mmlp", "time_threshold_hours": 2.0, "label": "2 Hour Catchment" }, "geometry": { "type": "Polygon", "coordinates": [ [ [ 82.333370195997162, 24.910148742849621 ], [ 82.295799830833673, 24.909867475474911 ], [ 82.262150363724444, 24.925113706813335 ], [ 81.96253503950976, 25.201390477542855 ], [ 81.84526051009891, 25.405886769544175 ], [ 81.846440013074925, 25.582249472179129 ], [ 81.86461182638196, 25.61485580444884 ], [ 82.314863803732507, 26.077144383802132 ], [ 82.658395948821479, 26.204892029013898 ], [ 82.712794438296996, 26.206888688656779 ], [ 83.073992467317908, 26.032248307710887 ], [ 83.105350207132304, 26.004938887214919 ], [ 83.387418546785668, 25.28146825885246 ], [ 83.389529358285273, 25.239187742736931 ], [ 83.376199374023216, 25.213461638247733 ], [ 83.346250098541958, 25.190823913838205 ], [ 82.87358558668447, 25.03159532995732 ], [ 82.333370195997162, 24.910148742849621 ] ] ] } },
{ "type": "Feature", "properties": { "hub_name": "MMLP Varanasi", "hub_type": "mmlp", "time_threshold_hours": 4.0, "label": "4 Hour Catchment" }, "geometry": { "type": "Polygon", "coordinates": [ [ [ 81.357041617696396, 24.474607229028297 ], [ 81.242011068937245, 24.497383756040964 ], [ 81.205662782443866, 24.521005263957043 ], [ 80.729190481722185, 25.185481317358679 ], [ 80.668015742272502, 26.00765950391483 ], [ 80.685956800359946, 26.039446933776684 ], [ 81.088030455504523, 26.452636234797215 ], [ 81.761428814610326, 26.839732998982299 ], [ 82.094375845070985, 26.991715575406221 ], [ 82.13081152704288, 26.996733016966054 ], [ 83.094356231485193, 26.929379673193441 ], [ 83.501271829040945, 26.757776797995742 ], [ 83.523264394638261, 26.740624396145225 ], [ 84.588012001142772, 25.528065806686424 ], [ 84.592260582664423, 25.49992590290476 ], [ 84.541822369816032, 24.706100123971691 ], [ 84.52545187357552, 24.665588799358144 ], [ 84.48694128911491, 24.640371183812093 ], [ 84.302126200322917, 24.602001830515846 ], [ 83.972979451323425, 24.572603592730086 ], [ 81.357041617696396, 24.474607229028297 ] ] ] } },
{ "type": "Feature", "properties": { "hub_name": "MMLP Nashik", "hub_type": "mmlp", "time_threshold_hours": 1.0, "label": "1 Hour Catchment" }, "geometry": { "type": "Polygon", "coordinates": [ [ [ 73.753250001258749, 19.847124236237743 ], [ 73.705036787032213, 19.825710307167327 ], [ 73.659923086276777, 19.834883891775917 ], [ 73.625096415375893, 19.873485085981724 ], [ 73.622684611659025, 19.917171598853177 ], [ 73.655550641850297, 19.970522293960126 ], [ 73.737610357787787, 20.045767364454576 ], [ 73.773758225014518, 20.063279872970096 ], [ 73.817717294643657, 20.061871633906726 ], [ 73.843479024816247, 20.04820115569321 ], [ 73.862450926773704, 20.025629421016774 ], [ 73.868928813109704, 19.975010130158061 ], [ 73.850730838935817, 19.942485569176011 ], [ 73.753250001258749, 19.847124236237743 ] ] ] } },
{ "type": "Feature", "properties": { "hub_name": "MMLP Nashik", "hub_type": "mmlp", "time_threshold_hours": 2.0, "label": "2 Hour Catchment" }, "geometry": { "type": "Polygon", "coordinates": [ [ [ 73.753250001258749, 19.847124236237743 ], [ 73.705036787032213, 19.825710307167327 ], [ 73.659923086276777, 19.834883891775917 ], [ 73.625096415375893, 19.873485085981724 ], [ 73.622684611659025, 19.917171598853177 ], [ 73.655550641850297, 19.970522293960126 ], [ 73.737610357787787, 20.045767364454576 ], [ 73.773758225014518, 20.063279872970096 ], [ 73.817717294643657, 20.061871633906726 ], [ 73.843479024816247, 20.04820115569321 ], [ 73.862450926773704, 20.025629421016774 ], [ 73.868928813109704, 19.975010130158061 ], [ 73.850730838935817, 19.942485569176011 ], [ 73.753250001258749, 19.847124236237743 ] ] ] } },
{ "type": "Feature", "properties": { "hub_name": "MMLP Nashik", "hub_type": "mmlp", "time_threshold_hours": 4.0, "label": "4 Hour Catchment" }, "geometry": { "type": "Polygon", "coordinates": [ [ [ 73.753250001258749, 19.847124236237743 ], [ 73.705036787032213, 19.825710307167327 ], [ 73.659923086276777, 19.834883891775917 ], [ 73.625096415375893, 19.873485085981724 ], [ 73.622684611659025, 19.917171598853177 ], [ 73.655550641850297, 19.970522293960126 ], [ 73.737610357787787, 20.045767364454576 ], [ 73.773758225014518, 20.063279872970096 ], [ 73.817717294643657, 20.061871633906726 ], [ 73.843479024816247, 20.04820115569321 ], [ 73.862450926773704, 20.025629421016774 ], [ 73.868928813109704, 19.975010130158061 ], [ 73.850730838935817, 19.942485569176011 ], [ 73.753250001258749, 19.847124236237743 ] ] ] } },
{ "type": "Feature", "properties": { "hub_name": "MMLP Patna", "hub_type": "mmlp", "time_threshold_hours": 1.0, "label": "1 Hour Catchment" }, "geometry": { "type": "Polygon", "coordinates": [ [ [ 84.756741306711589, 25.284039715831902 ], [ 84.725184812379425, 25.28976271810625 ], [ 84.698564218650134, 25.306200703232165 ], [ 84.681078856541774, 25.330761969032515 ], [ 84.675492299261705, 25.359572407030928 ], [ 84.772539520792307, 25.749202058124549 ], [ 84.786225133384704, 25.776243277808568 ], [ 85.337286233409316, 26.143560008750445 ], [ 85.392055660218304, 26.152573308899328 ], [ 85.434894167391178, 26.133077905551431 ], [ 85.752589208401304, 25.620226807627805 ], [ 85.762003118118344, 25.594212095156749 ], [ 85.760281215326046, 25.56687693243834 ], [ 85.748652943797964, 25.542383181277536 ], [ 85.588941027017526, 25.312585125263812 ], [ 85.56414472205708, 25.293365376265292 ], [ 85.524839920747795, 25.28421964679735 ], [ 84.756741306711589, 25.284039715831902 ] ] ] } },
{ "type": "Feature", "properties": { "hub_name": "MMLP Patna", "hub_type": "mmlp", "time_threshold_hours": 2.0, "label": "2 Hour Catchment" }, "geometry": { "type": "Polygon", "coordinates": [ [ [ 85.590403979515585, 24.729495685763524 ], [ 85.563711259254873, 24.712987096924738 ], [ 85.523980395304818, 24.707775637572674 ], [ 84.349639249066058, 24.821815230271355 ], [ 84.315988339459523, 24.84035630696577 ], [ 84.298557936076392, 24.864369824720765 ], [ 84.229158700274411, 25.076620529995942 ], [ 84.229340660508143, 25.112952271133899 ], [ 84.239550638224586, 25.138838897332406 ], [ 84.692737125852673, 25.830864390369779 ], [ 85.066528859954573, 26.095308747992735 ], [ 85.231082451984236, 26.177816494975801 ], [ 85.346870698152031, 26.212620629410779 ], [ 85.401032923061877, 26.203298794843683 ], [ 85.822374465628357, 25.976241214839771 ], [ 86.275508172243249, 25.455511075758228 ], [ 86.291280890369364, 25.423552219143133 ], [ 86.289006539421536, 25.388591408361677 ], [ 86.269213132837947, 25.358538062099544 ], [ 85.590403979515585, 24.729495685763524 ] ] ] } },
{ "type": "Feature", "properties": { "hub_name": "MMLP Patna", "hub_type": "mmlp", "time_threshold_hours": 4.0, "label": "4 Hour Catchment" }, "geometry": { "type": "Polygon", "coordinates": [ [ [ 84.22966948966382, 23.888899591143652 ], [ 84.147205673669177, 23.894347031214053 ], [ 84.111193383000455, 23.905229226564064 ], [ 83.917997821164164, 24.022089596983147 ], [ 83.443115728284269, 24.487277020338311 ], [ 83.17195921195048, 25.245495254294706 ], [ 83.17198271565475, 25.275885587367569 ], [ 83.180947505530369, 25.297248086495475 ], [ 83.475616986154691, 25.760226918204015 ], [ 83.646157321727173, 25.992437360288999 ], [ 83.670441328664239, 26.013859977546023 ], [ 85.041073712251077, 26.464889762290746 ], [ 85.903122923950406, 26.711942309422877 ], [ 85.936000071620839, 26.71497033015493 ], [ 86.118133347951201, 26.697152245474257 ], [ 86.290559170600034, 26.64655120447512 ], [ 86.333217012218526, 26.627255500076018 ], [ 86.449999514310903, 26.556039442098566 ], [ 86.670393100673181, 26.387198710222776 ], [ 87.386505281830466, 25.553251751331413 ], [ 87.392178029949847, 25.502329347523542 ], [ 87.263233892425561, 25.188409103534543 ], [ 86.713501983193609, 24.463660929060332 ], [ 85.895632147284033, 24.007998562378656 ], [ 85.796043159568512, 23.982757115150562 ], [ 84.22966948966382, 23.888899591143652 ] ] ] } },
{ "type": "Feature", "properties": { "hub_name": "MMLP Anantapur", "hub_type": "mmlp", "time_threshold_hours": 1.0, "label": "1 Hour Catchment" }, "geometry": { "type": "Polygon", "coordinates": [ [ [ 77.641898268190374, 14.623361128580534 ], [ 77.61594386332267, 14.610766430889674 ], [ 77.58702192222556, 14.60873307036538 ], [ 77.559479430069572, 14.617566493615856 ], [ 77.537456933381719, 14.635939636090184 ], [ 77.524193439862984, 14.661063844634237 ], [ 77.521728015418574, 14.68901076495125 ], [ 77.530303008727401, 14.715792113430837 ], [ 77.548650403131717, 14.737428888298902 ], [ 77.574287351137215, 14.750851070180454 ], [ 77.60305633304705, 14.75374685800978 ], [ 77.630802246624569, 14.745802606806993 ], [ 77.653512744203937, 14.728047116875697 ], [ 77.667861141397651, 14.702424491832108 ], [ 77.670716294973346, 14.673377982891621 ], [ 77.661626448146748, 14.645575411929503 ], [ 77.641898268190374, 14.623361128580534 ] ] ] } },
{ "type": "Feature", "properties": { "hub_name": "MMLP Anantapur", "hub_type": "mmlp", "time_threshold_hours": 2.0, "label": "2 Hour Catchment" }, "geometry": { "type": "Polygon", "coordinates": [ [ [ 77.641898268190374, 14.623361128580534 ], [ 77.61594386332267, 14.610766430889674 ], [ 77.58702192222556, 14.60873307036538 ], [ 77.559479430069572, 14.617566493615856 ], [ 77.537456933381719, 14.635939636090184 ], [ 77.524193439862984, 14.661063844634237 ], [ 77.521728015418574, 14.68901076495125 ], [ 77.530303008727401, 14.715792113430837 ], [ 77.548650403131717, 14.737428888298902 ], [ 77.574287351137215, 14.750851070180454 ], [ 77.60305633304705, 14.75374685800978 ], [ 77.630802246624569, 14.745802606806993 ], [ 77.653512744203937, 14.728047116875697 ], [ 77.667861141397651, 14.702424491832108 ], [ 77.670716294973346, 14.673377982891621 ], [ 77.661626448146748, 14.645575411929503 ], [ 77.641898268190374, 14.623361128580534 ] ] ] } },
{ "type": "Feature", "properties": { "hub_name": "MMLP Anantapur", "hub_type": "mmlp", "time_threshold_hours": 4.0, "label": "4 Hour Catchment" }, "geometry": { "type": "Polygon", "coordinates": [ [ [ 77.641898268190374, 14.623361128580534 ], [ 77.61594386332267, 14.610766430889674 ], [ 77.58702192222556, 14.60873307036538 ], [ 77.559479430069572, 14.617566493615856 ], [ 77.537456933381719, 14.635939636090184 ], [ 77.524193439862984, 14.661063844634237 ], [ 77.521728015418574, 14.68901076495125 ], [ 77.530303008727401, 14.715792113430837 ], [ 77.548650403131717, 14.737428888298902 ], [ 77.574287351137215, 14.750851070180454 ], [ 77.60305633304705, 14.75374685800978 ], [ 77.630802246624569, 14.745802606806993 ], [ 77.653512744203937, 14.728047116875697 ], [ 77.667861141397651, 14.702424491832108 ], [ 77.670716294973346, 14.673377982891621 ], [ 77.661626448146748, 14.645575411929503 ], [ 77.641898268190374, 14.623361128580534 ] ] ] } },
{ "type": "Feature", "properties": { "hub_name": "MMLP Hyderabad", "hub_type": "mmlp", "time_threshold_hours": 1.0, "label": "1 Hour Catchment" }, "geometry": { "type": "Polygon", "coordinates": [ [ [ 78.575152954062617, 16.806011180321342 ], [ 78.532762796722309, 16.790825063285624 ], [ 78.482612444623356, 16.805697050815997 ], [ 77.980613986092521, 17.255271299838363 ], [ 77.956927838029927, 17.29923147855159 ], [ 77.967766153111924, 17.347629869950616 ], [ 78.131859142168281, 17.599548945950357 ], [ 78.408351511305881, 17.936859000364795 ], [ 78.430359272835062, 17.955071568153237 ], [ 78.457879722497424, 17.964110675011405 ], [ 78.507205157029972, 17.954779918527436 ], [ 79.034262932927192, 17.657879580720465 ], [ 79.059333942832723, 17.633466580852286 ], [ 79.070074335618983, 17.600907400466223 ], [ 79.097238734112366, 17.234429599814789 ], [ 79.087309937321734, 17.192771970199658 ], [ 79.067636923981127, 17.171153069695741 ], [ 78.575152954062617, 16.806011180321342 ] ] ] } },
{ "type": "Feature", "properties": { "hub_name": "MMLP Hyderabad", "hub_type": "mmlp", "time_threshold_hours": 2.0, "label": "2 Hour Catchment" }, "geometry": { "type": "Polygon", "coordinates": [ [ [ 78.725635144641686, 16.356282783703438 ], [ 78.343556189752448, 16.358976535939245 ], [ 78.308587163927484, 16.367510181607557 ], [ 77.494991549364613, 16.996700987717343 ], [ 77.468414010253966, 17.037253844706125 ], [ 77.468749699546123, 17.071813240287302 ], [ 77.516701972637847, 17.244853707687316 ], [ 78.196902293636796, 18.441666929199776 ], [ 78.217606178376357, 18.464691770068683 ], [ 78.246437503724536, 18.477780042072339 ], [ 78.291245041816538, 18.475221214404691 ], [ 79.483747046726833, 18.045925383293092 ], [ 79.514624427569004, 18.025120347330436 ], [ 79.531965213026027, 17.990032408259474 ], [ 79.682750553950058, 17.165316167686228 ], [ 79.673563910163992, 17.112407463264507 ], [ 79.653531358058956, 17.087305207976975 ], [ 78.77788409990508, 16.374390852131597 ], [ 78.725635144641686, 16.356282783703438 ] ] ] } },
{ "type": "Feature", "properties": { "hub_name": "MMLP Hyderabad", "hub_type": "mmlp", "time_threshold_hours": 4.0, "label": "4 Hour Catchment" }, "geometry": { "type": "Polygon", "coordinates": [ [ [ 78.041607929545549, 15.722696467292756 ], [ 78.000171479374515, 15.730239883021815 ], [ 77.969393559149509, 15.758155574713802 ], [ 76.889645423116434, 17.500408951824852 ], [ 76.735345600096821, 17.796463696959542 ], [ 76.727730115356437, 17.837157254762825 ], [ 76.744321855300555, 17.875327278516288 ], [ 77.838266608810429, 19.153996712723227 ], [ 78.43690705671186, 19.524331282642567 ], [ 78.488797799714987, 19.535471346056653 ], [ 79.980895848477815, 18.882649469345154 ], [ 80.56640456591596, 18.46368417768176 ], [ 80.581222798671234, 18.423281666534002 ], [ 80.657891788566047, 16.529580232458393 ], [ 80.643935631757884, 16.496401271438518 ], [ 80.614141350806548, 16.473038252401999 ], [ 79.165412565382297, 15.827361637745792 ], [ 78.041607929545549, 15.722696467292756 ] ] ] } },
{ "type": "Feature", "properties": { "hub_name": "MMLP Pune", "hub_type": "mmlp", "time_threshold_hours": 1.0, "label": "1 Hour Catchment" }, "geometry": { "type": "Polygon", "coordinates": [ [ [ 74.069937776566775, 17.993964474931168 ], [ 74.044942422923455, 17.977771827251178 ], [ 74.015354579001368, 17.972068776294297 ], [ 73.985759816659581, 17.977738838391005 ], [ 73.960744775131687, 17.993903608219654 ], [ 73.5498526869941, 18.477882876691975 ], [ 73.360733581759874, 18.728492118624111 ], [ 73.356111572315015, 18.77770319428247 ], [ 73.37941103220399, 18.814037847609853 ], [ 73.912203105310951, 19.051364425148119 ], [ 73.941099289489571, 19.057987471557546 ], [ 73.977389477787383, 19.051013646383197 ], [ 74.373100859883905, 18.872388632590795 ], [ 74.398713665596702, 18.853638518487852 ], [ 74.415160040312514, 18.822359524205506 ], [ 74.501628696518324, 18.460116676058608 ], [ 74.498085692013092, 18.41671423677165 ], [ 74.481292258903025, 18.39222833385254 ], [ 74.069937776566775, 17.993964474931168 ] ] ] } },
{ "type": "Feature", "properties": { "hub_name": "MMLP Pune", "hub_type": "mmlp", "time_threshold_hours": 2.0, "label": "2 Hour Catchment" }, "geometry": { "type": "Polygon", "coordinates": [ [ [ 74.110935524248262, 17.438559027240096 ], [ 74.058571013876417, 17.434703152609707 ], [ 74.020596495102794, 17.4583522999813 ], [ 72.969664585952501, 18.657282106727983 ], [ 72.956538788736523, 18.692667219221953 ], [ 72.936939293099329, 18.926071130228227 ], [ 72.965921852800832, 19.011130751633658 ], [ 73.017034836381995, 19.112179951572198 ], [ 73.055359856186598, 19.147360346393285 ], [ 74.213614572813782, 19.472896272746777 ], [ 74.243783928245605, 19.466626498003887 ], [ 74.796427022526984, 19.233349476321784 ], [ 74.829997720720201, 19.205876888620853 ], [ 74.90225809189235, 19.063996065308018 ], [ 75.049503673173334, 18.150705449832678 ], [ 75.04242128350694, 18.122914291332851 ], [ 75.018981329783216, 18.095225285731292 ], [ 74.110935524248262, 17.438559027240096 ] ] ] } },
{ "type": "Feature", "properties": { "hub_name": "MMLP Pune", "hub_type": "mmlp", "time_threshold_hours": 4.0, "label": "4 Hour Catchment" }, "geometry": { "type": "Polygon", "coordinates": [ [ [ 74.417634087467604, 16.314628440375962 ], [ 74.380339946397271, 16.310086550831041 ], [ 74.351744191910953, 16.319424481249335 ], [ 73.910270907771263, 16.632387980819491 ], [ 72.908001872388155, 18.185132807432783 ], [ 72.890441519288288, 18.232421597873255 ], [ 72.804684290582287, 18.644485140379608 ], [ 72.803325977089372, 19.055787139145767 ], [ 72.829880249774632, 19.722314253803479 ], [ 72.85540346760196, 19.783659675694022 ], [ 73.167681882452555, 19.966155632261135 ], [ 74.073672828418623, 20.328842872920614 ], [ 74.447828981744792, 20.335242542874024 ], [ 75.448506348280318, 20.167089228297499 ], [ 75.490555424159894, 20.145853998391665 ], [ 75.693155541016623, 19.896117224174791 ], [ 76.103881533903078, 18.363395153354144 ], [ 76.141128033369242, 17.734510329636926 ], [ 76.126230903525553, 17.703150656215399 ], [ 75.922057616976474, 17.452774212272541 ], [ 75.641885364572616, 17.195557716306215 ], [ 74.725611530896956, 16.499423363706107 ], [ 74.417634087467604, 16.314628440375962 ] ] ] } },
{ "type": "Feature", "properties": { "hub_name": "MMLP Visakhapatnam", "hub_type": "mmlp", "time_threshold_hours": 1.0, "label": "1 Hour Catchment" }, "geometry": { "type": "Polygon", "coordinates": [ [ [ 83.304017265785134, 17.710890545307638 ], [ 83.286300415700268, 17.688230908481028 ], [ 83.260949174219974, 17.673697713910357 ], [ 83.231745502059766, 17.669457374555957 ], [ 83.203043332627303, 17.676141827389973 ], [ 83.179122166664698, 17.692754857704838 ], [ 83.163551524976612, 17.7168197922575 ], [ 83.15865919357131, 17.744747113565627 ], [ 83.16556929745694, 17.773258245438949 ], [ 83.183696905225631, 17.79708577961139 ], [ 83.209352249351724, 17.811898159115319 ], [ 83.238981035940469, 17.816134896461286 ], [ 83.268035588290999, 17.809145451417255 ], [ 83.292056761886641, 17.792002997160118 ], [ 83.307360991578435, 17.767338795861061 ], [ 83.311606020333912, 17.738936596219958 ], [ 83.304017265785134, 17.710890545307638 ] ] ] } },
{ "type": "Feature", "properties": { "hub_name": "MMLP Visakhapatnam", "hub_type": "mmlp", "time_threshold_hours": 2.0, "label": "2 Hour Catchment" }, "geometry": { "type": "Polygon", "coordinates": [ [ [ 83.304017265785134, 17.710890545307638 ], [ 83.286300415700268, 17.688230908481028 ], [ 83.260949174219974, 17.673697713910357 ], [ 83.231745502059766, 17.669457374555957 ], [ 83.203043332627303, 17.676141827389973 ], [ 83.179122166664698, 17.692754857704838 ], [ 83.163551524976612, 17.7168197922575 ], [ 83.15865919357131, 17.744747113565627 ], [ 83.16556929745694, 17.773258245438949 ], [ 83.183696905225631, 17.79708577961139 ], [ 83.209352249351724, 17.811898159115319 ], [ 83.238981035940469, 17.816134896461286 ], [ 83.268035588290999, 17.809145451417255 ], [ 83.292056761886641, 17.792002997160118 ], [ 83.307360991578435, 17.767338795861061 ], [ 83.311606020333912, 17.738936596219958 ], [ 83.304017265785134, 17.710890545307638 ] ] ] } },
{ "type": "Feature", "properties": { "hub_name": "MMLP Visakhapatnam", "hub_type": "mmlp", "time_threshold_hours": 4.0, "label": "4 Hour Catchment" }, "geometry": { "type": "Polygon", "coordinates": [ [ [ 83.304017265785134, 17.710890545307638 ], [ 83.286300415700268, 17.688230908481028 ], [ 83.260949174219974, 17.673697713910357 ], [ 83.231745502059766, 17.669457374555957 ], [ 83.203043332627303, 17.676141827389973 ], [ 83.179122166664698, 17.692754857704838 ], [ 83.163551524976612, 17.7168197922575 ], [ 83.15865919357131, 17.744747113565627 ], [ 83.16556929745694, 17.773258245438949 ], [ 83.183696905225631, 17.79708577961139 ], [ 83.209352249351724, 17.811898159115319 ], [ 83.238981035940469, 17.816134896461286 ], [ 83.268035588290999, 17.809145451417255 ], [ 83.292056761886641, 17.792002997160118 ], [ 83.307360991578435, 17.767338795861061 ], [ 83.311606020333912, 17.738936596219958 ], [ 83.304017265785134, 17.710890545307638 ] ] ] } },
{ "type": "Feature", "properties": { "hub_name": "MMLP Silchar", "hub_type": "mmlp", "time_threshold_hours": 1.0, "label": "1 Hour Catchment" }, "geometry": { "type": "Polygon", "coordinates": [ [ [ 92.783353676439305, 24.370965276433271 ], [ 92.748239402760532, 24.354062825489258 ], [ 92.708579039552887, 24.354585351170918 ], [ 92.67400967291475, 24.37240587869077 ], [ 92.652936506921961, 24.403193159516292 ], [ 92.6441592064715, 24.843339693806218 ], [ 92.66126950468535, 25.006202461705875 ], [ 92.674039589336189, 25.038840595873555 ], [ 92.762228659306345, 25.145510320274095 ], [ 92.796002261861858, 25.163533148216697 ], [ 92.826268526800803, 25.168356461873735 ], [ 92.863290435469821, 25.159511564257716 ], [ 92.891693136851742, 25.13616333578241 ], [ 93.09361477409854, 24.864680953714107 ], [ 93.106110202265356, 24.80797752597806 ], [ 93.086671210920514, 24.754002891997018 ], [ 92.849546555425931, 24.428621888521203 ], [ 92.783353676439305, 24.370965276433271 ] ] ] } },
{ "type": "Feature", "properties": { "hub_name": "MMLP Silchar", "hub_type": "mmlp", "time_threshold_hours": 2.0, "label": "2 Hour Catchment" }, "geometry": { "type": "Polygon", "coordinates": [ [ [ 92.744473279889306, 24.05665640240235 ], [ 92.69525194361934, 24.037022477273869 ], [ 92.643562750413807, 24.050264685579229 ], [ 92.542274697251599, 24.145832101597065 ], [ 92.523531807573036, 24.188028860514024 ], [ 92.665350622877781, 25.021502990187926 ], [ 92.763077048891347, 25.146203517430727 ], [ 92.983107534984796, 25.290354705434481 ], [ 93.032031900314777, 25.304617089699182 ], [ 93.174504790402722, 25.290635498440135 ], [ 93.211439962568264, 25.263297360220676 ], [ 93.224610154769778, 25.214496450462448 ], [ 93.015311189341517, 24.30278212180394 ], [ 92.98945935878227, 24.265980595405107 ], [ 92.744473279889306, 24.05665640240235 ] ] ] } },
{ "type": "Feature", "properties": { "hub_name": "MMLP Silchar", "hub_type": "mmlp", "time_threshold_hours": 4.0, "label": "4 Hour Catchment" }, "geometry": { "type": "Polygon", "coordinates": [ [ [ 92.906261906996903, 23.593170484310832 ], [ 92.871476200051035, 23.57669578089639 ], [ 92.832376274046652, 23.577394810936767 ], [ 92.47004001173454, 23.705678238052577 ], [ 92.260617388502041, 23.884540292036856 ], [ 92.234700146263762, 23.916602499026048 ], [ 92.227618204666527, 23.956956314514599 ], [ 92.418036244470983, 24.882726371486832 ], [ 92.652270813967363, 25.528556370182159 ], [ 92.89471375244915, 25.96800028486355 ], [ 92.924543256339248, 25.99318796992798 ], [ 92.963125427954509, 26.002168258683017 ], [ 93.399694128286939, 25.862648761315249 ], [ 93.430685384010218, 25.838658088914457 ], [ 93.445331965298536, 25.796621879507409 ], [ 93.275048344323764, 24.240723902640379 ], [ 92.957761086201515, 23.649387040073275 ], [ 92.906261906996903, 23.593170484310832 ] ] ] } },
{ "type": "Feature", "properties": { "hub_name": "MMLP Vijayawada", "hub_type": "mmlp", "time_threshold_hours": 1.0, "label": "1 Hour Catchment" }, "geometry": { "type": "Polygon", "coordinates": [ [ [ 81.203681046628262, 16.162919264594191 ], [ 81.176028444945032, 16.122504756376017 ], [ 81.12830860812133, 16.10769144061176 ], [ 80.35508732968448, 16.198190973094739 ], [ 80.321188818066801, 16.210517563299472 ], [ 80.290580779626467, 16.253100570139249 ], [ 80.14069993388982, 16.827833332105946 ], [ 80.13919822189024, 16.856330859917843 ], [ 80.149133062547904, 16.883215489496088 ], [ 80.175190177194992, 16.908394041603362 ], [ 80.203084311580994, 16.918057896896915 ], [ 80.632588077301804, 16.979509362459151 ], [ 80.661620989962984, 16.978214302637141 ], [ 80.688025212313235, 16.966528386623406 ], [ 81.034531067314745, 16.673422535101231 ], [ 81.176745087765212, 16.463414033846291 ], [ 81.1886632437636, 16.428782591239084 ], [ 81.203681046628262, 16.162919264594191 ] ] ] } },
{ "type": "Feature", "properties": { "hub_name": "MMLP Vijayawada", "hub_type": "mmlp", "time_threshold_hours": 2.0, "label": "2 Hour Catchment" }, "geometry": { "type": "Polygon", "coordinates": [ [ [ 80.060826097322689, 15.727981482198533 ], [ 80.011556867445478, 15.730185117655751 ], [ 79.973813921047125, 15.761976221627686 ], [ 79.856469751102381, 16.095856939009256 ], [ 79.608789527981074, 17.095324048189262 ], [ 79.609952124472429, 17.133681252267099 ], [ 79.633799843259666, 17.168496383333459 ], [ 79.659269960569304, 17.182098145407274 ], [ 80.080210853557162, 17.313012493737332 ], [ 80.62287567372374, 17.47293662644303 ], [ 80.65886848969474, 17.474919458250252 ], [ 80.685828371270489, 17.464823324755415 ], [ 81.437673120357431, 17.006269584958879 ], [ 81.573466551962412, 16.88240028104952 ], [ 81.688211373239028, 16.56198365440132 ], [ 81.691898088640016, 16.533164641366501 ], [ 81.675419745044408, 16.493005917172841 ], [ 81.517847609816783, 16.33815751311305 ], [ 80.929944980425688, 15.973573118782801 ], [ 80.060826097322689, 15.727981482198533 ] ] ] } },
{ "type": "Feature", "properties": { "hub_name": "MMLP Vijayawada", "hub_type": "mmlp", "time_threshold_hours": 4.0, "label": "4 Hour Catchment" }, "geometry": { "type": "Polygon", "coordinates": [ [ [ 80.046023164044755, 14.670791239545716 ], [ 80.005964102339789, 14.651792098703675 ], [ 79.955317530496885, 14.661886912493578 ], [ 79.456504547241266, 15.033612887319089 ], [ 79.03878496065991, 15.478965011433317 ], [ 78.785078320629495, 15.835429515025043 ], [ 78.476243881167804, 17.345502903275683 ], [ 78.48217233771291, 17.373619164655484 ], [ 78.503212572056512, 17.401268497106432 ], [ 79.435049414371051, 18.155654305528547 ], [ 79.462485484835099, 18.166892355123046 ], [ 79.878595996538323, 18.250173105144725 ], [ 79.910828657940613, 18.246662971471871 ], [ 82.012988050855967, 17.548361468326075 ], [ 82.418735451394568, 17.318747420266341 ], [ 82.438837319900685, 17.297550164567902 ], [ 82.449656520377317, 17.263386837165147 ], [ 82.30621121448354, 16.73664637893113 ], [ 82.255526062323838, 16.65713484481061 ], [ 80.046023164044755, 14.670791239545716 ] ] ] } },
{ "type": "Feature", "properties": { "hub_name": "MMLP Surat", "hub_type": "mmlp", "time_threshold_hours": 1.0, "label": "1 Hour Catchment" }, "geometry": { "type": "Polygon", "coordinates": [ [ [ 72.981088343087364, 21.129920365746536 ], [ 72.979711448862986, 21.10171021053954 ], [ 72.962402117721226, 21.070510788151125 ], [ 72.931651125155796, 21.050409740047634 ], [ 72.894478667794516, 21.045992669403805 ], [ 72.798441632622911, 21.090588049836359 ], [ 72.779941075105484, 21.111056952217663 ], [ 72.756701647299082, 21.158639464525077 ], [ 72.698140793269218, 21.374247546968672 ], [ 72.745296582061286, 21.548249611669927 ], [ 72.760939239670591, 21.572389140401974 ], [ 72.785149324621159, 21.589244492743635 ], [ 72.814365464241476, 21.59633422407121 ], [ 72.844286215905683, 21.59261429316528 ], [ 72.870505909274812, 21.578632522413105 ], [ 72.89229762246913, 21.549981964133291 ], [ 72.94802904753054, 21.336843332218884 ], [ 72.981088343087364, 21.129920365746536 ] ] ] } },
{ "type": "Feature", "properties": { "hub_name": "MMLP Surat", "hub_type": "mmlp", "time_threshold_hours": 2.0, "label": "2 Hour Catchment" }, "geometry": { "type": "Polygon", "coordinates": [ [ [ 72.981088343087364, 21.129920365746536 ], [ 72.979711448862986, 21.10171021053954 ], [ 72.962402117721226, 21.070510788151125 ], [ 72.931651125155796, 21.050409740047634 ], [ 72.894478667794516, 21.045992669403805 ], [ 72.798441632622911, 21.090588049836359 ], [ 72.779941075105484, 21.111056952217663 ], [ 72.756701647299082, 21.158639464525077 ], [ 72.698140793269218, 21.374247546968672 ], [ 72.745296582061286, 21.548249611669927 ], [ 72.760939239670591, 21.572389140401974 ], [ 72.785149324621159, 21.589244492743635 ], [ 72.814365464241476, 21.59633422407121 ], [ 72.844286215905683, 21.59261429316528 ], [ 72.870505909274812, 21.578632522413105 ], [ 72.89229762246913, 21.549981964133291 ], [ 72.94802904753054, 21.336843332218884 ], [ 72.981088343087364, 21.129920365746536 ] ] ] } },
{ "type": "Feature", "properties": { "hub_name": "MMLP Surat", "hub_type": "mmlp", "time_threshold_hours": 4.0, "label": "4 Hour Catchment" }, "geometry": { "type": "Polygon", "coordinates": [ [ [ 72.981088343087364, 21.129920365746536 ], [ 72.979711448862986, 21.10171021053954 ], [ 72.962402117721226, 21.070510788151125 ], [ 72.931651125155796, 21.050409740047634 ], [ 72.894478667794516, 21.045992669403805 ], [ 72.798441632622911, 21.090588049836359 ], [ 72.779941075105484, 21.111056952217663 ], [ 72.756701647299082, 21.158639464525077 ], [ 72.698140793269218, 21.374247546968672 ], [ 72.745296582061286, 21.548249611669927 ], [ 72.760939239670591, 21.572389140401974 ], [ 72.785149324621159, 21.589244492743635 ], [ 72.814365464241476, 21.59633422407121 ], [ 72.844286215905683, 21.59261429316528 ], [ 72.870505909274812, 21.578632522413105 ], [ 72.89229762246913, 21.549981964133291 ], [ 72.94802904753054, 21.336843332218884 ], [ 72.981088343087364, 21.129920365746536 ] ] ] } },
{ "type": "Feature", "properties": { "hub_name": "MMLP Kolkata", "hub_type": "mmlp", "time_threshold_hours": 1.0, "label": "1 Hour Catchment" }, "geometry": { "type": "Polygon", "coordinates": [ [ [ 88.318012527755684, 22.039734964682399 ], [ 88.299108802565144, 22.016148648380231 ], [ 88.264167321816373, 21.999336089175589 ], [ 88.224864765897934, 22.00031047317804 ], [ 88.196846524161089, 22.013886701462223 ], [ 87.791294424744265, 22.38666633202093 ], [ 87.769356317158582, 22.424069550068211 ], [ 87.773361628102094, 22.466511294578353 ], [ 88.041268979464533, 23.08510493468707 ], [ 88.059889148022748, 23.110636630339297 ], [ 88.095713217704329, 23.129061171506439 ], [ 88.143885494733539, 23.126384276003623 ], [ 88.57617069095555, 22.970983415938658 ], [ 88.69058060489013, 22.884130851472086 ], [ 88.712072890013545, 22.844790832618809 ], [ 88.705466356977709, 22.801124162882182 ], [ 88.318012527755684, 22.039734964682399 ] ] ] } },
{ "type": "Feature", "properties": { "hub_name": "MMLP Kolkata", "hub_type": "mmlp", "time_threshold_hours": 2.0, "label": "2 Hour Catchment" }, "geometry": { "type": "Polygon", "coordinates": [ [ [ 88.33928613948494, 21.530965027418411 ], [ 88.320939829077574, 21.506927855244765 ], [ 88.286380625862833, 21.489412905788988 ], [ 88.247083110014941, 21.489720942994776 ], [ 88.209605818413536, 21.505898484480397 ], [ 87.340124774280014, 22.118440119905454 ], [ 87.127420546477495, 22.284361293989022 ], [ 87.102537420387975, 22.319243636699237 ], [ 87.104542287052055, 22.36780919688934 ], [ 87.548401467695953, 23.407897329551982 ], [ 87.699488342316556, 23.534216007863844 ], [ 87.726537922199938, 23.54820511780057 ], [ 87.910596128178497, 23.54093214488978 ], [ 88.491764152156591, 23.489734071349812 ], [ 88.893599350803541, 23.2576480916224 ], [ 88.914717459557963, 23.239503437852552 ], [ 88.933108327337095, 23.206706815490488 ], [ 88.963713925683024, 23.043542521676155 ], [ 88.974973568318106, 22.878646160201708 ], [ 88.969834335520787, 22.844828460282059 ], [ 88.33928613948494, 21.530965027418411 ] ] ] } },
{ "type": "Feature", "properties": { "hub_name": "MMLP Kolkata", "hub_type": "mmlp", "time_threshold_hours": 4.0, "label": "4 Hour Catchment" }, "geometry": { "type": "Polygon", "coordinates": [ [ [ 86.698037806920766, 21.219223504757242 ], [ 86.657424943388676, 21.222151975962127 ], [ 86.622266172752532, 21.245424206141177 ], [ 86.035447436125438, 21.923297173793433 ], [ 86.018056344806226, 21.963325355885793 ], [ 86.125217637085498, 22.866073094826568 ], [ 86.330590453168867, 23.883295664250333 ], [ 86.346373618308988, 23.906544207557594 ], [ 86.370313640774157, 23.922876004254736 ], [ 87.985464618115572, 24.629859527992533 ], [ 88.015228147922357, 24.636747310967824 ], [ 88.052831499249024, 24.630365923854065 ], [ 88.737736175672467, 24.18670505449364 ], [ 88.767908244626085, 24.155185579249821 ], [ 89.026121848428872, 22.680816535287793 ], [ 89.0228583764288, 22.645546889475391 ], [ 88.335761624839847, 21.524439488679629 ], [ 88.309485977892791, 21.498665740442384 ], [ 88.280987898922447, 21.488342742058805 ], [ 86.698037806920766, 21.219223504757242 ] ] ] } },
{ "type": "Feature", "properties": { "hub_name": "MMLP Coimbatore", "hub_type": "mmlp", "time_threshold_hours": 1.0, "label": "1 Hour Catchment" }, "geometry": { "type": "Polygon", "coordinates": [ [ [ 77.116790296374674, 10.579672971363289 ], [ 77.082037938615798, 10.573059555137672 ], [ 76.98369509105224, 10.590308700576527 ], [ 76.72386857277013, 10.73671306342081 ], [ 76.694417017636994, 10.767913485386909 ], [ 76.687291962181575, 10.802949425605975 ], [ 76.715933484159677, 11.337592509392458 ], [ 76.730766291291403, 11.377433727930621 ], [ 76.767718507952495, 11.404421119603931 ], [ 77.203268964342797, 11.500149863962903 ], [ 77.231600676827611, 11.491993050046887 ], [ 77.258692668816622, 11.467508288688968 ], [ 77.549598508030329, 11.023159196227322 ], [ 77.560914624153639, 10.977566499347651 ], [ 77.530521783501342, 10.870384087713189 ], [ 77.5094619484465, 10.841797847296334 ], [ 77.116790296374674, 10.579672971363289 ] ] ] } },
{ "type": "Feature", "properties": { "hub_name": "MMLP Coimbatore", "hub_type": "mmlp", "time_threshold_hours": 2.0, "label": "2 Hour Catchment" }, "geometry": { "type": "Polygon", "coordinates": [ [ [ 77.840634369711879, 10.442746938745049 ], [ 77.816564480807685, 10.418088192762319 ], [ 77.783692197585509, 10.40728874542895 ], [ 77.540614968943714, 10.410860268476087 ], [ 76.313797368069885, 10.482819815844216 ], [ 76.273874730347544, 10.497344673821663 ], [ 76.249036790951521, 10.531369779020697 ], [ 76.247508368639046, 10.572926105196672 ], [ 76.364063722162157, 11.009814747683224 ], [ 76.513211019542311, 11.48176497264398 ], [ 76.527583867792487, 11.507290338977397 ], [ 76.99743054231503, 11.864281106116646 ], [ 77.037192246266571, 11.878951485628528 ], [ 77.07592002115922, 11.870949725564698 ], [ 77.74712378062415, 11.545382388649953 ], [ 77.811160613882635, 11.48684054874856 ], [ 78.12594405287031, 11.029379470380649 ], [ 78.137927021006874, 10.997864851423671 ], [ 78.122766083585461, 10.921026596484461 ], [ 77.840634369711879, 10.442746938745049 ] ] ] } },
{ "type": "Feature", "properties": { "hub_name": "MMLP Coimbatore", "hub_type": "mmlp", "time_threshold_hours": 4.0, "label": "4 Hour Catchment" }, "geometry": { "type": "Polygon", "coordinates": [ [ [ 77.989618495209399, 9.507770078727837 ], [ 77.945773387869437, 9.494807538578099 ], [ 76.328410136701805, 9.539441405777479 ], [ 76.287249902539685, 9.553362958500319 ], [ 76.264331297409171, 9.581452933591532 ], [ 75.649415624500463, 11.384136955861262 ], [ 75.644098171360412, 11.417454537776326 ], [ 75.663227183440171, 11.461091699068017 ], [ 76.548136478749598, 12.401044122959133 ], [ 76.571754972409082, 12.417662131619251 ], [ 76.619714554319259, 12.426761555101368 ], [ 78.04391569047543, 12.491241016549777 ], [ 78.233015844930549, 12.489425146017217 ], [ 78.274042768075105, 12.47159182976117 ], [ 78.646500037229785, 12.139511511719046 ], [ 78.784503329940065, 10.817059237704651 ], [ 78.781506669472975, 10.737178554743206 ], [ 78.00916971290988, 9.528091864238009 ], [ 77.989618495209399, 9.507770078727837 ] ] ] } },
{ "type": "Feature", "properties": { "hub_name": "MMLP Jammu", "hub_type": "mmlp", "time_threshold_hours": 1.0, "label": "1 Hour Catchment" }, "geometry": { "type": "Polygon", "coordinates": [ [ [ 75.340535331697367, 32.740822507850446 ], [ 75.334368537256296, 32.660819585187262 ], [ 75.309886949828282, 32.583351159143341 ], [ 75.268063233890629, 32.511389350007896 ], [ 75.210527004296694, 32.447691616853525 ], [ 75.139498857460254, 32.394696003562665 ], [ 75.057703642848438, 32.354428948129403 ], [ 74.96826650105163, 32.328428967259903 ], [ 74.874595537962676, 32.317688907021058 ], [ 74.780255221911986, 32.322618763990235 ], [ 74.68883471502275, 32.343030352563162 ], [ 74.60381540849545, 32.378144341073757 ], [ 74.528441940091795, 32.426619417132613 ], [ 74.465600933386128, 32.486602584530381 ], [ 74.417711601110724, 32.555798854329176 ], [ 74.38663217580465, 32.631557888267572 ], [ 74.373585838539796, 32.710974504257685 ], [ 74.379109377005108, 32.790999386621436 ], [ 74.403027188744801, 32.86855588583574 ], [ 74.444452437352282, 32.940658472572544 ], [ 74.501816171806567, 33.004528254858151 ], [ 74.572924059304654, 33.05770099547297 ], [ 74.655039113737914, 33.098123290591694 ], [ 74.744987503469829, 33.124232990370416 ], [ 74.839283288950355, 33.135020545820346 ], [ 74.934266875514467, 33.130068730065439 ], [ 75.02625116578308, 33.109569071537663 ], [ 75.111668935979708, 33.074314309058359 ], [ 75.187214886654729, 33.025667185790091 ], [ 75.249976138161102, 32.965506890153634 ], [ 75.297545622924005, 32.896155377453859 ], [ 75.328113803955802, 32.820286620973512 ], [ 75.340535331697367, 32.740822507850446 ] ] ] } },
{ "type": "Feature", "properties": { "hub_name": "MMLP Jammu", "hub_type": "mmlp", "time_threshold_hours": 2.0, "label": "2 Hour Catchment" }, "geometry": { "type": "Polygon", "coordinates": [ [ [ 75.824180485140317, 32.753641699598482 ], [ 75.811204902263299, 32.593659711899683 ], [ 75.761682604592181, 32.43881320797545 ], [ 75.677643175314017, 32.295033312529604 ], [ 75.562404330099284, 32.167813502775246 ], [ 75.420431475820777, 32.062003330225352 ], [ 75.257160938735666, 31.981628110009229 ], [ 75.078794296901862, 31.929740567405048 ], [ 74.89207114119975, 31.908309141473175 ], [ 74.704027312379409, 31.91814633985793 ], [ 74.521745368632025, 31.958879253407034 ], [ 74.352103842786534, 32.028963082433123 ], [ 74.201531815227554, 32.125737285017721 ], [ 74.075775468387278, 32.245522709005265 ], [ 73.979683556172162, 32.383756794941398 ], [ 73.917019020499879, 32.53516263631078 ], [ 73.890304178710593, 32.69394638153787 ], [ 73.900706824905711, 32.854016214047292 ], [ 73.947974065969802, 33.009215032031307 ], [ 74.030419603966848, 33.15355806301163 ], [ 74.144968391417024, 33.281466084895918 ], [ 74.287260121114315, 33.387984765447847 ], [ 74.451809971333745, 33.468980928790323 ], [ 74.632221626871001, 33.521307327835295 ], [ 74.821444149352672, 33.54292872420617 ], [ 75.012061147457331, 33.533003695646585 ], [ 75.196598270868719, 33.491918519484138 ], [ 75.367833629421753, 33.42127161304402 ], [ 75.519095508852814, 33.323809229077845 ], [ 75.644532747671846, 33.203315282452429 ], [ 75.739345223695679, 33.064460201943497 ], [ 75.799964804238058, 32.912615446012886 ], [ 75.824180485140317, 32.753641699598482 ] ] ] } },
{ "type": "Feature", "properties": { "hub_name": "MMLP Jammu", "hub_type": "mmlp", "time_threshold_hours": 4.0, "label": "4 Hour Catchment" }, "geometry": { "type": "Polygon", "coordinates": [ [ [ 76.791754787354705, 32.7750689850131 ], [ 76.786762193657083, 32.614583049012218 ], [ 76.763241126764981, 32.455208064253327 ], [ 76.72149035045237, 32.298475056507279 ], [ 76.661978873611986, 32.145885656546945 ], [ 76.585338942983242, 31.998897910824937 ], [ 76.492357788486956, 31.858912660962176 ], [ 76.383968274623342, 31.727260608596705 ], [ 76.261238605478539, 31.605190169573373 ], [ 76.125361222225607, 31.49385620862601 ], [ 75.977641021357854, 31.394309733019654 ], [ 75.819483009993093, 31.307488611420737 ], [ 75.652379502123509, 31.23420937284531 ], [ 75.477896947284535, 31.175160130103507 ], [ 75.297662471329957, 31.130894662846433 ], [ 75.113350198302669, 31.101827687166725 ], [ 74.926667413177753, 31.088231331662055 ], [ 74.739340617841563, 31.090232833816632 ], [ 74.553101527297841, 31.107813465296115 ], [ 74.369673049924586, 31.140808690040281 ], [ 74.190755294740399, 31.188909554586079 ], [ 74.018011650098927, 31.251665305567336 ], [ 73.853054981975404, 31.328487224509143 ], [ 73.697434005922858, 31.418653664594945 ], [ 73.552619894676539, 31.521316267791196 ], [ 73.419993193011692, 31.635507333397648 ], [ 73.300831122476865, 31.760148300639898 ], [ 73.196295370618202, 31.894059298313991 ], [ 73.10742047178249, 32.035969703793505 ], [ 73.035102898968489, 32.184529642066785 ], [ 72.980090997842538, 32.338322343119373 ], [ 72.942975904243852, 32.495877263217565 ], [ 72.924183594533147, 32.655683862851198 ], [ 72.923968223221237, 32.816205921653477 ], [ 72.942406903703628, 32.975896258965761 ], [ 72.979396084921589, 33.133211718269891 ], [ 73.034649668763024, 33.286628264870927 ], [ 73.107698999537121, 33.4346560393315 ], [ 73.197894837622712, 33.575854204528298 ], [ 73.304411404341423, 33.708845422037342 ], [ 73.426252554455175, 33.832329793996195 ], [ 73.56226009692719, 33.945098109685738 ], [ 73.711124244517819, 34.046044241794966 ], [ 73.871396129499203, 34.134176545568906 ], [ 74.041502277619088, 34.208628124629428 ], [ 74.219760886990585, 34.268665839978951 ], [ 74.404399714535231, 34.313697953295964 ], [ 74.593575331726598, 34.343280311836395 ], [ 74.785393475387735, 34.357120999779298 ], [ 74.977930189760954, 34.355083399418426 ], [ 75.169253434325782, 34.337187624922421 ], [ 75.357444818886094, 34.30361031119876 ], [ 75.540621123888542, 34.254682760433269 ], [ 75.716955269936065, 34.190887468881932 ], [ 75.884696415741715, 34.112853076202818 ], [ 76.042188887619503, 34.021347798769312 ], [ 76.187889674936329, 33.917271426728647 ], [ 76.32038426335474, 33.801645981784894 ], [ 76.438400619555381, 33.675605148502903 ], [ 76.540821185704985, 33.540382606075212 ], [ 76.626692787471015, 33.397299399689601 ], [ 76.69523440420096, 33.247750500640102 ], [ 76.745842792465325, 33.093190711930887 ], [ 76.778095993219594, 32.93512008117613 ], [ 76.791754787354705, 32.7750689850131 ] ] ] } },
{ "type": "Feature", "properties": { "hub_name": "MMLP Sangrur", "hub_type": "mmlp", "time_threshold_hours": 1.0, "label": "1 Hour Catchment" }, "geometry": { "type": "Polygon", "coordinates": [ [ [ 76.194674257562625, 29.671287196229567 ], [ 76.171164873804358, 29.651178286316618 ], [ 76.140612638075979, 29.640512485271131 ], [ 76.107715728198073, 29.640930121165511 ], [ 76.077531030731691, 29.652366970271746 ], [ 75.387238738882033, 30.067712818048346 ], [ 75.199122650031228, 30.214873339493554 ], [ 75.179341567230864, 30.248440550144917 ], [ 75.182597815960932, 30.289229929079998 ], [ 75.336582253611255, 30.560116011140497 ], [ 75.371767279174563, 30.579462172773752 ], [ 75.412315404123092, 30.582067116394402 ], [ 76.462606351615364, 30.423368455804095 ], [ 76.511013816483555, 30.399791951100202 ], [ 76.531205059350043, 30.362207721117368 ], [ 76.522705174623482, 30.302332464742975 ], [ 76.302210302232467, 29.812142293833254 ], [ 76.194674257562625, 29.671287196229567 ] ] ] } },
{ "type": "Feature", "properties": { "hub_name": "MMLP Sangrur", "hub_type": "mmlp", "time_threshold_hours": 2.0, "label": "2 Hour Catchment" }, "geometry": { "type": "Polygon", "coordinates": [ [ [ 76.425223913078767, 29.119711167732483 ], [ 76.395096270851184, 29.108054336452462 ], [ 76.362181029642912, 29.107525395194134 ], [ 75.882077315300194, 29.18464441231108 ], [ 75.10559330775898, 29.576791511686093 ], [ 74.67890219721474, 29.939114998423083 ], [ 74.50235454983887, 30.172126501462426 ], [ 74.490059339836804, 30.198298892393961 ], [ 74.489964721427, 30.226045481205674 ], [ 74.557670579290019, 30.424521474405282 ], [ 74.850309515920273, 30.88083848771133 ], [ 75.021606650843353, 31.072862522171903 ], [ 75.072856610371574, 31.09117150140187 ], [ 75.311136033150248, 31.083417440516698 ], [ 76.920615010927733, 30.827528934125976 ], [ 76.950909637461265, 30.817016226174154 ], [ 76.978677108577173, 30.791372434831032 ], [ 76.988785692643589, 30.764575660708811 ], [ 77.052477743703932, 30.309472081621667 ], [ 77.048369077808445, 30.276484805092899 ], [ 76.45319504020128, 29.149183571213932 ], [ 76.425223913078767, 29.119711167732483 ] ] ] } },
{ "type": "Feature", "properties": { "hub_name": "MMLP Sangrur", "hub_type": "mmlp", "time_threshold_hours": 4.0, "label": "4 Hour Catchment" }, "geometry": { "type": "Polygon", "coordinates": [ [ [ 76.69788360416139, 28.074933831151895 ], [ 76.66271619545293, 28.062008309753139 ], [ 76.632174584106721, 28.062672371245664 ], [ 75.093345544632356, 28.348111391341185 ], [ 74.016704328015763, 28.935214180338654 ], [ 73.477699772559788, 29.666366785637774 ], [ 73.471755164017566, 29.694300025942052 ], [ 73.478433173214256, 29.722105411104248 ], [ 73.808295817989304, 30.395023914452239 ], [ 74.503077813259154, 31.637170268273952 ], [ 74.71376368489868, 31.932670902687729 ], [ 74.757928460307724, 31.971644567049736 ], [ 74.824634044886423, 32.007993831419448 ], [ 74.88315947048568, 32.026082569907118 ], [ 75.60719555116458, 32.065288196467449 ], [ 75.657059248222751, 32.054698632769536 ], [ 76.385120226967274, 31.671704550919127 ], [ 77.264046312677166, 31.155878815203138 ], [ 77.732282403355953, 30.577622317343195 ], [ 77.820227102803926, 30.435802312983494 ], [ 77.823298017759029, 30.387099252049662 ], [ 77.646921588916072, 29.863365047112765 ], [ 77.21646495640131, 28.645435651286618 ], [ 76.822587585820656, 28.156715391403687 ], [ 76.69788360416139, 28.074933831151895 ] ] ] } }
]
}
